{
  "type": "FeatureCollection",
  "features": [
    {
      "type": "Feature",
      "properties": {
        "region_id": "cheongna",
        "region": "cheongna",
        "region_name": "청라국제업무지구",
        "station_name": "청라국제도시",
        "cutoff_minutes": 30,
        "layer_type": "isochrone_30",
        "layer_label_ko": "30분 도달권",
        "reachable_node_count": 47,
        "note": "철도 네트워크 도달 노드의 convex hull 기반 근사 polygon이며 실제 보행권역이 아님"
      },
      "geometry": {
        "type": "Polygon",
        "coordinates": [
          [
            [
              126.43357757667609,
              37.46877657917764
            ],
            [
              126.45270837082361,
              37.44756949409256
            ],
            [
              126.67522599094904,
              37.48982331843308
            ],
            [
              126.83768193704763,
              37.55872896885388
            ],
            [
              126.82733494276691,
              37.566874886870906
            ],
            [
              126.81281690315659,
              37.57755849775306
            ],
            [
              126.77034081811517,
              37.60124578327788
            ],
            [
              126.65652943167763,
              37.60168928630328
            ],
            [
              126.62795918387782,
              37.594959347347164
            ],
            [
              126.43357757667609,
              37.46877657917764
            ]
          ]
        ]
      }
    }
  ]
}