{
  "type": "FeatureCollection",
  "features": [
    {
      "type": "Feature",
      "properties": {
        "region_id": "cheongna",
        "region": "cheongna",
        "region_name": "청라국제업무지구",
        "station_name": "청라국제도시",
        "cutoff_minutes": 60,
        "layer_type": "isochrone_60",
        "layer_label_ko": "60분 도달권",
        "reachable_node_count": 296,
        "note": "철도 네트워크 도달 노드의 convex hull 기반 근사 polygon이며 실제 보행권역이 아님"
      },
      "geometry": {
        "type": "Polygon",
        "coordinates": [
          [
            [
              126.43357757667609,
              37.46877657917764
            ],
            [
              126.45270837082361,
              37.44756949409256
            ],
            [
              126.80870135802708,
              37.36996905926629
            ],
            [
              127.0440542026834,
              37.51050736146603
            ],
            [
              127.01384244854054,
              37.56041608611719
            ],
            [
              126.91881730019298,
              37.63639757222915
            ],
            [
              126.89549454506391,
              37.653152567101166
            ],
            [
              126.76993425463164,
              37.682026514489294
            ],
            [
              126.62853189571263,
              37.64537030405077
            ],
            [
              126.61481419659216,
              37.64174342339215
            ],
            [
              126.43357757667609,
              37.46877657917764
            ]
          ]
        ]
      }
    }
  ]
}