{
  "type": "FeatureCollection",
  "features": [
    {
      "type": "Feature",
      "properties": {
        "region_id": "cheongna",
        "region_name": "청라국제업무지구",
        "base_year": 2023,
        "boundary_type": "user_defined_polygon",
        "source_note": "청라국제업무지구 B1·B2·B9·B10·C1·C2·M5·M6 블록 및 업무지구 범위를 참고하여 사용자가 지도에서 직접 작성한 경계",
        "target_area_m2_reference": 278000
      },
      "geometry": {
        "type": "Polygon",
        "coordinates": [
          [
            [
              126.632967,
              37.559071
            ],
            [
              126.63949,
              37.55703
            ],
            [
              126.636229,
              37.556009
            ],
            [
              126.632195,
              37.550362
            ],
            [
              126.636572,
              37.549409
            ],
            [
              126.638546,
              37.548388
            ],
            [
              126.640263,
              37.548797
            ],
            [
              126.641808,
              37.54764
            ],
            [
              126.643267,
              37.547504
            ],
            [
              126.643953,
              37.546347
            ],
            [
              126.64876,
              37.544441
            ],
            [
              126.651506,
              37.54308
            ],
            [
              126.650562,
              37.541107
            ],
            [
              126.65906,
              37.541107
            ],
            [
              126.662064,
              37.538861
            ],
            [
              126.663179,
              37.53852
            ],
            [
              126.662493,
              37.525792
            ],
            [
              126.659403,
              37.525588
            ],
            [
              126.658373,
              37.522593
            ],
            [
              126.656313,
              37.522252
            ],
            [
              126.655369,
              37.521436
            ],
            [
              126.651506,
              37.520823
            ],
            [
              126.651163,
              37.517147
            ],
            [
              126.65082,
              37.515649
            ],
            [
              126.644211,
              37.517555
            ],
            [
              126.638031,
              37.518508
            ],
            [
              126.636057,
              37.520006
            ],
            [
              126.633568,
              37.519666
            ],
            [
              126.633053,
              37.518781
            ],
            [
              126.634512,
              37.516943
            ],
            [
              126.628418,
              37.514083
            ],
            [
              126.623268,
              37.513402
            ],
            [
              126.616917,
              37.511088
            ],
            [
              126.610909,
              37.514628
            ],
            [
              126.603527,
              37.516806
            ],
            [
              126.602669,
              37.518849
            ],
            [
              126.602497,
              37.526337
            ],
            [
              126.609879,
              37.52729
            ],
            [
              126.60284,
              37.528379
            ],
            [
              126.602154,
              37.533416
            ],
            [
              126.597862,
              37.533688
            ],
            [
              126.599064,
              37.538588
            ],
            [
              126.6049,
              37.538997
            ],
            [
              126.604385,
              37.540766
            ],
            [
              126.598892,
              37.540222
            ],
            [
              126.596661,
              37.548558
            ],
            [
              126.597905,
              37.550157
            ],
            [
              126.60593,
              37.553186
            ],
            [
              126.606874,
              37.554206
            ],
            [
              126.610394,
              37.554955
            ],
            [
              126.612625,
              37.555159
            ],
            [
              126.6155,
              37.555227
            ],
            [
              126.62271,
              37.556588
            ],
            [
              126.632967,
              37.559071
            ]
          ]
        ]
      }
    }
  ]
}