{
  "type": "FeatureCollection",
  "features": [
    {
      "type": "Feature",
      "properties": {
        "region_id": "pangyo",
        "region_name": "제1판교테크노밸리",
        "base_year": 2023,
        "boundary_type": "user_defined_polygon",
        "source_note": "제1판교테크노밸리 공식 규모와 업무·연구시설 밀집 블록을 참고하여 사용자가 지도에서 직접 작성한 경계",
        "target_area_m2_reference": 661000
      },
      "geometry": {
        "type": "Polygon",
        "coordinates": [
          [
            [
              127.106452,
              37.407255
            ],
            [
              127.105958,
              37.407068
            ],
            [
              127.104971,
              37.407238
            ],
            [
              127.104027,
              37.407238
            ],
            [
              127.103255,
              37.407221
            ],
            [
              127.102075,
              37.407392
            ],
            [
              127.101345,
              37.407068
            ],
            [
              127.100916,
              37.407085
            ],
            [
              127.098641,
              37.406557
            ],
            [
              127.097676,
              37.406096
            ],
            [
              127.097397,
              37.405739
            ],
            [
              127.097161,
              37.404716
            ],
            [
              127.097268,
              37.404256
            ],
            [
              127.09744,
              37.403608
            ],
            [
              127.098663,
              37.402636
            ],
            [
              127.099349,
              37.402278
            ],
            [
              127.100122,
              37.401443
            ],
            [
              127.100594,
              37.400642
            ],
            [
              127.101173,
              37.399636
            ],
            [
              127.102032,
              37.399568
            ],
            [
              127.104049,
              37.399619
            ],
            [
              127.105808,
              37.399687
            ],
            [
              127.106345,
              37.399704
            ],
            [
              127.107139,
              37.39938
            ],
            [
              127.107418,
              37.398767
            ],
            [
              127.107525,
              37.398426
            ],
            [
              127.10937,
              37.398409
            ],
            [
              127.111022,
              37.398818
            ],
            [
              127.111237,
              37.399278
            ],
            [
              127.111259,
              37.399738
            ],
            [
              127.112932,
              37.399824
            ],
            [
              127.113361,
              37.400846
            ],
            [
              127.113383,
              37.401869
            ],
            [
              127.112954,
              37.403165
            ],
            [
              127.112267,
              37.404273
            ],
            [
              127.111537,
              37.405329
            ],
            [
              127.111216,
              37.405551
            ],
            [
              127.110572,
              37.405176
            ],
            [
              127.109928,
              37.405159
            ],
            [
              127.10937,
              37.405057
            ],
            [
              127.109113,
              37.404835
            ],
            [
              127.108448,
              37.404596
            ],
            [
              127.107739,
              37.404358
            ],
            [
              127.107246,
              37.404392
            ],
            [
              127.106774,
              37.404716
            ],
            [
              127.106559,
              37.405142
            ],
            [
              127.106001,
              37.405415
            ],
            [
              127.105315,
              37.405074
            ],
            [
              127.104478,
              37.405261
            ],
            [
              127.103963,
              37.405773
            ],
            [
              127.104006,
              37.406557
            ],
            [
              127.104285,
              37.406966
            ],
            [
              127.106452,
              37.407255
            ]
          ]
        ]
      }
    }
  ]
}