{
  "type": "FeatureCollection",
  "features": [
    {
      "type": "Feature",
      "properties": {
        "region_id": "pangyo",
        "region": "pangyo",
        "region_name": "제1판교테크노밸리",
        "station_name": "판교",
        "cutoff_minutes": 30,
        "layer_type": "isochrone_30",
        "layer_label_ko": "30분 도달권",
        "reachable_node_count": 79,
        "note": "철도 네트워크 도달 노드의 convex hull 기반 근사 polygon이며 실제 보행권역이 아님"
      },
      "geometry": {
        "type": "Polygon",
        "coordinates": [
          [
            [
              126.97859082781919,
              37.502936332057935
            ],
            [
              127.04436155242843,
              37.302062058277194
            ],
            [
              127.05164498562326,
              37.2884501592719
            ],
            [
              127.11596117176872,
              37.27548895165585
            ],
            [
              127.14085740225366,
              37.43749374732599
            ],
            [
              127.12655548436801,
              37.47088919380632
            ],
            [
              127.0738741898419,
              37.51114024667451
            ],
            [
              127.01734970783959,
              37.541646501646156
            ],
            [
              126.97859082781919,
              37.502936332057935
            ]
          ]
        ]
      }
    }
  ]
}