{
  "type": "FeatureCollection",
  "features": [
    {
      "type": "Feature",
      "properties": {
        "region_id": "pangyo",
        "region": "pangyo",
        "region_name": "제1판교테크노밸리",
        "station_name": "판교",
        "cutoff_minutes": 60,
        "layer_type": "isochrone_60",
        "layer_label_ko": "60분 도달권",
        "reachable_node_count": 443,
        "note": "철도 네트워크 도달 노드의 convex hull 기반 근사 polygon이며 실제 보행권역이 아님"
      },
      "geometry": {
        "type": "Polygon",
        "coordinates": [
          [
            [
              126.80185933329786,
              37.56215435260769
            ],
            [
              126.82389330619179,
              37.49244945064322
            ],
            [
              126.96353008424018,
              37.2431000443475
            ],
            [
              127.19868094829054,
              37.23730208644377
            ],
            [
              127.20904623986837,
              37.23790104663041
            ],
            [
              127.44219049160138,
              37.264282030974286
            ],
            [
              127.40524573211431,
              37.315605515371374
            ],
            [
              127.05760212496052,
              37.66541488039195
            ],
            [
              126.91881730019298,
              37.63639757222915
            ],
            [
              126.80185933329786,
              37.56215435260769
            ]
          ]
        ]
      }
    }
  ]
}