{
"type": "FeatureCollection",
"name": "compare_boundary",
"crs": { "type": "name", "properties": { "name": "urn:ogc:def:crs:OGC:1.3:CRS84" } },
"features": [
{ "type": "Feature", "properties": { "region": "cheongna", "region_id": "cheongna", "region_name": "청라국제업무지구", "name_ko": "청라국제업무지구", "boundary_type": "researcher_defined_by_official_area", "boundary_basis": "공식 블록군(B1, B2, B9, B10, C1, C2, M5, M6)과 278,000㎡ 규모를 기준으로 한 연구자 설정 경계", "official_area_m2": 278000, "reference_year": 2023, "note": "청라국제도시 전체가 아니라 국제업무·금융·복합업무 블록군을 근사한 연구자 설정 경계" }, "geometry": { "type": "Polygon", "coordinates": [ [ [ 126.643716491050796, 37.531474458854298 ], [ 126.643716541929493, 37.531430589663515 ], [ 126.643715691503473, 37.531386725681884 ], [ 126.643713940001973, 37.531342878652836 ], [ 126.643711287895513, 37.531299060315284 ], [ 126.643707735895717, 37.531255282400409 ], [ 126.64370328495508, 37.531211556628556 ], [ 126.643697936266832, 37.531167894706073 ], [ 126.643691691264451, 37.531124308322234 ], [ 126.64368455162149, 37.531080809146026 ], [ 126.643676519250917, 37.531037408823124 ], [ 126.643667596304667, 37.53099411897265 ], [ 126.64365778517319, 37.530950951184174 ], [ 126.64364708848467, 37.530907917014567 ], [ 126.6436355091043, 37.530865027984866 ], [ 126.643623050133613, 37.530822295577302 ], [ 126.643609714909644, 37.530779731232101 ], [ 126.643595507003923, 37.53073734634448 ], [ 126.643580430221689, 37.530695152261629 ], [ 126.64356448860066, 37.530653160279599 ], [ 126.643547686410173, 37.530611381640341 ], [ 126.643530028149868, 37.530569827528616 ], [ 126.64351151854855, 37.530528509069164 ], [ 126.643492162562936, 37.530487437323522 ], [ 126.643471965376307, 37.530446623287219 ], [ 126.643450932397073, 37.530406077886717 ], [ 126.643429069257479, 37.530365811976594 ], [ 126.643406381811872, 37.530325836336559 ], [ 126.643382876135306, 37.530286161668613 ], [ 126.643358558521868, 37.530246798594142 ], [ 126.643333435482901, 37.530207757651134 ], [ 126.643307513745441, 37.530169049291274 ], [ 126.643280800250253, 37.530130683877246 ], [ 126.643253302150043, 37.53009267167986 ], [ 126.643225026807556, 37.530055022875366 ], [ 126.643195981793511, 37.530017747542743 ], [ 126.643166174884712, 37.529980855660945 ], [ 126.643135614061876, 37.529944357106245 ], [ 126.643104307507471, 37.529908261649624 ], [ 126.643072263603656, 37.529872578954155 ], [ 126.643039490929851, 37.529837318572355 ], [ 126.643005998260577, 37.529802489943712 ], [ 126.642971794563096, 37.529768102392076 ], [ 126.642936888994953, 37.52973416512323 ], [ 126.64290129090152, 37.529700687222388 ], [ 126.642865009813548, 37.529667677651801 ], [ 126.642828055444653, 37.529635145248299 ], [ 126.642790437688518, 37.529603098720976 ], [ 126.642752166616518, 37.529571546648853 ], [ 126.642713252474792, 37.52954049747855 ], [ 126.642673705681617, 37.529509959522066 ], [ 126.642633536824647, 37.529479940954516 ], [ 126.642592756657933, 37.529450449812003 ], [ 126.642551376099206, 37.529421493989361 ], [ 126.642509406226864, 37.529393081238155 ], [ 126.642466858277004, 37.529365219164568 ], [ 126.642423743640506, 37.529337915227309 ], [ 126.642380073859783, 37.529311176735696 ], [ 126.642335860626019, 37.529285010847694 ], [ 126.642291115775635, 37.529259424567897 ], [ 126.642245851287484, 37.529234424745809 ], [ 126.642200079279405, 37.529210018073869 ], [ 126.64215381200512, 37.529186211085786 ], [ 126.642107061850837, 37.529163010154647 ], [ 126.642059841332042, 37.529140421491377 ], [ 126.642012163090087, 37.529118451142914 ], [ 126.641964039888805, 37.529097104990718 ], [ 126.641915484611161, 37.529076388749139 ], [ 126.641866510255682, 37.52905630796387 ], [ 126.641817129933131, 37.529036868010522 ], [ 126.641767356862843, 37.529018074093102 ], [ 126.6417172043693, 37.528999931242737 ], [ 126.641666685878477, 37.528982444316206 ], [ 126.641615814914402, 37.528965617994722 ], [ 126.641564605095326, 37.528949456782655 ], [ 126.641513070130202, 37.528933965006281 ], [ 126.641461223815028, 37.528919146812711 ], [ 126.641409080029121, 37.528905006168728 ], [ 126.641356652731375, 37.528891546859725 ], [ 126.641303955956602, 37.528878772488703 ], [ 126.641251003811647, 37.528866686475311 ], [ 126.641197810471823, 37.528855292054907 ], [ 126.641144390176862, 37.528844592277757 ], [ 126.641090757227317, 37.528834590008103 ], [ 126.6410369259806, 37.528825287923517 ], [ 126.6409829108472, 37.528816688514119 ], [ 126.64092872628683, 37.528808794081897 ], [ 126.640874386804541, 37.528801606740188 ], [ 126.640819906946845, 37.528795128412952 ], [ 126.640765301297776, 37.528789360834423 ], [ 126.640710584475087, 37.52878430554852 ], [ 126.640655771126248, 37.528779963908512 ], [ 126.640600875924591, 37.528776337076621 ], [ 126.640545913565333, 37.528773426023726 ], [ 126.640490898761641, 37.528771231529063 ], [ 126.64043584624072, 37.528769754180075 ], [ 126.640380770739938, 37.528768994372236 ], [ 126.640325687002687, 37.528768952308901 ], [ 126.640270609774674, 37.528769628001342 ], [ 126.640215553799834, 37.528771021268639 ], [ 126.640160533816371, 37.5287731317378 ], [ 126.640105564552883, 37.528775958843831 ], [ 126.640050660724413, 37.528779501829938 ], [ 126.639995837028493, 37.528783759747633 ], [ 126.639941108141159, 37.528788731457084 ], [ 126.639886488713131, 37.528794415627367 ], [ 126.639831993365803, 37.528800810736819 ], [ 126.639777636687398, 37.528807915073479 ], [ 126.63972343322898, 37.528815726735523 ], [ 126.63966939750064, 37.528824243631796 ], [ 126.639615543967565, 37.528833463482343 ], [ 126.639561887046227, 37.52884338381898 ], [ 126.639508441100389, 37.52885400198609 ], [ 126.639455220437469, 37.528865315141203 ], [ 126.639402239304545, 37.528877320255802 ], [ 126.639349511884561, 37.528890014116136 ], [ 126.639297052292576, 37.528903393324079 ], [ 126.639244874572, 37.528917454298046 ], [ 126.639192992690838, 37.528932193273924 ], [ 126.639141420537825, 37.528947606306133 ], [ 126.639090171918909, 37.528963689268593 ], [ 126.639039260553361, 37.528980437855942 ], [ 126.638988700070286, 37.528997847584627 ], [ 126.638938504004855, 37.529015913794034 ], [ 126.638888685794655, 37.529034631647875 ], [ 126.638839258776244, 37.529053996135403 ], [ 126.638790236181407, 37.529074002072747 ], [ 126.638741631133769, 37.52909464410434 ], [ 126.638693456645143, 37.529115916704299 ], [ 126.638645725612179, 37.529137814177972 ], [ 126.638598450812779, 37.529160330663402 ], [ 126.638551644902805, 37.529183460132899 ], [ 126.638505320412591, 37.529207196394729 ], [ 126.638459489743639, 37.529231533094638 ], [ 126.638414165165287, 37.529256463717715 ], [ 126.638369358811474, 37.529281981589953 ], [ 126.638325082677397, 37.529308079880238 ], [ 126.638281348616331, 37.529334751601986 ], [ 126.638238168336542, 37.529361989615118 ], [ 126.638195553398035, 37.529389786627988 ], [ 126.63815351520951, 37.529418135199251 ], [ 126.638112065025354, 37.52944702773992 ], [ 126.638071213942496, 37.52947645651539 ], [ 126.63803097289761, 37.529506413647482 ], [ 126.637991352664088, 37.529536891116564 ], [ 126.637952363849124, 37.529567880763686 ], [ 126.637914016890917, 37.529599374292822 ], [ 126.637876322055902, 37.529631363272998 ], [ 126.637839289436016, 37.529663839140611 ], [ 126.637802928945874, 37.529696793201715 ], [ 126.637767250320252, 37.52973021663432 ], [ 126.637732263111417, 37.529764100490794 ], [ 126.637697976686553, 37.529798435700236 ], [ 126.63766440022529, 37.529833213070873 ], [ 126.637631542717287, 37.529868423292562 ], [ 126.637599412959688, 37.529904056939287 ], [ 126.637568019554934, 37.529940104471663 ], [ 126.637537370908262, 37.529976556239482 ], [ 126.637507475225675, 37.530013402484293 ], [ 126.637478340511592, 37.530050633342043 ], [ 126.637449974566763, 37.530088238845728 ], [ 126.637422384986166, 37.53012620892796 ], [ 126.63739557915693, 37.530164533423815 ], [ 126.637369564256474, 37.530203202073416 ], [ 126.637344347250462, 37.530242204524768 ], [ 126.637319934890996, 37.530281530336495 ], [ 126.637296333714801, 37.530321168980635 ], [ 126.637273550041428, 37.530361109845451 ], [ 126.637251589971697, 37.530401342238292 ], [ 126.637230459385876, 37.530441855388432 ], [ 126.637210163942243, 37.530482638449989 ], [ 126.637190709075526, 37.5305236805048 ], [ 126.637172099995411, 37.530564970565337 ], [ 126.637154341685232, 37.530606497577637 ], [ 126.637137438900552, 37.530648250424328 ], [ 126.637121396167913, 37.530690217927543 ], [ 126.637106217783639, 37.530732388851952 ], [ 126.637091907812703, 37.530774751907678 ], [ 126.637078470087587, 37.530817295753486 ], [ 126.637065908207248, 37.530860008999653 ], [ 126.637054225536247, 37.530902880211087 ], [ 126.637043425203728, 37.530945897910406 ], [ 126.637033510102654, 37.530989050581013 ], [ 126.637024482889032, 37.531032326670115 ], [ 126.637016345981138, 37.5310757145919 ], [ 126.637009101558917, 37.53111920273053 ], [ 126.637002751563401, 37.531162779443406 ], [ 126.636997297696198, 37.531206433064121 ], [ 126.636992741418979, 37.531250151905695 ], [ 126.636989083953097, 37.53129392426365 ], [ 126.636986326279342, 37.531337738419197 ], [ 126.636984469137587, 37.531381582642283 ], [ 126.636983513026593, 37.531425445194813 ], [ 126.636983458203929, 37.531469314333776 ], [ 126.636984304685839, 37.531513178314363 ], [ 126.636986052247309, 37.531557025393099 ], [ 126.636988700422009, 37.531600843831072 ], [ 126.636992248502608, 37.531644621896973 ], [ 126.636996695540731, 37.531688347870301 ], [ 126.637002040347355, 37.531732010044465 ], [ 126.637008281493124, 37.531775596729958 ], [ 126.637015417308689, 37.531819096257429 ], [ 126.637023445885134, 37.531862496980892 ], [ 126.63703236507456, 37.531905787280735 ], [ 126.637042172490553, 37.531948955566925 ], [ 126.637052865508991, 37.531991990282066 ], [ 126.637064441268478, 37.532034879904522 ], [ 126.637076896671473, 37.53207761295144 ], [ 126.637090228384665, 37.532120177981923 ], [ 126.637104432840346, 37.532162563599989 ], [ 126.637119506236999, 37.532204758457695 ], [ 126.637135444540434, 37.532246751258135 ], [ 126.637152243484948, 37.532288530758521 ], [ 126.637169898574371, 37.532330085773083 ], [ 126.637188405083236, 37.532371405176214 ], [ 126.637207758058196, 37.532412477905311 ], [ 126.637227952319151, 37.532453292963815 ], [ 126.637248982460846, 37.532493839424149 ], [ 126.637270842854065, 37.532534106430624 ], [ 126.637293527647429, 37.532574083202334 ], [ 126.637317030768699, 37.532613759036089 ], [ 126.637341345926572, 37.532653123309217 ], [ 126.637366466612235, 37.532692165482509 ], [ 126.637392386101254, 37.532730875102892 ], [ 126.637419097455236, 37.532769241806392 ], [ 126.637446593523777, 37.532807255320776 ], [ 126.637474866946349, 37.532844905468401 ], [ 126.637503910154209, 37.532882182168834 ], [ 126.637533715372555, 37.532919075441697 ], [ 126.63756427462242, 37.53295557540919 ], [ 126.637595579723083, 37.532991672298827 ], [ 126.637627622293905, 37.533027356445999 ], [ 126.637660393756889, 37.533062618296654 ], [ 126.63769388533882, 37.533097448409706 ], [ 126.637728088073615, 37.533131837459727 ], [ 126.637762992804767, 37.533165776239336 ], [ 126.637798590187757, 37.533199255661678 ], [ 126.637834870692615, 37.533232266762901 ], [ 126.637871824606378, 37.533264800704515 ], [ 126.637909442035792, 37.533296848775791 ], [ 126.637947712909892, 37.533328402396052 ], [ 126.637986626982709, 37.533359453117008 ], [ 126.638026173836039, 37.533389992625025 ], [ 126.638066342882212, 37.533420012743299 ], [ 126.638107123366922, 37.533449505434092 ], [ 126.638148504372126, 37.533478462800893 ], [ 126.638190474818956, 37.533506877090488 ], [ 126.638233023470633, 37.533534740695053 ], [ 126.638276138935652, 37.533562046154231 ], [ 126.638319809670548, 37.533588786157075 ], [ 126.638364023983272, 37.533614953544024 ], [ 126.638408770036136, 37.533640541308841 ], [ 126.638454035849051, 37.53366554260046 ], [ 126.638499809302772, 37.533689950724849 ], [ 126.638546078141985, 37.533713759146771 ], [ 126.638592829978862, 37.533736961491563 ], [ 126.638640052296054, 37.533759551546837 ], [ 126.638687732450336, 37.533781523264118 ], [ 126.638735857675769, 37.533802870760503 ], [ 126.638784415087287, 37.53382358832021 ], [ 126.638833391684017, 37.533843670396109 ], [ 126.638882774352822, 37.533863111611247 ], [ 126.638932549871882, 37.533881906760207 ], [ 126.638982704914071, 37.533900050810587 ], [ 126.639033226050657, 37.533917538904319 ], [ 126.639084099754811, 37.53393436635892 ], [ 126.639135312405372, 37.533950528668846 ], [ 126.639186850290301, 37.533966021506608 ], [ 126.639238699610488, 37.533980840723963 ], [ 126.639290846483405, 37.53399498235305 ], [ 126.63934327694686, 37.534008442607394 ], [ 126.639395976962646, 37.534021217883001 ], [ 126.639448932420407, 37.534033304759276 ], [ 126.639502129141363, 37.534044699999868 ], [ 126.639555552882115, 37.534055400553719 ], [ 126.639609189338444, 37.53406540355568 ], [ 126.639663024149144, 37.534074706327438 ], [ 126.639717042899917, 37.534083306378136 ], [ 126.639771231127185, 37.534091201405069 ], [ 126.639825574322003, 37.5340983892943 ], [ 126.639880057933851, 37.534104868121261 ], [ 126.639934667374646, 37.53411063615119 ], [ 126.639989388022627, 37.534115691839673 ], [ 126.640044205226189, 37.534120033833027 ], [ 126.640099104307907, 37.534123660968646 ], [ 126.640154070568428, 37.534126572275326 ], [ 126.640209089290323, 37.534128766973559 ], [ 126.640264145742265, 37.534130244475669 ], [ 126.640319225182679, 37.534131004386055 ], [ 126.640374312863869, 37.534131046501194 ], [ 126.640429394035991, 37.53413037080982 ], [ 126.64048445395089, 37.534128977492827 ], [ 126.640539477866085, 37.534126866923252 ], [ 126.640594451048784, 37.534124039666196 ], [ 126.640649358779754, 37.534120496478629 ], [ 126.640704186357326, 37.534116238309231 ], [ 126.640758919101231, 37.534111266298133 ], [ 126.640813542356682, 37.534105581776586 ], [ 126.640868041498123, 37.534099186266573 ], [ 126.640922401933352, 37.534092081480544 ], [ 126.640976609107241, 37.534084269320779 ], [ 126.641030648505691, 37.534075751878966 ], [ 126.641084505659649, 37.53406653143567 ], [ 126.641138166148693, 37.534056610459665 ], [ 126.641191615605251, 37.534045991607279 ], [ 126.641244839718212, 37.534034677721714 ], [ 126.641297824236744, 37.534022671832282 ], [ 126.641350554974323, 37.534009977153538 ], [ 126.641403017812294, 37.533996597084496 ], [ 126.641455198703738, 37.533982535207663 ], [ 126.641507083677382, 37.533967795288099 ], [ 126.641558658841049, 37.533952381272435 ], [ 126.641609910385625, 37.533936297287767 ], [ 126.641660824588712, 37.533919547640579 ], [ 126.64171138781812, 37.53390213681557 ], [ 126.641761586535807, 37.533884069474475 ], [ 126.64181140730129, 37.533865350454832 ], [ 126.641860836775322, 37.533845984768632 ], [ 126.641909861723434, 37.533825977601019 ], [ 126.641958469019528, 37.533805334308902 ], [ 126.642006645649317, 37.533784060419471 ], [ 126.642054378713951, 37.533762161628793 ], [ 126.642101655433308, 37.533739643800239 ], [ 126.642148463149454, 37.533716512962911 ], [ 126.642194789330148, 37.533692775310037 ], [ 126.642240621572043, 37.533668437197321 ], [ 126.642285947604151, 37.533643505141235 ], [ 126.642330755290942, 37.53361798581728 ], [ 126.64237503263584, 37.533591886058169 ], [ 126.642418767784221, 37.533565212852004 ], [ 126.642461949026696, 37.533537973340486 ], [ 126.642504564802223, 37.533510174816861 ], [ 126.642546603701192, 37.533481824724078 ], [ 126.642588054468462, 37.533452930652786 ], [ 126.642628906006465, 37.533423500339197 ], [ 126.642669147378058, 37.533393541663152 ], [ 126.642708767809495, 37.533363062645947 ], [ 126.642747756693382, 37.533332071448157 ], [ 126.642786103591419, 37.533300576367502 ], [ 126.642823798237217, 37.533268585836588 ], [ 126.642860830539107, 37.533236108420702 ], [ 126.642897190582772, 37.533203152815446 ], [ 126.642932868633935, 37.533169727844438 ], [ 126.642967855140938, 37.533135842456979 ], [ 126.643002140737309, 37.533101505725625 ], [ 126.643035716244356, 37.533066726843749 ], [ 126.6430685726734, 37.533031515123142 ], [ 126.643100701228491, 37.532995879991368 ], [ 126.643132093308523, 37.532959830989469 ], [ 126.643162740509538, 37.532923377769201 ], [ 126.643192634627184, 37.532886530090565 ], [ 126.643221767658702, 37.532849297819141 ], [ 126.643250131805118, 37.532811690923474 ], [ 126.643277719473417, 37.532773719472416 ], [ 126.643304523278459, 37.532735393632372 ], [ 126.643330536045056, 37.532696723664642 ], [ 126.643355750809818, 37.532657719922653 ], [ 126.643380160823014, 37.532618392849152 ], [ 126.643403759550452, 37.532578752973464 ], [ 126.643426540675179, 37.532538810908626 ], [ 126.643448498099147, 37.532498577348584 ], [ 126.643469625944874, 37.532458063065313 ], [ 126.643489918557052, 37.532417278905918 ], [ 126.643509370503978, 37.532376235789719 ], [ 126.643527976579051, 37.532334944705404 ], [ 126.643545731802234, 37.532293416708008 ], [ 126.64356263142119, 37.532251662915968 ], [ 126.643578670912831, 37.53220969450814 ], [ 126.643593845984256, 37.532167522720883 ], [ 126.643608152574089, 37.532125158844934 ], [ 126.643621586853413, 37.532082614222446 ], [ 126.643634145226983, 37.532039900243973 ], [ 126.643645824334016, 37.531997028345366 ], [ 126.643656621049146, 37.531954010004739 ], [ 126.643666532483309, 37.531910856739422 ], [ 126.64367555598443, 37.531867580102791 ], [ 126.643683689138186, 37.531824191681295 ], [ 126.643690929768638, 37.53178070309125 ], [ 126.643697275938862, 37.531737125975795 ], [ 126.643702725951314, 37.531693472001741 ], [ 126.643707278348501, 37.531649752856431 ], [ 126.643710931913134, 37.531605980244699 ], [ 126.643713685668644, 37.531562165885596 ], [ 126.64371553887942, 37.531518321509367 ], [ 126.643716491050796, 37.531474458854298 ] ] ] } }
]
}
