{
"type": "FeatureCollection",
"name": "landuse_features",
"crs": { "type": "name", "properties": { "name": "urn:ogc:def:crs:OGC:1.3:CRS84" } },
"features": [
{ "type": "Feature", "properties": { "present_sn": "41130UQ111PS202112310006", "lclas_cl": "UQA100", "mlsfc_cl": "UQA130", "sclas_cl": null, "atrb_se": "UQA130", "wtnnc_sn": "41130ARZ202109293252", "ntfc_sn": "41130NTC202109293249", "dgm_nm": "준주거지역", "dgm_ar": "295930.6014875061", "dgm_lt": "62020.16030180000", "sgg_cd": "41130", "drawing_no": null, "create_dat": "2021-12-31", "mnum": "37800004113520100517UQA1300000017", "alias": null, "remark": null, "ntfdate": null, "zone_name": "준주거지역", "region": "pangyo", "region_name": "제1판교테크노밸리", "layer_type": "landuse_zone", "area_m2": 295697.66293826298 }, "geometry": { "type": "Polygon", "coordinates": [ [ [ 127.103390757749594, 37.399755946770796 ], [ 127.102077624919147, 37.399752745928254 ], [ 127.101899943100477, 37.399729830947514 ], [ 127.101845387946298, 37.399725191976614 ], [ 127.101127575048906, 37.399723149859895 ], [ 127.101127552628327, 37.399723276020723 ], [ 127.101082763096699, 37.399929375602937 ], [ 127.101092927612129, 37.399929439124861 ], [ 127.101077064266434, 37.400001110109642 ], [ 127.101075346313465, 37.400008671061798 ], [ 127.101073549291542, 37.400016223070338 ], [ 127.101071673188741, 37.400023757125176 ], [ 127.101069718005007, 37.400031273226276 ], [ 127.101067683752262, 37.400038780383731 ], [ 127.101065559136629, 37.400046278607121 ], [ 127.10106336673384, 37.400053758867223 ], [ 127.101061083956239, 37.400061221183101 ], [ 127.101058733391426, 37.400068665535699 ], [ 127.101056292463639, 37.40007610095418 ], [ 127.101053783748625, 37.400083518409389 ], [ 127.101051184658672, 37.400090917920338 ], [ 127.101048506487587, 37.400098299477499 ], [ 127.10104576051728, 37.400105654061242 ], [ 127.101042924183901, 37.400112999710842 ], [ 127.101040020051286, 37.400120318387017 ], [ 127.101037025555485, 37.400127628129013 ], [ 127.101033963260448, 37.400134910897592 ], [ 127.101030821872214, 37.400142166702224 ], [ 127.101027601402734, 37.400149404553041 ], [ 127.100945712470761, 37.400331000680069 ], [ 127.10094058871455, 37.40034232172092 ], [ 127.100935419769442, 37.400353633789408 ], [ 127.100930216929299, 37.400364936875995 ], [ 127.100924968900202, 37.400376230990169 ], [ 127.100919698269919, 37.400387516112964 ], [ 127.100914371144881, 37.400398783262723 ], [ 127.10090902141863, 37.400410041421061 ], [ 127.100903626503367, 37.400421290606999 ], [ 127.10089819768109, 37.400432521800887 ], [ 127.100892723669801, 37.400443744022347 ], [ 127.100887227057186, 37.4004549572524 ], [ 127.100881673961652, 37.400466161519489 ], [ 127.100876098252911, 37.400477347785028 ], [ 127.100870477355087, 37.400488525078117 ], [ 127.100864822562059, 37.400499693389271 ], [ 127.100859133861903, 37.400510843708332 ], [ 127.100853399972607, 37.400521985054922 ], [ 127.100847632176155, 37.400533108409434 ], [ 127.100841830484455, 37.400544222781974 ], [ 127.100835983603559, 37.400555328182044 ], [ 127.100814623722258, 37.400595774606032 ], [ 127.100810511683932, 37.400603535787035 ], [ 127.100806388327086, 37.400611278957136 ], [ 127.100802242393499, 37.400619031156175 ], [ 127.100798085141349, 37.400626765344256 ], [ 127.100793905300534, 37.400634499551174 ], [ 127.100789702859174, 37.400642224766784 ], [ 127.100785489111146, 37.400649940981552 ], [ 127.100781252774453, 37.400657657215156 ], [ 127.100777005131107, 37.400665364447953 ], [ 127.100772734887158, 37.4006730626894 ], [ 127.100768442042636, 37.400680751939539 ], [ 127.100764137903326, 37.40068844119898 ], [ 127.100759811163428, 37.400696121467078 ], [ 127.100755473128714, 37.400703801744505 ], [ 127.100751112481561, 37.400711464020453 ], [ 127.100746729245643, 37.400719126315188 ], [ 127.100742334703071, 37.400726779609123 ], [ 127.10073791757172, 37.400734432921823 ], [ 127.100733489121865, 37.400742068223572 ], [ 127.100729038083216, 37.400749703544086 ], [ 127.100717882253775, 37.400768796373399 ], [ 127.100712912795785, 37.400777270070911 ], [ 127.100707932042752, 37.400785743777696 ], [ 127.100702917383074, 37.400794199492438 ], [ 127.100697891428297, 37.40080265521641 ], [ 127.100692831566889, 37.400811092948331 ], [ 127.100687760410366, 37.400819530689503 ], [ 127.100682666641134, 37.400827950429118 ], [ 127.100677538988947, 37.400836370196927 ], [ 127.100672400029808, 37.400844780963844 ], [ 127.100667238469768, 37.400853182739347 ], [ 127.100662054308842, 37.400861575523422 ], [ 127.100656847535134, 37.400869950305946 ], [ 127.100651618172364, 37.400878325107172 ], [ 127.100646366208679, 37.40088669091697 ], [ 127.100641091644093, 37.400895047735311 ], [ 127.100635794478563, 37.400903395562239 ], [ 127.100630486017891, 37.400911743398368 ], [ 127.100625143650475, 37.400920073242411 ], [ 127.100619789976108, 37.400928394085518 ], [ 127.100614402406805, 37.400936705946656 ], [ 127.100561168993266, 37.401018751799711 ], [ 127.100554676772333, 37.401028713438244 ], [ 127.100548161949888, 37.401038666085171 ], [ 127.100541613220116, 37.401048600739884 ], [ 127.100535041888804, 37.40105852640297 ], [ 127.100528425356202, 37.401068434083271 ], [ 127.100521786222032, 37.401078332771974 ], [ 127.100515113192358, 37.401088222478535 ], [ 127.100508417549278, 37.401098094183347 ], [ 127.100501676704837, 37.401107947905331 ], [ 127.1004949132588, 37.401117792635716 ], [ 127.100488127211221, 37.401127628374468 ], [ 127.100481295962211, 37.401137446130384 ], [ 127.100474442099795, 37.401147245884516 ], [ 127.100467554341776, 37.401157036656514 ], [ 127.10046063268814, 37.401166818446285 ], [ 127.100453688421084, 37.401176582234278 ], [ 127.100446710246558, 37.401186328029951 ], [ 127.100439698176416, 37.40119606484344 ], [ 127.100432663504634, 37.401205792665252 ], [ 127.100425594913531, 37.401215493484585 ], [ 127.100381999411468, 37.401275186053816 ], [ 127.100374615084149, 37.401285274569837 ], [ 127.100367185555172, 37.401295345102895 ], [ 127.100359733424384, 37.401305406644241 ], [ 127.100352247385885, 37.40131545019316 ], [ 127.10034472743969, 37.401325475749665 ], [ 127.100337173585814, 37.40133548331373 ], [ 127.100329585836022, 37.401345481895497 ], [ 127.100321964178534, 37.401355462484815 ], [ 127.100314319907397, 37.40136542507225 ], [ 127.10030663043446, 37.401375369676664 ], [ 127.100298918359627, 37.401385305289324 ], [ 127.100291172377041, 37.401395222909507 ], [ 127.100283392486745, 37.40140512253722 ], [ 127.100275578688667, 37.401415004172442 ], [ 127.100267730994616, 37.401424876825331 ], [ 127.10025986067501, 37.401434722466142 ], [ 127.100251945165397, 37.401444559134028 ], [ 127.100244007042036, 37.401454377799979 ], [ 127.100236035010852, 37.401464178473418 ], [ 127.100228029083667, 37.401473970164467 ], [ 127.100168424027416, 37.401546641601435 ], [ 127.100160339083416, 37.401556478404359 ], [ 127.100152208937558, 37.401566297224164 ], [ 127.100144056177825, 37.401576098041993 ], [ 127.100135869510225, 37.401585880867252 ], [ 127.10012764894654, 37.401595654710043 ], [ 127.100119405757198, 37.401605401540721 ], [ 127.100111117377693, 37.401615139398366 ], [ 127.100102806372547, 37.401624850243834 ], [ 127.100094461471258, 37.40163455210687 ], [ 127.100086082650293, 37.401644226967157 ], [ 127.100077669933142, 37.401653892844948 ], [ 127.100069223308097, 37.401663540730112 ], [ 127.100060754069119, 37.401673170613236 ], [ 127.100052250922232, 37.401682782503727 ], [ 127.10004371386735, 37.401692376401584 ], [ 127.100035154186827, 37.401701943287243 ], [ 127.100026549316027, 37.401711501199792 ], [ 127.100017921831309, 37.40172104111025 ], [ 127.100009260438611, 37.401730563028046 ], [ 127.100000565137961, 37.401740066953174 ], [ 127.099935705357723, 37.401810796457035 ], [ 127.099928464842719, 37.40181866833138 ], [ 127.099921213008571, 37.40182652219444 ], [ 127.099913938561144, 37.401834358055581 ], [ 127.099906652818149, 37.401842193925681 ], [ 127.099899333156017, 37.401850002793104 ], [ 127.099891990904183, 37.401857811678873 ], [ 127.099884637333162, 37.401865602553336 ], [ 127.099877261148919, 37.401873375425851 ], [ 127.099869862363178, 37.40188113930656 ], [ 127.099862440975969, 37.40188889419548 ], [ 127.099854996975466, 37.401896631082444 ], [ 127.099847530373466, 37.401904358977603 ], [ 127.099840041169955, 37.401912077880937 ], [ 127.099832540647284, 37.401919778772942 ], [ 127.09982501751135, 37.401927461662964 ], [ 127.099817460479784, 37.401935135570554 ], [ 127.099809903434917, 37.401942800467523 ], [ 127.099802312482666, 37.401950447371917 ], [ 127.099794698928903, 37.401958085284484 ], [ 127.099787074055939, 37.401965705185674 ], [ 127.099623194756404, 37.40212905085189 ], [ 127.099618829589218, 37.402133397358519 ], [ 127.099614453127401, 37.402137743874349 ], [ 127.099610065359172, 37.40214208138925 ], [ 127.099605677590475, 37.402146418904003 ], [ 127.099601278527103, 37.40215075642795 ], [ 127.099596879451525, 37.40215508494159 ], [ 127.099592469081287, 37.402159413464446 ], [ 127.099588047404652, 37.402163732986388 ], [ 127.09958362571578, 37.40216804349803 ], [ 127.09957919273225, 37.402172354018873 ], [ 127.099574759748265, 37.402176664539539 ], [ 127.099570315457825, 37.402180966059262 ], [ 127.099565859872769, 37.402185267588202 ], [ 127.099561404275448, 37.402189560106862 ], [ 127.099556937383497, 37.402193852634696 ], [ 127.099552470479296, 37.402198136152236 ], [ 127.099547992268711, 37.402202410668849 ], [ 127.099543502775191, 37.402206694204772 ], [ 127.099539013257711, 37.402210959720271 ], [ 127.099534512445572, 37.402215225244944 ], [ 127.09935202044673, 37.402388181749636 ], [ 127.098445932578983, 37.403246845885526 ], [ 127.098441792946986, 37.403242254111042 ], [ 127.098099540713761, 37.403567259353458 ], [ 127.097949732947725, 37.403708750604181 ], [ 127.097934729678386, 37.40372299884843 ], [ 127.097757398469113, 37.403892263499436 ], [ 127.097682720763288, 37.403963684504589 ], [ 127.097297710461902, 37.404331520282234 ], [ 127.097265656988284, 37.404438226198877 ], [ 127.097253982746977, 37.404761158750659 ], [ 127.097291567992158, 37.405007285082533 ], [ 127.097318791083069, 37.405187195331592 ], [ 127.09739522605031, 37.405518616057478 ], [ 127.097470119391204, 37.405703443162466 ], [ 127.097473858236739, 37.405712540358962 ], [ 127.097520146894681, 37.405785755135966 ], [ 127.097560664079637, 37.405850144655496 ], [ 127.097647553028224, 37.405964142279444 ], [ 127.097714393904369, 37.406033826315728 ], [ 127.097724798638438, 37.406044449802224 ], [ 127.097759740117141, 37.406076317222272 ], [ 127.097795015625167, 37.406104400105754 ], [ 127.097841258122671, 37.406141123768322 ], [ 127.097885462419484, 37.406173794515865 ], [ 127.097926272097595, 37.406201602545167 ], [ 127.097969566188141, 37.406229048128488 ], [ 127.098004266478839, 37.406248842099686 ], [ 127.098050381423477, 37.406274032819098 ], [ 127.098078763435652, 37.406288408231951 ], [ 127.098086086851893, 37.406291906775877 ], [ 127.098087564983558, 37.406292563320306 ], [ 127.098132657091327, 37.406312799272158 ], [ 127.098198654605412, 37.406340856926349 ], [ 127.098226341135373, 37.406352006843555 ], [ 127.098544859533121, 37.406444009607299 ], [ 127.098771512100527, 37.406505182369607 ], [ 127.098823789256329, 37.40649144396405 ], [ 127.099115087670995, 37.406408671102326 ], [ 127.099233977400999, 37.406374514622662 ], [ 127.09942343279414, 37.406319936723378 ], [ 127.099456964391479, 37.406309277001768 ], [ 127.099490947534917, 37.40629843669393 ], [ 127.099524704069268, 37.40628705595644 ], [ 127.099558687310306, 37.406276305730302 ], [ 127.099591538952509, 37.406263934609889 ], [ 127.099701154787638, 37.406220775223417 ], [ 127.099715151216827, 37.406213825801238 ], [ 127.09981346934579, 37.406168513261761 ], [ 127.099833674445335, 37.406158945726574 ], [ 127.0998636973614, 37.40614279262843 ], [ 127.099894510777915, 37.406126548763645 ], [ 127.099923969520788, 37.406110846625957 ], [ 127.099954443597895, 37.40609424262275 ], [ 127.100221927073036, 37.405940396938234 ], [ 127.100626874685119, 37.405707506770113 ], [ 127.101032384044075, 37.405474254329434 ], [ 127.10143822948622, 37.405240820003669 ], [ 127.101844523830934, 37.405007113592319 ], [ 127.101936278637282, 37.404954596744737 ], [ 127.10256659438987, 37.404592843620414 ], [ 127.10260530353608, 37.40456974459822 ], [ 127.102643672733933, 37.404545834942262 ], [ 127.102681815775384, 37.404521745264653 ], [ 127.102757082978343, 37.404471854819747 ], [ 127.102793531046743, 37.404447225949241 ], [ 127.102831106354984, 37.404420974277954 ], [ 127.102866537386788, 37.404395985850961 ], [ 127.102902982954575, 37.404369554922354 ], [ 127.102972935753641, 37.404315434134027 ], [ 127.103007008194567, 37.404288104196134 ], [ 127.103040854721769, 37.404260774442292 ], [ 127.103074925897275, 37.404232543472588 ], [ 127.10310786808968, 37.404204673868172 ], [ 127.103141147752297, 37.404175812850006 ], [ 127.10317307205753, 37.404146952987567 ], [ 127.103212214543746, 37.40411051839812 ], [ 127.103236580300248, 37.404088152313506 ], [ 127.103270416541761, 37.404053344092823 ], [ 127.10330030567917, 37.40402295422448 ], [ 127.103329968782347, 37.403992474441772 ], [ 127.103359857017949, 37.403961453849668 ], [ 127.103388841067044, 37.403929983522268 ], [ 127.103417260494197, 37.403898603775517 ], [ 127.10344522775587, 37.403866954107635 ], [ 127.103472291443254, 37.403835305212091 ], [ 127.103499692596117, 37.40380266490461 ], [ 127.103525964287613, 37.403770025565031 ], [ 127.103545244074809, 37.403745231067639 ], [ 127.103551671237852, 37.403737386706773 ], [ 127.103576925413535, 37.403704027423011 ], [ 127.103602066867722, 37.403670848433642 ], [ 127.10362619131871, 37.403637309911723 ], [ 127.103650315381316, 37.403603501081051 ], [ 127.103673873726521, 37.403568971923477 ], [ 127.103697205673924, 37.40353408255136 ], [ 127.103719407676735, 37.403498833745822 ], [ 127.103742625658839, 37.403463223652267 ], [ 127.103766178041326, 37.403424369617106 ], [ 127.103783528565501, 37.403392909249753 ], [ 127.10379299105665, 37.403374700597659 ], [ 127.103797227530549, 37.403367200502899 ], [ 127.103801452684763, 37.403359682397515 ], [ 127.103805643955212, 37.403352164321269 ], [ 127.10380980132966, 37.403344637264055 ], [ 127.103813947384467, 37.403337092196217 ], [ 127.103818059555465, 37.403329547157533 ], [ 127.103822160419142, 37.403321993118354 ], [ 127.1038262160925, 37.403314430107976 ], [ 127.10383026045848, 37.403306858097125 ], [ 127.103834282210542, 37.403299268085419 ], [ 127.103838270078882, 37.403291678102882 ], [ 127.103842235345553, 37.403284079129648 ], [ 127.103846178022849, 37.403276480175791 ], [ 127.103850086791937, 37.403268863230906 ], [ 127.103853984253632, 37.403261237285527 ], [ 127.103857847819441, 37.403253602359193 ], [ 127.103861677501584, 37.403245967462055 ], [ 127.103865495864127, 37.403238314554329 ], [ 127.103869280343005, 37.403230661675799 ], [ 127.103873053514562, 37.403222999796789 ], [ 127.103965303189469, 37.403013965912976 ], [ 127.104235516951192, 37.402474835402053 ], [ 127.10429746352564, 37.402349270406312 ], [ 127.105574013413047, 37.399737701266623 ], [ 127.10549095743788, 37.399761146624755 ], [ 127.103390757749594, 37.399755946770796 ] ] ] } },
{ "type": "Feature", "properties": { "present_sn": "41130UQ111PS202402190006", "lclas_cl": "UQA100", "mlsfc_cl": "UQA120", "sclas_cl": "UQA123", "atrb_se": "UQA123", "wtnnc_sn": "41130ARZ202312180003", "ntfc_sn": "41130NTC202312180003", "dgm_nm": "제3종일반주거지역", "dgm_ar": "513434.6268439985", "dgm_lt": "130683.10660700000", "sgg_cd": "41130", "drawing_no": null, "create_dat": "2024-02-19", "mnum": "37800004113520100517UQA1230000003", "alias": null, "remark": null, "ntfdate": null, "zone_name": "제3종일반주거지역", "region": "pangyo", "region_name": "제1판교테크노밸리", "layer_type": "landuse_zone", "area_m2": 8670.8736456882762 }, "geometry": { "type": "Polygon", "coordinates": [ [ [ 127.112964565864687, 37.402507764177983 ], [ 127.112964553926801, 37.402530208430939 ], [ 127.1129644403279, 37.402552643769475 ], [ 127.112964225094515, 37.402575088213872 ], [ 127.112963908199958, 37.402597523743864 ], [ 127.112963500951579, 37.402619959358915 ], [ 127.112962992055174, 37.402642395069705 ], [ 127.112962381510627, 37.402664830876184 ], [ 127.112961680612045, 37.402687266767742 ], [ 127.112960866757561, 37.402709693755547 ], [ 127.112959962548928, 37.402732120828418 ], [ 127.112958967985989, 37.402754547986348 ], [ 127.112957860480265, 37.402776975250639 ], [ 127.112956662606734, 37.402799393589873 ], [ 127.112955363084424, 37.402821812024783 ], [ 127.112953973194166, 37.402844221534643 ], [ 127.11295247036071, 37.402866631150836 ], [ 127.112950877159108, 37.402889031841966 ], [ 127.112949182308384, 37.402911432628763 ], [ 127.112947397089386, 37.402933824490518 ], [ 127.112945510221095, 37.402956216447926 ], [ 127.112939791417247, 37.403022230067243 ], [ 127.112936212162808, 37.403061067110457 ], [ 127.112932214976638, 37.403099877516695 ], [ 127.112927799858156, 37.403138661285944 ], [ 127.112922966793292, 37.40317740940803 ], [ 127.112917715794779, 37.403216130893014 ], [ 127.112916293865908, 37.40322581280433 ], [ 127.112954, 37.403165 ], [ 127.113383, 37.401869 ], [ 127.113361, 37.400846 ], [ 127.112960692816401, 37.399892354448383 ], [ 127.112964565864687, 37.402507764177983 ] ] ] } },
{ "type": "Feature", "properties": { "present_sn": "41130UQ111PS202411300002", "lclas_cl": "UQA400", "mlsfc_cl": "UQA430", "sclas_cl": null, "atrb_se": "UQA430", "wtnnc_sn": "41130ARZ202407220001", "ntfc_sn": "41130NTC202407220001", "dgm_nm": "자연녹지지역", "dgm_ar": "8987.784409495947", "dgm_lt": "392632.21147000000", "sgg_cd": "41130", "drawing_no": null, "create_dat": "2024-11-30", "mnum": "15000004113020100000UQA4300025000", "alias": null, "remark": null, "ntfdate": null, "zone_name": "자연녹지지역", "region": "pangyo", "region_name": "제1판교테크노밸리", "layer_type": "landuse_zone", "area_m2": 1492.4351680123175 }, "geometry": { "type": "MultiPolygon", "coordinates": [ [ [ [ 127.104379790174534, 37.407218273246244 ], [ 127.103796643054721, 37.407224815908513 ], [ 127.103348842234965, 37.407172583281607 ], [ 127.102873736515264, 37.407225070040568 ], [ 127.102452704910846, 37.4072567854504 ], [ 127.102218113709682, 37.407259868720217 ], [ 127.102031883078126, 37.407276695916806 ], [ 127.101990209941349, 37.407280515589207 ], [ 127.101713839902544, 37.407208128490851 ], [ 127.101683991399398, 37.407185628464106 ], [ 127.10156527422879, 37.407165765548122 ], [ 127.10185924941284, 37.407296242205149 ], [ 127.101881339145237, 37.407298123738556 ], [ 127.101956580610164, 37.407302627981451 ], [ 127.101987675092957, 37.407310764738298 ], [ 127.102029393486433, 37.407306990078972 ], [ 127.102329365445172, 37.407324953173024 ], [ 127.102524425656071, 37.407326871366791 ], [ 127.103255, 37.407221 ], [ 127.104027, 37.407238 ], [ 127.104402279549802, 37.407238 ], [ 127.104390926778734, 37.407218146425656 ], [ 127.104379790174534, 37.407218273246244 ] ] ], [ [ [ 127.101345091751554, 37.407060854519273 ], [ 127.101317169997898, 37.407043218241142 ], [ 127.10112084623259, 37.407029057684859 ], [ 127.100829991073439, 37.407019931810794 ], [ 127.100812686647714, 37.407061022219779 ], [ 127.100916, 37.407085 ], [ 127.101345, 37.407068 ], [ 127.101435096341064, 37.407107987965077 ], [ 127.101345091751554, 37.407060854519273 ] ] ], [ [ [ 127.100458669071259, 37.406631185811172 ], [ 127.100439610581859, 37.406653817178359 ], [ 127.100356261836282, 37.40674515947471 ], [ 127.100354125525044, 37.406752549565113 ], [ 127.100299374043189, 37.40694188856915 ], [ 127.100368264671843, 37.406957877251315 ], [ 127.100458669071259, 37.406631185811172 ] ] ] ] } },
{ "type": "Feature", "properties": { "present_sn": "41130UQ111PS202411300003", "lclas_cl": "UQA400", "mlsfc_cl": "UQA410", "sclas_cl": null, "atrb_se": "UQA410", "wtnnc_sn": "41130ARZ202407220002", "ntfc_sn": "41130NTC202407220001", "dgm_nm": "보전녹지지역", "dgm_ar": "141844.8186255017", "dgm_lt": "129222.06107700000", "sgg_cd": "41130", "drawing_no": null, "create_dat": "2024-11-30", "mnum": "15000004113020100000UQA4100006000", "alias": null, "remark": null, "ntfdate": null, "zone_name": "보전녹지지역", "region": "pangyo", "region_name": "제1판교테크노밸리", "layer_type": "landuse_zone", "area_m2": 913.82898815134149 }, "geometry": { "type": "MultiPolygon", "coordinates": [ [ [ [ 127.105626815491746, 37.407144950012515 ], [ 127.106452, 37.407255 ], [ 127.105958, 37.407068 ], [ 127.105731059641002, 37.407107088005098 ], [ 127.105626815491746, 37.407144950012515 ] ] ], [ [ [ 127.10498597851749, 37.4072115273447 ], [ 127.104390926778734, 37.407218146425656 ], [ 127.104402279549802, 37.407238 ], [ 127.104971, 37.407238 ], [ 127.105098855307048, 37.407215978315911 ], [ 127.10498597851749, 37.4072115273447 ] ] ], [ [ [ 127.102329365445172, 37.407324953173024 ], [ 127.102029393486433, 37.407306990078972 ], [ 127.101987675092957, 37.407310764738298 ], [ 127.101956580610164, 37.407302627981451 ], [ 127.101881339145237, 37.407298123738556 ], [ 127.10185924941284, 37.407296242205149 ], [ 127.102075, 37.407392 ], [ 127.102524425656071, 37.407326871366791 ], [ 127.102329365445172, 37.407324953173024 ] ] ] ] } },
{ "type": "Feature", "properties": { "present_sn": "41130UQ111PS202112310006", "lclas_cl": "UQA100", "mlsfc_cl": "UQA130", "sclas_cl": null, "atrb_se": "UQA130", "wtnnc_sn": "41130ARZ202109293252", "ntfc_sn": "41130NTC202109293249", "dgm_nm": "준주거지역", "dgm_ar": "477694.32254750637", "dgm_lt": "62020.16030180000", "sgg_cd": "41130", "drawing_no": null, "create_dat": "2021-12-31", "mnum": "37800004113520100517UQA1300000001", "alias": null, "remark": null, "ntfdate": null, "zone_name": "준주거지역", "region": "pangyo", "region_name": "제1판교테크노밸리", "layer_type": "landuse_zone", "area_m2": 443627.15453433059 }, "geometry": { "type": "Polygon", "coordinates": [ [ [ 127.112917715794779, 37.403216130893014 ], [ 127.112922966793292, 37.40317740940803 ], [ 127.112927799858156, 37.403138661285944 ], [ 127.112932214976638, 37.403099877516695 ], [ 127.112936212162808, 37.403061067110457 ], [ 127.112939791417247, 37.403022230067243 ], [ 127.112945510221095, 37.402956216447926 ], [ 127.112947397089386, 37.402933824490518 ], [ 127.112949182308384, 37.402911432628763 ], [ 127.112950877159108, 37.402889031841966 ], [ 127.11295247036071, 37.402866631150836 ], [ 127.112953973194166, 37.402844221534643 ], [ 127.112955363084424, 37.402821812024783 ], [ 127.112956662606734, 37.402799393589873 ], [ 127.112957860480265, 37.402776975250639 ], [ 127.112958967985989, 37.402754547986348 ], [ 127.112959962548928, 37.402732120828418 ], [ 127.112960866757561, 37.402709693755547 ], [ 127.112961680612045, 37.402687266767742 ], [ 127.112962381510627, 37.402664830876184 ], [ 127.112962992055174, 37.402642395069705 ], [ 127.112963500951579, 37.402619959358915 ], [ 127.112963908199958, 37.402597523743864 ], [ 127.112964225094515, 37.402575088213872 ], [ 127.1129644403279, 37.402552643769475 ], [ 127.112964553926801, 37.402530208430939 ], [ 127.112964565864687, 37.402507764177983 ], [ 127.112960692816401, 37.399892354448383 ], [ 127.112932, 37.399824 ], [ 127.111259, 37.399738 ], [ 127.111258432484078, 37.39972613375803 ], [ 127.109957369388468, 37.399723076641735 ], [ 127.109879461287335, 37.399657824564628 ], [ 127.109878727843409, 37.399383736838807 ], [ 127.109844582677241, 37.399278800013462 ], [ 127.109848700420699, 37.399024620232055 ], [ 127.108868331552273, 37.399025514328152 ], [ 127.108337416638079, 37.399026085231171 ], [ 127.107804355787081, 37.399026565578055 ], [ 127.107805370303794, 37.399744942997842 ], [ 127.107606260248303, 37.399744491094864 ], [ 127.107458950929853, 37.399717232348095 ], [ 127.106520863619309, 37.399714843469141 ], [ 127.105585584513037, 37.401792236448514 ], [ 127.105584897679961, 37.401793759765795 ], [ 127.105546716626193, 37.401878551700918 ], [ 127.105539082671442, 37.401895515490409 ], [ 127.105500912821256, 37.401980316409627 ], [ 127.105493267539345, 37.401997271195711 ], [ 127.105485633560562, 37.402014234981451 ], [ 127.105477999565878, 37.402031189756535 ], [ 127.105455097586159, 37.402082072098814 ], [ 127.105447463577747, 37.402099026871738 ], [ 127.105401648198409, 37.40220078253838 ], [ 127.105394002884296, 37.402217746327594 ], [ 127.105371100778825, 37.402268619642044 ], [ 127.105363466745089, 37.4022855834192 ], [ 127.10535583269548, 37.402302538185687 ], [ 127.10534819865488, 37.402319501961763 ], [ 127.105302383007739, 37.402421257586525 ], [ 127.105294748943095, 37.402438221358828 ], [ 127.105264201331181, 37.402506058432422 ], [ 127.105256567236964, 37.402523013191939 ], [ 127.105248933151742, 37.402539976961037 ], [ 127.105203117236741, 37.402641732543913 ], [ 127.105195483115082, 37.402658687299144 ], [ 127.105157301198133, 37.402743488107447 ], [ 127.105149667055841, 37.402760442859446 ], [ 127.105111485035906, 37.40284524365164 ], [ 127.105103850885428, 37.40286220741055 ], [ 127.105058034578974, 37.402963962932205 ], [ 127.105050400392059, 37.402980917677219 ], [ 127.105042766214112, 37.402997881431823 ], [ 127.105042349590818, 37.402998800830161 ], [ 127.105035120726058, 37.403014836185648 ], [ 127.105027486541275, 37.403031799939185 ], [ 127.105019841046314, 37.40304875469193 ], [ 127.105012195547985, 37.403065709444164 ], [ 127.105008367156586, 37.403074191330077 ], [ 127.10500645295437, 37.403078427767923 ], [ 127.105004538751913, 37.403082664205719 ], [ 127.105002624549257, 37.403086900643508 ], [ 127.105000710346388, 37.403091137081248 ], [ 127.104996870645749, 37.40309960996651 ], [ 127.104989191254248, 37.403116564746767 ], [ 127.104981500540234, 37.40313350151613 ], [ 127.104973787234229, 37.403150438304685 ], [ 127.104966051336135, 37.403167375112467 ], [ 127.104958304115556, 37.403184293909348 ], [ 127.104950523020989, 37.40320122174542 ], [ 127.104942730603895, 37.403218131570583 ], [ 127.104934892993725, 37.403235032424575 ], [ 127.104927044073378, 37.403251924277775 ], [ 127.104919149972304, 37.403268816169899 ], [ 127.104911233254342, 37.403285690060954 ], [ 127.104903271343204, 37.40330255498084 ], [ 127.104895275533252, 37.403319410919643 ], [ 127.104887234517705, 37.40333624887711 ], [ 127.104879159603243, 37.403353077853481 ], [ 127.104871039483186, 37.403369888848516 ], [ 127.104862862875549, 37.403386690882172 ], [ 127.104854652356565, 37.403403474924573 ], [ 127.10484638534993, 37.403420250005603 ], [ 127.104838061830876, 37.403436998105008 ], [ 127.104829681824128, 37.403453737242984 ], [ 127.104821256611586, 37.403470458399575 ], [ 127.104812763592207, 37.403487152584333 ], [ 127.104804214072672, 37.403503828797547 ], [ 127.104795608065274, 37.40352049604931 ], [ 127.104786922944243, 37.403537127328946 ], [ 127.104778181322956, 37.40355374063698 ], [ 127.104769371906997, 37.403570335983254 ], [ 127.104760483389683, 37.403586904367515 ], [ 127.104751527065233, 37.403603445779851 ], [ 127.104742502946024, 37.403619969230391 ], [ 127.104733388418595, 37.403636456718615 ], [ 127.104724206083944, 37.403652917234865 ], [ 127.10471494466006, 37.40366935979911 ], [ 127.104705592815478, 37.403685757390846 ], [ 127.104696161881535, 37.403702137030542 ], [ 127.104686651833518, 37.40371848069794 ], [ 127.104677040082649, 37.403734788412741 ], [ 127.104676938667993, 37.403734959693715 ], [ 127.104667349217593, 37.403751060155201 ], [ 127.104657556661948, 37.403767304955146 ], [ 127.104647684992031, 37.403783513782685 ], [ 127.104637722913466, 37.403799686647695 ], [ 127.104627670426154, 37.40381582355014 ], [ 127.104617527530095, 37.403831924489985 ], [ 127.104607305519636, 37.403847989457375 ], [ 127.104596981805926, 37.403864018471978 ], [ 127.104586578990052, 37.403880020524198 ], [ 127.10457608575291, 37.403895977603597 ], [ 127.104565502106837, 37.403911898720288 ], [ 127.104554828039369, 37.403927774864158 ], [ 127.10454407486958, 37.403943624045517 ], [ 127.104533231278381, 37.403959428253998 ], [ 127.104522297278052, 37.40397519649968 ], [ 127.104511284162953, 37.403990928772693 ], [ 127.104500180638652, 37.404006625082864 ], [ 127.104488986692786, 37.404022276420015 ], [ 127.104477702337618, 37.404037891794289 ], [ 127.10446633885519, 37.404053462185693 ], [ 127.104454896257849, 37.404068996604288 ], [ 127.104449135408444, 37.404076750332401 ], [ 127.104443363251093, 37.404084495059934 ], [ 127.104431739822616, 37.404099948542459 ], [ 127.104420037266735, 37.404115357042009 ], [ 127.104408244301368, 37.40413072957849 ], [ 127.104396372208569, 37.404146057131953 ], [ 127.104384409706199, 37.404161348722333 ], [ 127.104372368076355, 37.404176595329638 ], [ 127.104360247318965, 37.404191796953846 ], [ 127.104348036151919, 37.404206962614865 ], [ 127.104335745844978, 37.404222074282636 ], [ 127.104329566794036, 37.404229621135357 ], [ 127.104323365128337, 37.404237149987154 ], [ 127.104310905284024, 37.404252180708497 ], [ 127.104298366312065, 37.404267166446601 ], [ 127.104285736930279, 37.40428211622141 ], [ 127.104273028408471, 37.404297012002807 ], [ 127.104260240758919, 37.40431186280091 ], [ 127.104247373993928, 37.404326677625811 ], [ 127.104234416794398, 37.404341438467043 ], [ 127.104221380467038, 37.404356154324915 ], [ 127.104208276306295, 37.404370825189559 ], [ 127.104195070428801, 37.404385451090398 ], [ 127.104181796717882, 37.404400031997987 ], [ 127.104168443879018, 37.404414567922053 ], [ 127.104155011900005, 37.404429049852531 ], [ 127.104141489498559, 37.404443486809249 ], [ 127.104127899263588, 37.404457878772604 ], [ 127.104114218606185, 37.404472225762184 ], [ 127.104100470102935, 37.404486518748207 ], [ 127.1040866424717, 37.404500766750601 ], [ 127.104072724417918, 37.404514969779115 ], [ 127.104058738518262, 37.404529118804021 ], [ 127.104044673478271, 37.404543213835069 ], [ 127.104030529310194, 37.40455726388236 ], [ 127.104016306013975, 37.404571268945887 ], [ 127.104002014871867, 37.404585220005671 ], [ 127.103987633294821, 37.404599117081297 ], [ 127.103973183884136, 37.404612969163267 ], [ 127.103958655333003, 37.404626767251244 ], [ 127.103944058948173, 37.404640520345495 ], [ 127.103929383422908, 37.404654219445675 ], [ 127.103914628757153, 37.404667864551769 ], [ 127.103899794950891, 37.404681455663713 ], [ 127.103884893298627, 37.404694992771759 ], [ 127.103869912518121, 37.404708484895721 ], [ 127.103854863891627, 37.404721923015693 ], [ 127.103839736124613, 37.404735307141443 ], [ 127.103824529217036, 37.404748637272903 ], [ 127.103809265757974, 37.404761913390537 ], [ 127.103793911863818, 37.404775135523629 ], [ 127.103778490123645, 37.404788303652559 ], [ 127.103763000537441, 37.404801417777357 ], [ 127.103747443105178, 37.404814477897986 ], [ 127.103731806532338, 37.404827484024167 ], [ 127.103716102113509, 37.40484043614611 ], [ 127.103700318554033, 37.40485333427354 ], [ 127.103684467136276, 37.404866169386594 ], [ 127.103668547884723, 37.404878959505432 ], [ 127.10365256077489, 37.404891686609794 ], [ 127.103636505818983, 37.404904359709825 ], [ 127.103620371710278, 37.404916969805043 ], [ 127.103604169767735, 37.404929534905982 ], [ 127.103587899966925, 37.404942036992331 ], [ 127.103571562307849, 37.404954476064077 ], [ 127.103555168109509, 37.404966870131688 ], [ 127.103538694758328, 37.404979201194386 ], [ 127.103522153548894, 37.404991469242411 ], [ 127.103505544493487, 37.405003683285813 ], [ 127.103488867591963, 37.405015843324612 ], [ 127.103472122832287, 37.405027940348624 ], [ 127.103455310214343, 37.405039974357848 ], [ 127.103438441044958, 37.405051954352622 ], [ 127.103421492722774, 37.405063871342264 ], [ 127.103404487849232, 37.405075734317435 ], [ 127.103387415117439, 37.405087534277634 ], [ 127.103370285834231, 37.405099280223354 ], [ 127.103353077386132, 37.405110954153677 ], [ 127.103335812386632, 37.405122574069409 ], [ 127.103318490835747, 37.405134139970492 ], [ 127.103301090119956, 37.405145633856122 ], [ 127.103283632852808, 37.405157073727096 ], [ 127.10327488723884, 37.40516276664583 ], [ 127.103266119022152, 37.405168450573221 ], [ 127.103248537333386, 37.405179764404195 ], [ 127.10323088778658, 37.405191015220026 ], [ 127.103213192983048, 37.405202212011346 ], [ 127.103195419014696, 37.405213336787028 ], [ 127.103177588482893, 37.405224398537733 ], [ 127.103159701399846, 37.40523540627359 ], [ 127.10314175775342, 37.40524635098442 ], [ 127.103123746236847, 37.405257223669807 ], [ 127.103105678169015, 37.405268042340218 ], [ 127.103087553525725, 37.405278788975437 ], [ 127.103069361036674, 37.405289481605337 ], [ 127.10305111197215, 37.405300102199973 ], [ 127.10304251218129, 37.405305074165817 ], [ 127.103032806344331, 37.405310659769434 ], [ 127.103014444153288, 37.40532115431369 ], [ 127.102996025411159, 37.405331594842835 ], [ 127.102977561388258, 37.405341963326904 ], [ 127.102959040814326, 37.405352277795842 ], [ 127.102940463689379, 37.405362538249562 ], [ 127.10292185260262, 37.405372744668718 ], [ 127.102903184964916, 37.405382897072649 ], [ 127.102884472070869, 37.405392995451614 ], [ 127.102865725215111, 37.405403039795949 ], [ 127.10284693312731, 37.405413048135557 ], [ 127.102828107077841, 37.405423002440465 ], [ 127.102809235784235, 37.405432911730479 ], [ 127.102790330541154, 37.405442775995908 ], [ 127.102771402655392, 37.405452604237176 ], [ 127.102752429525509, 37.405462387463452 ], [ 127.10273343375296, 37.405472134665573 ], [ 127.102714404043112, 37.40548184585316 ], [ 127.102695351702707, 37.40549153002663 ], [ 127.102676265412967, 37.40550116917543 ], [ 127.10265716779945, 37.405510790310551 ], [ 127.102638036248706, 37.405520375431081 ], [ 127.102618893374228, 37.405529942537932 ], [ 127.102599727857168, 37.405539473620529 ], [ 127.102580539721785, 37.40554898669906 ], [ 127.102561340262667, 37.405558481763883 ], [ 127.1025421294799, 37.405567958815006 ], [ 127.102522896066688, 37.405577408851919 ], [ 127.102503651341905, 37.405586849885239 ], [ 127.102484406600183, 37.405596281905289 ], [ 127.102465139240167, 37.405605695921253 ], [ 127.102445871863253, 37.40561510092396 ], [ 127.102426604481494, 37.405624505923505 ], [ 127.102407325776085, 37.4056338929093 ], [ 127.102388047065915, 37.405643279891954 ], [ 127.102368757056212, 37.405652666881082 ], [ 127.102366544752272, 37.405653749983522 ], [ 127.102349478336379, 37.405662053857426 ], [ 127.102330199611743, 37.405671440830616 ], [ 127.102310920894368, 37.405680836810774 ], [ 127.102291642172133, 37.405690232787791 ], [ 127.102272374751848, 37.405699637762147 ], [ 127.102253107338797, 37.405709051743472 ], [ 127.102233862522297, 37.405718474712515 ], [ 127.102214617725096, 37.405727915698677 ], [ 127.102195384229788, 37.405737365682192 ], [ 127.102176162048451, 37.40574683367317 ], [ 127.102156962487769, 37.405756328672169 ], [ 127.102137774228922, 37.405765832668543 ], [ 127.102118597296098, 37.405775363682551 ], [ 127.102099442983828, 37.405784921704573 ], [ 127.102080311292255, 37.405794506734608 ], [ 127.1020612022092, 37.405804109762599 ], [ 127.102042115758778, 37.405813748808761 ], [ 127.102023063235649, 37.405823423863474 ], [ 127.102004022038415, 37.405833125935892 ], [ 127.101985026063119, 37.405842864007305 ], [ 127.101966041437734, 37.405852647116674 ], [ 127.101947102022265, 37.405862457214958 ], [ 127.101928196558077, 37.405872321342137 ], [ 127.101909313726395, 37.40588222148758 ], [ 127.101890476116594, 37.405892157632103 ], [ 127.101871672457989, 37.405902147805584 ], [ 127.101852914045281, 37.405912191998439 ], [ 127.101834200854427, 37.405922272190452 ], [ 127.101815521626676, 37.405932415421582 ], [ 127.101796887632773, 37.405942603662027 ], [ 127.101778310191378, 37.405952854922454 ], [ 127.101759777983744, 37.405963151192275 ], [ 127.101741291033875, 37.405973510491691 ], [ 127.101722860636471, 37.405983932811175 ], [ 127.101704486791448, 37.40599441815074 ], [ 127.101686169486854, 37.406004957500329 ], [ 127.101667908746649, 37.406015568880164 ], [ 127.101649715853483, 37.406026243270638 ], [ 127.101631579524636, 37.406036989691387 ], [ 127.101613511042871, 37.406047799122831 ], [ 127.10159549912531, 37.406058680584657 ], [ 127.101577566373464, 37.406069643067873 ], [ 127.101559701468574, 37.406080668561842 ], [ 127.101541904434612, 37.406091775086836 ], [ 127.101524197849002, 37.406102953613662 ], [ 127.101506559134251, 37.40611421317157 ], [ 127.101488999585072, 37.406125553751068 ], [ 127.101471519189474, 37.406136966342039 ], [ 127.101454129266088, 37.406148468955223 ], [ 127.101436829802964, 37.406160052580553 ], [ 127.101419620812024, 37.406171726228173 ], [ 127.101402502281317, 37.406183480888004 ], [ 127.101385474222781, 37.406195325570195 ], [ 127.101368536624378, 37.406207251264675 ], [ 127.101351712099586, 37.406219275972667 ], [ 127.101334989329686, 37.406231381683469 ], [ 127.10131835704388, 37.406243586426953 ], [ 127.101318018548028, 37.406243848006376 ], [ 127.101301849114407, 37.406255881164398 ], [ 127.101285442951749, 37.406268265914917 ], [ 127.101269138567844, 37.406280749688712 ], [ 127.101252958528335, 37.406293314446479 ], [ 127.101236880267606, 37.406305978227579 ], [ 127.101220915056501, 37.4063187230023 ], [ 127.101205062918893, 37.406331566790925 ], [ 127.101189323830951, 37.406344491573243 ], [ 127.101173709099314, 37.406357506349906 ], [ 127.101158196134506, 37.406370611140034 ], [ 127.101142796219335, 37.406383796923961 ], [ 127.101127520660555, 37.406397072702397 ], [ 127.101112369446213, 37.406410429465254 ], [ 127.101097319998729, 37.406423876241675 ], [ 127.10108239489567, 37.406437404002645 ], [ 127.101067594137135, 37.40645101274815 ], [ 127.101052906440216, 37.406464711497868 ], [ 127.101038343075942, 37.406478482222084 ], [ 127.1010239040681, 37.406492342941142 ], [ 127.101009589392945, 37.406506275634797 ], [ 127.100995387779477, 37.406520298332829 ], [ 127.100981321793498, 37.406534392996079 ], [ 127.100967368857383, 37.406548568653683 ], [ 127.100953540254011, 37.406562816286062 ], [ 127.100939847290135, 37.406577144893902 ], [ 127.100926278670997, 37.406591554486717 ], [ 127.100912834384687, 37.40660603605447 ], [ 127.100899514431262, 37.406620589597161 ], [ 127.100886330117447, 37.406635224115476 ], [ 127.100873270124708, 37.406649921598714 ], [ 127.100860334476877, 37.406664700067154 ], [ 127.100847534456847, 37.406679550501252 ], [ 127.100834870064702, 37.406694472900988 ], [ 127.10082232999379, 37.406709458265816 ], [ 127.10080992555082, 37.406724515596409 ], [ 127.100797656735892, 37.406739644892809 ], [ 127.100785523549021, 37.40675484615506 ], [ 127.100773514683553, 37.406770110382553 ], [ 127.10076164144624, 37.406785446575959 ], [ 127.100749915108196, 37.406800836705621 ], [ 127.100738313115457, 37.406816307820897 ], [ 127.10072684672727, 37.406831832881956 ], [ 127.100715527250429, 37.406847420889513 ], [ 127.100688244022749, 37.406885592655534 ], [ 127.101038492926449, 37.40693334937842 ], [ 127.101474212779934, 37.40699127735266 ], [ 127.101903353666643, 37.407027765203821 ], [ 127.102335530455719, 37.407053707059845 ], [ 127.102370883878351, 37.407054037314794 ], [ 127.104296800083617, 37.407073012071486 ], [ 127.103942653025712, 37.40645369293064 ], [ 127.103956160672851, 37.406170943411738 ], [ 127.103820760305183, 37.405772993162017 ], [ 127.103816220262729, 37.405756688756838 ], [ 127.103813485164778, 37.40573876096667 ], [ 127.103813008879342, 37.405720741120895 ], [ 127.103814678703046, 37.405702809519653 ], [ 127.103818720650196, 37.405685056068528 ], [ 127.10382490919342, 37.405667751266343 ], [ 127.103833244453895, 37.405650985213924 ], [ 127.103843613851367, 37.405635028312155 ], [ 127.103855904560874, 37.405619970759403 ], [ 127.103870116704343, 37.405605902656291 ], [ 127.1038859118094, 37.405593094599055 ], [ 127.103903289876101, 37.405581546587051 ], [ 127.104627362168145, 37.405148701474289 ], [ 127.104752868670445, 37.405083538824073 ], [ 127.105078146003549, 37.40499657692768 ], [ 127.105148865578911, 37.405007867730518 ], [ 127.105289602696146, 37.405079674188556 ], [ 127.105315, 37.405074 ], [ 127.105776453009213, 37.40530338116055 ], [ 127.106090761813363, 37.405362938574761 ], [ 127.106116936689205, 37.405358278286464 ], [ 127.106559, 37.405142 ], [ 127.106619411843837, 37.405022300253613 ], [ 127.106627050251319, 37.404891773884096 ], [ 127.106641280095857, 37.404648307516076 ], [ 127.106943918763733, 37.404599360848628 ], [ 127.107246, 37.404392 ], [ 127.107739, 37.404358 ], [ 127.108448, 37.404596 ], [ 127.108796740309899, 37.404721336742959 ], [ 127.108951279493056, 37.404758317228016 ], [ 127.109052145345657, 37.404813128928744 ], [ 127.109113, 37.404835 ], [ 127.109147950130833, 37.404865190385394 ], [ 127.109409630082752, 37.405007390375182 ], [ 127.109414732284321, 37.405065176869172 ], [ 127.109928, 37.405159 ], [ 127.110572, 37.405176 ], [ 127.111216, 37.405551 ], [ 127.111537, 37.405329 ], [ 127.112267, 37.404273 ], [ 127.112916293865908, 37.40322581280433 ], [ 127.112917715794779, 37.403216130893014 ] ] ] } },
{ "type": "Feature", "properties": { "present_sn": "41130UQ111PS202411300003", "lclas_cl": "UQA400", "mlsfc_cl": "UQA410", "sclas_cl": null, "atrb_se": "UQA410", "wtnnc_sn": "41130ARZ202407220002", "ntfc_sn": "41130NTC202407220001", "dgm_nm": "보전녹지지역", "dgm_ar": "139043.72324150044", "dgm_lt": "129222.06107700000", "sgg_cd": "41130", "drawing_no": null, "create_dat": "2024-11-30", "mnum": "37800004113520100517UQA4100000002", "alias": null, "remark": null, "ntfdate": null, "zone_name": "보전녹지지역", "region": "pangyo", "region_name": "제1판교테크노밸리", "layer_type": "landuse_zone", "area_m2": 4679.2305562850242 }, "geometry": { "type": "MultiPolygon", "coordinates": [ [ [ [ 127.109409630082752, 37.405007390375182 ], [ 127.109147950130833, 37.404865190385394 ], [ 127.10937, 37.405057 ], [ 127.109414732284321, 37.405065176869172 ], [ 127.109409630082752, 37.405007390375182 ] ] ], [ [ [ 127.108951279493056, 37.404758317228016 ], [ 127.108796740309899, 37.404721336742959 ], [ 127.109052145345657, 37.404813128928744 ], [ 127.108951279493056, 37.404758317228016 ] ] ], [ [ [ 127.106641280095857, 37.404648307516076 ], [ 127.106627050251319, 37.404891773884096 ], [ 127.106619411843837, 37.405022300253613 ], [ 127.106774, 37.404716 ], [ 127.106943918763733, 37.404599360848628 ], [ 127.106641280095857, 37.404648307516076 ] ] ], [ [ [ 127.106090761813363, 37.405362938574761 ], [ 127.105776453009213, 37.40530338116055 ], [ 127.106001, 37.405415 ], [ 127.106116936689205, 37.405358278286464 ], [ 127.106090761813363, 37.405362938574761 ] ] ], [ [ [ 127.105148865578911, 37.405007867730518 ], [ 127.105078146003549, 37.40499657692768 ], [ 127.104752868670445, 37.405083538824073 ], [ 127.104627362168145, 37.405148701474289 ], [ 127.103903289876101, 37.405581546587051 ], [ 127.1038859118094, 37.405593094599055 ], [ 127.103870116704343, 37.405605902656291 ], [ 127.103855904560874, 37.405619970759403 ], [ 127.103843613851367, 37.405635028312155 ], [ 127.103833244453895, 37.405650985213924 ], [ 127.10382490919342, 37.405667751266343 ], [ 127.103818720650196, 37.405685056068528 ], [ 127.103814678703046, 37.405702809519653 ], [ 127.103813008879342, 37.405720741120895 ], [ 127.103813485164778, 37.40573876096667 ], [ 127.103816220262729, 37.405756688756838 ], [ 127.103820760305183, 37.405772993162017 ], [ 127.103956160672851, 37.406170943411738 ], [ 127.103942653025712, 37.40645369293064 ], [ 127.104296800083617, 37.407073012071486 ], [ 127.104379790174534, 37.407218273246244 ], [ 127.104390926778734, 37.407218146425656 ], [ 127.10498597851749, 37.4072115273447 ], [ 127.105098855307048, 37.407215978315911 ], [ 127.105561675180127, 37.407136262633621 ], [ 127.104285, 37.406966 ], [ 127.104006, 37.406557 ], [ 127.103963, 37.405773 ], [ 127.104478, 37.405261 ], [ 127.105289602696146, 37.405079674188556 ], [ 127.105148865578911, 37.405007867730518 ] ] ], [ [ [ 127.105731059641002, 37.407107088005098 ], [ 127.105561675180127, 37.407136262633621 ], [ 127.105626815491746, 37.407144950012515 ], [ 127.105731059641002, 37.407107088005098 ] ] ] ] } },
{ "type": "Feature", "properties": { "present_sn": "41130UQ111PS202411300002", "lclas_cl": "UQA400", "mlsfc_cl": "UQA430", "sclas_cl": null, "atrb_se": "UQA430", "wtnnc_sn": "41130ARZ202407220001", "ntfc_sn": "41130NTC202407220001", "dgm_nm": "자연녹지지역", "dgm_ar": "3618874.4853990176", "dgm_lt": "392632.21147000000", "sgg_cd": "41130", "drawing_no": null, "create_dat": "2024-11-30", "mnum": "37800004113020100517UQA4300000099", "alias": null, "remark": null, "ntfdate": null, "zone_name": "자연녹지지역", "region": "pangyo", "region_name": "제1판교테크노밸리", "layer_type": "landuse_zone", "area_m2": 146631.50290647181 }, "geometry": { "type": "Polygon", "coordinates": [ [ [ 127.100354125525044, 37.406752549565113 ], [ 127.100356261836282, 37.40674515947471 ], [ 127.100439610581859, 37.406653817178359 ], [ 127.100458669071259, 37.406631185811172 ], [ 127.100368264671843, 37.406957877251315 ], [ 127.100812686647714, 37.407061022219779 ], [ 127.100829991073439, 37.407019931810794 ], [ 127.10112084623259, 37.407029057684859 ], [ 127.101317169997898, 37.407043218241142 ], [ 127.101345091751554, 37.407060854519273 ], [ 127.101435096341064, 37.407107987965077 ], [ 127.10156527422879, 37.407165765548122 ], [ 127.101683991399398, 37.407185628464106 ], [ 127.101713839902544, 37.407208128490851 ], [ 127.101990209941349, 37.407280515589207 ], [ 127.102031883078126, 37.407276695916806 ], [ 127.102218113709682, 37.407259868720217 ], [ 127.102452704910846, 37.4072567854504 ], [ 127.102873736515264, 37.407225070040568 ], [ 127.103348842234965, 37.407172583281607 ], [ 127.103796643054721, 37.407224815908513 ], [ 127.104379790174534, 37.407218273246244 ], [ 127.104296800083617, 37.407073012071486 ], [ 127.102370883878351, 37.407054037314794 ], [ 127.102335530455719, 37.407053707059845 ], [ 127.101903353666643, 37.407027765203821 ], [ 127.101474212779934, 37.40699127735266 ], [ 127.101038492926449, 37.40693334937842 ], [ 127.100688244022749, 37.406885592655534 ], [ 127.100715527250429, 37.406847420889513 ], [ 127.10072684672727, 37.406831832881956 ], [ 127.100738313115457, 37.406816307820897 ], [ 127.100749915108196, 37.406800836705621 ], [ 127.10076164144624, 37.406785446575959 ], [ 127.100773514683553, 37.406770110382553 ], [ 127.100785523549021, 37.40675484615506 ], [ 127.100797656735892, 37.406739644892809 ], [ 127.10080992555082, 37.406724515596409 ], [ 127.10082232999379, 37.406709458265816 ], [ 127.100834870064702, 37.406694472900988 ], [ 127.100847534456847, 37.406679550501252 ], [ 127.100860334476877, 37.406664700067154 ], [ 127.100873270124708, 37.406649921598714 ], [ 127.100886330117447, 37.406635224115476 ], [ 127.100899514431262, 37.406620589597161 ], [ 127.100912834384687, 37.40660603605447 ], [ 127.100926278670997, 37.406591554486717 ], [ 127.100939847290135, 37.406577144893902 ], [ 127.100953540254011, 37.406562816286062 ], [ 127.100967368857383, 37.406548568653683 ], [ 127.100981321793498, 37.406534392996079 ], [ 127.100995387779477, 37.406520298332829 ], [ 127.101009589392945, 37.406506275634797 ], [ 127.1010239040681, 37.406492342941142 ], [ 127.101038343075942, 37.406478482222084 ], [ 127.101052906440216, 37.406464711497868 ], [ 127.101067594137135, 37.40645101274815 ], [ 127.10108239489567, 37.406437404002645 ], [ 127.101097319998729, 37.406423876241675 ], [ 127.101112369446213, 37.406410429465254 ], [ 127.101127520660555, 37.406397072702397 ], [ 127.101142796219335, 37.406383796923961 ], [ 127.101158196134506, 37.406370611140034 ], [ 127.101173709099314, 37.406357506349906 ], [ 127.101189323830951, 37.406344491573243 ], [ 127.101205062918893, 37.406331566790925 ], [ 127.101220915056501, 37.4063187230023 ], [ 127.101236880267606, 37.406305978227579 ], [ 127.101252958528335, 37.406293314446479 ], [ 127.101269138567844, 37.406280749688712 ], [ 127.101285442951749, 37.406268265914917 ], [ 127.101301849114407, 37.406255881164398 ], [ 127.101318018548028, 37.406243848006376 ], [ 127.10131835704388, 37.406243586426953 ], [ 127.101334989329686, 37.406231381683469 ], [ 127.101351712099586, 37.406219275972667 ], [ 127.101368536624378, 37.406207251264675 ], [ 127.101385474222781, 37.406195325570195 ], [ 127.101402502281317, 37.406183480888004 ], [ 127.101419620812024, 37.406171726228173 ], [ 127.101436829802964, 37.406160052580553 ], [ 127.101454129266088, 37.406148468955223 ], [ 127.101471519189474, 37.406136966342039 ], [ 127.101488999585072, 37.406125553751068 ], [ 127.101506559134251, 37.40611421317157 ], [ 127.101524197849002, 37.406102953613662 ], [ 127.101541904434612, 37.406091775086836 ], [ 127.101559701468574, 37.406080668561842 ], [ 127.101577566373464, 37.406069643067873 ], [ 127.10159549912531, 37.406058680584657 ], [ 127.101613511042871, 37.406047799122831 ], [ 127.101631579524636, 37.406036989691387 ], [ 127.101649715853483, 37.406026243270638 ], [ 127.101667908746649, 37.406015568880164 ], [ 127.101686169486854, 37.406004957500329 ], [ 127.101704486791448, 37.40599441815074 ], [ 127.101722860636471, 37.405983932811175 ], [ 127.101741291033875, 37.405973510491691 ], [ 127.101759777983744, 37.405963151192275 ], [ 127.101778310191378, 37.405952854922454 ], [ 127.101796887632773, 37.405942603662027 ], [ 127.101815521626676, 37.405932415421582 ], [ 127.101834200854427, 37.405922272190452 ], [ 127.101852914045281, 37.405912191998439 ], [ 127.101871672457989, 37.405902147805584 ], [ 127.101890476116594, 37.405892157632103 ], [ 127.101909313726395, 37.40588222148758 ], [ 127.101928196558077, 37.405872321342137 ], [ 127.101947102022265, 37.405862457214958 ], [ 127.101966041437734, 37.405852647116674 ], [ 127.101985026063119, 37.405842864007305 ], [ 127.102004022038415, 37.405833125935892 ], [ 127.102023063235649, 37.405823423863474 ], [ 127.102042115758778, 37.405813748808761 ], [ 127.1020612022092, 37.405804109762599 ], [ 127.102080311292255, 37.405794506734608 ], [ 127.102099442983828, 37.405784921704573 ], [ 127.102118597296098, 37.405775363682551 ], [ 127.102137774228922, 37.405765832668543 ], [ 127.102156962487769, 37.405756328672169 ], [ 127.102176162048451, 37.40574683367317 ], [ 127.102195384229788, 37.405737365682192 ], [ 127.102214617725096, 37.405727915698677 ], [ 127.102233862522297, 37.405718474712515 ], [ 127.102253107338797, 37.405709051743472 ], [ 127.102272374751848, 37.405699637762147 ], [ 127.102291642172133, 37.405690232787791 ], [ 127.102310920894368, 37.405680836810774 ], [ 127.102330199611743, 37.405671440830616 ], [ 127.102349478336379, 37.405662053857426 ], [ 127.102366544752272, 37.405653749983522 ], [ 127.102368757056212, 37.405652666881082 ], [ 127.102388047065915, 37.405643279891954 ], [ 127.102407325776085, 37.4056338929093 ], [ 127.102426604481494, 37.405624505923505 ], [ 127.102445871863253, 37.40561510092396 ], [ 127.102465139240167, 37.405605695921253 ], [ 127.102484406600183, 37.405596281905289 ], [ 127.102503651341905, 37.405586849885239 ], [ 127.102522896066688, 37.405577408851919 ], [ 127.1025421294799, 37.405567958815006 ], [ 127.102561340262667, 37.405558481763883 ], [ 127.102580539721785, 37.40554898669906 ], [ 127.102599727857168, 37.405539473620529 ], [ 127.102618893374228, 37.405529942537932 ], [ 127.102638036248706, 37.405520375431081 ], [ 127.10265716779945, 37.405510790310551 ], [ 127.102676265412967, 37.40550116917543 ], [ 127.102695351702707, 37.40549153002663 ], [ 127.102714404043112, 37.40548184585316 ], [ 127.10273343375296, 37.405472134665573 ], [ 127.102752429525509, 37.405462387463452 ], [ 127.102771402655392, 37.405452604237176 ], [ 127.102790330541154, 37.405442775995908 ], [ 127.102809235784235, 37.405432911730479 ], [ 127.102828107077841, 37.405423002440465 ], [ 127.10284693312731, 37.405413048135557 ], [ 127.102865725215111, 37.405403039795949 ], [ 127.102884472070869, 37.405392995451614 ], [ 127.102903184964916, 37.405382897072649 ], [ 127.10292185260262, 37.405372744668718 ], [ 127.102940463689379, 37.405362538249562 ], [ 127.102959040814326, 37.405352277795842 ], [ 127.102977561388258, 37.405341963326904 ], [ 127.102996025411159, 37.405331594842835 ], [ 127.103014444153288, 37.40532115431369 ], [ 127.103032806344331, 37.405310659769434 ], [ 127.10304251218129, 37.405305074165817 ], [ 127.10305111197215, 37.405300102199973 ], [ 127.103069361036674, 37.405289481605337 ], [ 127.103087553525725, 37.405278788975437 ], [ 127.103105678169015, 37.405268042340218 ], [ 127.103123746236847, 37.405257223669807 ], [ 127.10314175775342, 37.40524635098442 ], [ 127.103159701399846, 37.40523540627359 ], [ 127.103177588482893, 37.405224398537733 ], [ 127.103195419014696, 37.405213336787028 ], [ 127.103213192983048, 37.405202212011346 ], [ 127.10323088778658, 37.405191015220026 ], [ 127.103248537333386, 37.405179764404195 ], [ 127.103266119022152, 37.405168450573221 ], [ 127.10327488723884, 37.40516276664583 ], [ 127.103283632852808, 37.405157073727096 ], [ 127.103301090119956, 37.405145633856122 ], [ 127.103318490835747, 37.405134139970492 ], [ 127.103335812386632, 37.405122574069409 ], [ 127.103353077386132, 37.405110954153677 ], [ 127.103370285834231, 37.405099280223354 ], [ 127.103387415117439, 37.405087534277634 ], [ 127.103404487849232, 37.405075734317435 ], [ 127.103421492722774, 37.405063871342264 ], [ 127.103438441044958, 37.405051954352622 ], [ 127.103455310214343, 37.405039974357848 ], [ 127.103472122832287, 37.405027940348624 ], [ 127.103488867591963, 37.405015843324612 ], [ 127.103505544493487, 37.405003683285813 ], [ 127.103522153548894, 37.404991469242411 ], [ 127.103538694758328, 37.404979201194386 ], [ 127.103555168109509, 37.404966870131688 ], [ 127.103571562307849, 37.404954476064077 ], [ 127.103587899966925, 37.404942036992331 ], [ 127.103604169767735, 37.404929534905982 ], [ 127.103620371710278, 37.404916969805043 ], [ 127.103636505818983, 37.404904359709825 ], [ 127.10365256077489, 37.404891686609794 ], [ 127.103668547884723, 37.404878959505432 ], [ 127.103684467136276, 37.404866169386594 ], [ 127.103700318554033, 37.40485333427354 ], [ 127.103716102113509, 37.40484043614611 ], [ 127.103731806532338, 37.404827484024167 ], [ 127.103747443105178, 37.404814477897986 ], [ 127.103763000537441, 37.404801417777357 ], [ 127.103778490123645, 37.404788303652559 ], [ 127.103793911863818, 37.404775135523629 ], [ 127.103809265757974, 37.404761913390537 ], [ 127.103824529217036, 37.404748637272903 ], [ 127.103839736124613, 37.404735307141443 ], [ 127.103854863891627, 37.404721923015693 ], [ 127.103869912518121, 37.404708484895721 ], [ 127.103884893298627, 37.404694992771759 ], [ 127.103899794950891, 37.404681455663713 ], [ 127.103914628757153, 37.404667864551769 ], [ 127.103929383422908, 37.404654219445675 ], [ 127.103944058948173, 37.404640520345495 ], [ 127.103958655333003, 37.404626767251244 ], [ 127.103973183884136, 37.404612969163267 ], [ 127.103987633294821, 37.404599117081297 ], [ 127.104002014871867, 37.404585220005671 ], [ 127.104016306013975, 37.404571268945887 ], [ 127.104030529310194, 37.40455726388236 ], [ 127.104044673478271, 37.404543213835069 ], [ 127.104058738518262, 37.404529118804021 ], [ 127.104072724417918, 37.404514969779115 ], [ 127.1040866424717, 37.404500766750601 ], [ 127.104100470102935, 37.404486518748207 ], [ 127.104114218606185, 37.404472225762184 ], [ 127.104127899263588, 37.404457878772604 ], [ 127.104141489498559, 37.404443486809249 ], [ 127.104155011900005, 37.404429049852531 ], [ 127.104168443879018, 37.404414567922053 ], [ 127.104181796717882, 37.404400031997987 ], [ 127.104195070428801, 37.404385451090398 ], [ 127.104208276306295, 37.404370825189559 ], [ 127.104221380467038, 37.404356154324915 ], [ 127.104234416794398, 37.404341438467043 ], [ 127.104247373993928, 37.404326677625811 ], [ 127.104260240758919, 37.40431186280091 ], [ 127.104273028408471, 37.404297012002807 ], [ 127.104285736930279, 37.40428211622141 ], [ 127.104298366312065, 37.404267166446601 ], [ 127.104310905284024, 37.404252180708497 ], [ 127.104323365128337, 37.404237149987154 ], [ 127.104329566794036, 37.404229621135357 ], [ 127.104335745844978, 37.404222074282636 ], [ 127.104348036151919, 37.404206962614865 ], [ 127.104360247318965, 37.404191796953846 ], [ 127.104372368076355, 37.404176595329638 ], [ 127.104384409706199, 37.404161348722333 ], [ 127.104396372208569, 37.404146057131953 ], [ 127.104408244301368, 37.40413072957849 ], [ 127.104420037266735, 37.404115357042009 ], [ 127.104431739822616, 37.404099948542459 ], [ 127.104443363251093, 37.404084495059934 ], [ 127.104449135408444, 37.404076750332401 ], [ 127.104454896257849, 37.404068996604288 ], [ 127.10446633885519, 37.404053462185693 ], [ 127.104477702337618, 37.404037891794289 ], [ 127.104488986692786, 37.404022276420015 ], [ 127.104500180638652, 37.404006625082864 ], [ 127.104511284162953, 37.403990928772693 ], [ 127.104522297278052, 37.40397519649968 ], [ 127.104533231278381, 37.403959428253998 ], [ 127.10454407486958, 37.403943624045517 ], [ 127.104554828039369, 37.403927774864158 ], [ 127.104565502106837, 37.403911898720288 ], [ 127.10457608575291, 37.403895977603597 ], [ 127.104586578990052, 37.403880020524198 ], [ 127.104596981805926, 37.403864018471978 ], [ 127.104607305519636, 37.403847989457375 ], [ 127.104617527530095, 37.403831924489985 ], [ 127.104627670426154, 37.40381582355014 ], [ 127.104637722913466, 37.403799686647695 ], [ 127.104647684992031, 37.403783513782685 ], [ 127.104657556661948, 37.403767304955146 ], [ 127.104667349217593, 37.403751060155201 ], [ 127.104676938667993, 37.403734959693715 ], [ 127.104677040082649, 37.403734788412741 ], [ 127.104686651833518, 37.40371848069794 ], [ 127.104696161881535, 37.403702137030542 ], [ 127.104705592815478, 37.403685757390846 ], [ 127.10471494466006, 37.40366935979911 ], [ 127.104724206083944, 37.403652917234865 ], [ 127.104733388418595, 37.403636456718615 ], [ 127.104742502946024, 37.403619969230391 ], [ 127.104751527065233, 37.403603445779851 ], [ 127.104760483389683, 37.403586904367515 ], [ 127.104769371906997, 37.403570335983254 ], [ 127.104778181322956, 37.40355374063698 ], [ 127.104786922944243, 37.403537127328946 ], [ 127.104795608065274, 37.40352049604931 ], [ 127.104804214072672, 37.403503828797547 ], [ 127.104812763592207, 37.403487152584333 ], [ 127.104821256611586, 37.403470458399575 ], [ 127.104829681824128, 37.403453737242984 ], [ 127.104838061830876, 37.403436998105008 ], [ 127.10484638534993, 37.403420250005603 ], [ 127.104854652356565, 37.403403474924573 ], [ 127.104862862875549, 37.403386690882172 ], [ 127.104871039483186, 37.403369888848516 ], [ 127.104879159603243, 37.403353077853481 ], [ 127.104887234517705, 37.40333624887711 ], [ 127.104895275533252, 37.403319410919643 ], [ 127.104903271343204, 37.40330255498084 ], [ 127.104911233254342, 37.403285690060954 ], [ 127.104919149972304, 37.403268816169899 ], [ 127.104927044073378, 37.403251924277775 ], [ 127.104934892993725, 37.403235032424575 ], [ 127.104942730603895, 37.403218131570583 ], [ 127.104950523020989, 37.40320122174542 ], [ 127.104958304115556, 37.403184293909348 ], [ 127.104966051336135, 37.403167375112467 ], [ 127.104973787234229, 37.403150438304685 ], [ 127.104981500540234, 37.40313350151613 ], [ 127.104989191254248, 37.403116564746767 ], [ 127.104996870645749, 37.40309960996651 ], [ 127.105000710346388, 37.403091137081248 ], [ 127.105002624549257, 37.403086900643508 ], [ 127.105004538751913, 37.403082664205719 ], [ 127.10500645295437, 37.403078427767923 ], [ 127.105008367156586, 37.403074191330077 ], [ 127.105012195547985, 37.403065709444164 ], [ 127.105019841046314, 37.40304875469193 ], [ 127.105027486541275, 37.403031799939185 ], [ 127.105035120726058, 37.403014836185648 ], [ 127.105042349590818, 37.402998800830161 ], [ 127.105042766214112, 37.402997881431823 ], [ 127.105050400392059, 37.402980917677219 ], [ 127.105058034578974, 37.402963962932205 ], [ 127.105103850885428, 37.40286220741055 ], [ 127.105111485035906, 37.40284524365164 ], [ 127.105149667055841, 37.402760442859446 ], [ 127.105157301198133, 37.402743488107447 ], [ 127.105195483115082, 37.402658687299144 ], [ 127.105203117236741, 37.402641732543913 ], [ 127.105248933151742, 37.402539976961037 ], [ 127.105256567236964, 37.402523013191939 ], [ 127.105264201331181, 37.402506058432422 ], [ 127.105294748943095, 37.402438221358828 ], [ 127.105302383007739, 37.402421257586525 ], [ 127.10534819865488, 37.402319501961763 ], [ 127.10535583269548, 37.402302538185687 ], [ 127.105363466745089, 37.4022855834192 ], [ 127.105371100778825, 37.402268619642044 ], [ 127.105394002884296, 37.402217746327594 ], [ 127.105401648198409, 37.40220078253838 ], [ 127.105447463577747, 37.402099026871738 ], [ 127.105455097586159, 37.402082072098814 ], [ 127.105477999565878, 37.402031189756535 ], [ 127.105485633560562, 37.402014234981451 ], [ 127.105493267539345, 37.401997271195711 ], [ 127.105500912821256, 37.401980316409627 ], [ 127.105539082671442, 37.401895515490409 ], [ 127.105546716626193, 37.401878551700918 ], [ 127.105584897679961, 37.401793759765795 ], [ 127.105585584513037, 37.401792236448514 ], [ 127.106520863619309, 37.399714843469141 ], [ 127.107458950929853, 37.399717232348095 ], [ 127.107606260248303, 37.399744491094864 ], [ 127.107805370303794, 37.399744942997842 ], [ 127.107804355787081, 37.399026565578055 ], [ 127.108337416638079, 37.399026085231171 ], [ 127.108868331552273, 37.399025514328152 ], [ 127.109848700420699, 37.399024620232055 ], [ 127.109844582677241, 37.399278800013462 ], [ 127.109878727843409, 37.399383736838807 ], [ 127.109879461287335, 37.399657824564628 ], [ 127.109957369388468, 37.399723076641735 ], [ 127.111258432484078, 37.39972613375803 ], [ 127.111237, 37.399278 ], [ 127.111022, 37.398818 ], [ 127.10937, 37.398409 ], [ 127.107525, 37.398426 ], [ 127.107418, 37.398767 ], [ 127.107139, 37.39938 ], [ 127.106345, 37.399704 ], [ 127.105808, 37.399687 ], [ 127.104049, 37.399619 ], [ 127.102032, 37.399568 ], [ 127.101173, 37.399636 ], [ 127.100594, 37.400642 ], [ 127.100122, 37.401443 ], [ 127.099349, 37.402278 ], [ 127.098663, 37.402636 ], [ 127.09744, 37.403608 ], [ 127.097268, 37.404256 ], [ 127.097161, 37.404716 ], [ 127.097397, 37.405739 ], [ 127.097676, 37.406096 ], [ 127.098078763435652, 37.406288408231951 ], [ 127.098050381423477, 37.406274032819098 ], [ 127.098004266478839, 37.406248842099686 ], [ 127.097969566188141, 37.406229048128488 ], [ 127.097926272097595, 37.406201602545167 ], [ 127.097885462419484, 37.406173794515865 ], [ 127.097841258122671, 37.406141123768322 ], [ 127.097795015625167, 37.406104400105754 ], [ 127.097759740117141, 37.406076317222272 ], [ 127.097724798638438, 37.406044449802224 ], [ 127.097714393904369, 37.406033826315728 ], [ 127.097647553028224, 37.405964142279444 ], [ 127.097560664079637, 37.405850144655496 ], [ 127.097520146894681, 37.405785755135966 ], [ 127.097473858236739, 37.405712540358962 ], [ 127.097470119391204, 37.405703443162466 ], [ 127.09739522605031, 37.405518616057478 ], [ 127.097318791083069, 37.405187195331592 ], [ 127.097291567992158, 37.405007285082533 ], [ 127.097253982746977, 37.404761158750659 ], [ 127.097265656988284, 37.404438226198877 ], [ 127.097297710461902, 37.404331520282234 ], [ 127.097682720763288, 37.403963684504589 ], [ 127.097757398469113, 37.403892263499436 ], [ 127.097934729678386, 37.40372299884843 ], [ 127.097949732947725, 37.403708750604181 ], [ 127.098099540713761, 37.403567259353458 ], [ 127.098441792946986, 37.403242254111042 ], [ 127.098445932578983, 37.403246845885526 ], [ 127.09935202044673, 37.402388181749636 ], [ 127.099534512445572, 37.402215225244944 ], [ 127.099539013257711, 37.402210959720271 ], [ 127.099543502775191, 37.402206694204772 ], [ 127.099547992268711, 37.402202410668849 ], [ 127.099552470479296, 37.402198136152236 ], [ 127.099556937383497, 37.402193852634696 ], [ 127.099561404275448, 37.402189560106862 ], [ 127.099565859872769, 37.402185267588202 ], [ 127.099570315457825, 37.402180966059262 ], [ 127.099574759748265, 37.402176664539539 ], [ 127.09957919273225, 37.402172354018873 ], [ 127.09958362571578, 37.40216804349803 ], [ 127.099588047404652, 37.402163732986388 ], [ 127.099592469081287, 37.402159413464446 ], [ 127.099596879451525, 37.40215508494159 ], [ 127.099601278527103, 37.40215075642795 ], [ 127.099605677590475, 37.402146418904003 ], [ 127.099610065359172, 37.40214208138925 ], [ 127.099614453127401, 37.402137743874349 ], [ 127.099618829589218, 37.402133397358519 ], [ 127.099623194756404, 37.40212905085189 ], [ 127.099787074055939, 37.401965705185674 ], [ 127.099794698928903, 37.401958085284484 ], [ 127.099802312482666, 37.401950447371917 ], [ 127.099809903434917, 37.401942800467523 ], [ 127.099817460479784, 37.401935135570554 ], [ 127.09982501751135, 37.401927461662964 ], [ 127.099832540647284, 37.401919778772942 ], [ 127.099840041169955, 37.401912077880937 ], [ 127.099847530373466, 37.401904358977603 ], [ 127.099854996975466, 37.401896631082444 ], [ 127.099862440975969, 37.40188889419548 ], [ 127.099869862363178, 37.40188113930656 ], [ 127.099877261148919, 37.401873375425851 ], [ 127.099884637333162, 37.401865602553336 ], [ 127.099891990904183, 37.401857811678873 ], [ 127.099899333156017, 37.401850002793104 ], [ 127.099906652818149, 37.401842193925681 ], [ 127.099913938561144, 37.401834358055581 ], [ 127.099921213008571, 37.40182652219444 ], [ 127.099928464842719, 37.40181866833138 ], [ 127.099935705357723, 37.401810796457035 ], [ 127.100000565137961, 37.401740066953174 ], [ 127.100009260438611, 37.401730563028046 ], [ 127.100017921831309, 37.40172104111025 ], [ 127.100026549316027, 37.401711501199792 ], [ 127.100035154186827, 37.401701943287243 ], [ 127.10004371386735, 37.401692376401584 ], [ 127.100052250922232, 37.401682782503727 ], [ 127.100060754069119, 37.401673170613236 ], [ 127.100069223308097, 37.401663540730112 ], [ 127.100077669933142, 37.401653892844948 ], [ 127.100086082650293, 37.401644226967157 ], [ 127.100094461471258, 37.40163455210687 ], [ 127.100102806372547, 37.401624850243834 ], [ 127.100111117377693, 37.401615139398366 ], [ 127.100119405757198, 37.401605401540721 ], [ 127.10012764894654, 37.401595654710043 ], [ 127.100135869510225, 37.401585880867252 ], [ 127.100144056177825, 37.401576098041993 ], [ 127.100152208937558, 37.401566297224164 ], [ 127.100160339083416, 37.401556478404359 ], [ 127.100168424027416, 37.401546641601435 ], [ 127.100228029083667, 37.401473970164467 ], [ 127.100236035010852, 37.401464178473418 ], [ 127.100244007042036, 37.401454377799979 ], [ 127.100251945165397, 37.401444559134028 ], [ 127.10025986067501, 37.401434722466142 ], [ 127.100267730994616, 37.401424876825331 ], [ 127.100275578688667, 37.401415004172442 ], [ 127.100283392486745, 37.40140512253722 ], [ 127.100291172377041, 37.401395222909507 ], [ 127.100298918359627, 37.401385305289324 ], [ 127.10030663043446, 37.401375369676664 ], [ 127.100314319907397, 37.40136542507225 ], [ 127.100321964178534, 37.401355462484815 ], [ 127.100329585836022, 37.401345481895497 ], [ 127.100337173585814, 37.40133548331373 ], [ 127.10034472743969, 37.401325475749665 ], [ 127.100352247385885, 37.40131545019316 ], [ 127.100359733424384, 37.401305406644241 ], [ 127.100367185555172, 37.401295345102895 ], [ 127.100374615084149, 37.401285274569837 ], [ 127.100381999411468, 37.401275186053816 ], [ 127.100425594913531, 37.401215493484585 ], [ 127.100432663504634, 37.401205792665252 ], [ 127.100439698176416, 37.40119606484344 ], [ 127.100446710246558, 37.401186328029951 ], [ 127.100453688421084, 37.401176582234278 ], [ 127.10046063268814, 37.401166818446285 ], [ 127.100467554341776, 37.401157036656514 ], [ 127.100474442099795, 37.401147245884516 ], [ 127.100481295962211, 37.401137446130384 ], [ 127.100488127211221, 37.401127628374468 ], [ 127.1004949132588, 37.401117792635716 ], [ 127.100501676704837, 37.401107947905331 ], [ 127.100508417549278, 37.401098094183347 ], [ 127.100515113192358, 37.401088222478535 ], [ 127.100521786222032, 37.401078332771974 ], [ 127.100528425356202, 37.401068434083271 ], [ 127.100535041888804, 37.40105852640297 ], [ 127.100541613220116, 37.401048600739884 ], [ 127.100548161949888, 37.401038666085171 ], [ 127.100554676772333, 37.401028713438244 ], [ 127.100561168993266, 37.401018751799711 ], [ 127.100614402406805, 37.400936705946656 ], [ 127.100619789976108, 37.400928394085518 ], [ 127.100625143650475, 37.400920073242411 ], [ 127.100630486017891, 37.400911743398368 ], [ 127.100635794478563, 37.400903395562239 ], [ 127.100641091644093, 37.400895047735311 ], [ 127.100646366208679, 37.40088669091697 ], [ 127.100651618172364, 37.400878325107172 ], [ 127.100656847535134, 37.400869950305946 ], [ 127.100662054308842, 37.400861575523422 ], [ 127.100667238469768, 37.400853182739347 ], [ 127.100672400029808, 37.400844780963844 ], [ 127.100677538988947, 37.400836370196927 ], [ 127.100682666641134, 37.400827950429118 ], [ 127.100687760410366, 37.400819530689503 ], [ 127.100692831566889, 37.400811092948331 ], [ 127.100697891428297, 37.40080265521641 ], [ 127.100702917383074, 37.400794199492438 ], [ 127.100707932042752, 37.400785743777696 ], [ 127.100712912795785, 37.400777270070911 ], [ 127.100717882253775, 37.400768796373399 ], [ 127.100729038083216, 37.400749703544086 ], [ 127.100733489121865, 37.400742068223572 ], [ 127.10073791757172, 37.400734432921823 ], [ 127.100742334703071, 37.400726779609123 ], [ 127.100746729245643, 37.400719126315188 ], [ 127.100751112481561, 37.400711464020453 ], [ 127.100755473128714, 37.400703801744505 ], [ 127.100759811163428, 37.400696121467078 ], [ 127.100764137903326, 37.40068844119898 ], [ 127.100768442042636, 37.400680751939539 ], [ 127.100772734887158, 37.4006730626894 ], [ 127.100777005131107, 37.400665364447953 ], [ 127.100781252774453, 37.400657657215156 ], [ 127.100785489111146, 37.400649940981552 ], [ 127.100789702859174, 37.400642224766784 ], [ 127.100793905300534, 37.400634499551174 ], [ 127.100798085141349, 37.400626765344256 ], [ 127.100802242393499, 37.400619031156175 ], [ 127.100806388327086, 37.400611278957136 ], [ 127.100810511683932, 37.400603535787035 ], [ 127.100814623722258, 37.400595774606032 ], [ 127.100835983603559, 37.400555328182044 ], [ 127.100841830484455, 37.400544222781974 ], [ 127.100847632176155, 37.400533108409434 ], [ 127.100853399972607, 37.400521985054922 ], [ 127.100859133861903, 37.400510843708332 ], [ 127.100864822562059, 37.400499693389271 ], [ 127.100870477355087, 37.400488525078117 ], [ 127.100876098252911, 37.400477347785028 ], [ 127.100881673961652, 37.400466161519489 ], [ 127.100887227057186, 37.4004549572524 ], [ 127.100892723669801, 37.400443744022347 ], [ 127.10089819768109, 37.400432521800887 ], [ 127.100903626503367, 37.400421290606999 ], [ 127.10090902141863, 37.400410041421061 ], [ 127.100914371144881, 37.400398783262723 ], [ 127.100919698269919, 37.400387516112964 ], [ 127.100924968900202, 37.400376230990169 ], [ 127.100930216929299, 37.400364936875995 ], [ 127.100935419769442, 37.400353633789408 ], [ 127.10094058871455, 37.40034232172092 ], [ 127.100945712470761, 37.400331000680069 ], [ 127.101027601402734, 37.400149404553041 ], [ 127.101030821872214, 37.400142166702224 ], [ 127.101033963260448, 37.400134910897592 ], [ 127.101037025555485, 37.400127628129013 ], [ 127.101040020051286, 37.400120318387017 ], [ 127.101042924183901, 37.400112999710842 ], [ 127.10104576051728, 37.400105654061242 ], [ 127.101048506487587, 37.400098299477499 ], [ 127.101051184658672, 37.400090917920338 ], [ 127.101053783748625, 37.400083518409389 ], [ 127.101056292463639, 37.40007610095418 ], [ 127.101058733391426, 37.400068665535699 ], [ 127.101061083956239, 37.400061221183101 ], [ 127.10106336673384, 37.400053758867223 ], [ 127.101065559136629, 37.400046278607121 ], [ 127.101067683752262, 37.400038780383731 ], [ 127.101069718005007, 37.400031273226276 ], [ 127.101071673188741, 37.400023757125176 ], [ 127.101073549291542, 37.400016223070338 ], [ 127.101075346313465, 37.400008671061798 ], [ 127.101077064266434, 37.400001110109642 ], [ 127.101092927612129, 37.399929439124861 ], [ 127.101082763096699, 37.399929375602937 ], [ 127.101127552628327, 37.399723276020723 ], [ 127.101127575048906, 37.399723149859895 ], [ 127.101845387946298, 37.399725191976614 ], [ 127.101899943100477, 37.399729830947514 ], [ 127.102077624919147, 37.399752745928254 ], [ 127.103390757749594, 37.399755946770796 ], [ 127.10549095743788, 37.399761146624755 ], [ 127.105574013413047, 37.399737701266623 ], [ 127.10429746352564, 37.402349270406312 ], [ 127.104235516951192, 37.402474835402053 ], [ 127.103965303189469, 37.403013965912976 ], [ 127.103873053514562, 37.403222999796789 ], [ 127.103869280343005, 37.403230661675799 ], [ 127.103865495864127, 37.403238314554329 ], [ 127.103861677501584, 37.403245967462055 ], [ 127.103857847819441, 37.403253602359193 ], [ 127.103853984253632, 37.403261237285527 ], [ 127.103850086791937, 37.403268863230906 ], [ 127.103846178022849, 37.403276480175791 ], [ 127.103842235345553, 37.403284079129648 ], [ 127.103838270078882, 37.403291678102882 ], [ 127.103834282210542, 37.403299268085419 ], [ 127.10383026045848, 37.403306858097125 ], [ 127.1038262160925, 37.403314430107976 ], [ 127.103822160419142, 37.403321993118354 ], [ 127.103818059555465, 37.403329547157533 ], [ 127.103813947384467, 37.403337092196217 ], [ 127.10380980132966, 37.403344637264055 ], [ 127.103805643955212, 37.403352164321269 ], [ 127.103801452684763, 37.403359682397515 ], [ 127.103797227530549, 37.403367200502899 ], [ 127.10379299105665, 37.403374700597659 ], [ 127.103783528565501, 37.403392909249753 ], [ 127.103766178041326, 37.403424369617106 ], [ 127.103742625658839, 37.403463223652267 ], [ 127.103719407676735, 37.403498833745822 ], [ 127.103697205673924, 37.40353408255136 ], [ 127.103673873726521, 37.403568971923477 ], [ 127.103650315381316, 37.403603501081051 ], [ 127.10362619131871, 37.403637309911723 ], [ 127.103602066867722, 37.403670848433642 ], [ 127.103576925413535, 37.403704027423011 ], [ 127.103551671237852, 37.403737386706773 ], [ 127.103545244074809, 37.403745231067639 ], [ 127.103525964287613, 37.403770025565031 ], [ 127.103499692596117, 37.40380266490461 ], [ 127.103472291443254, 37.403835305212091 ], [ 127.10344522775587, 37.403866954107635 ], [ 127.103417260494197, 37.403898603775517 ], [ 127.103388841067044, 37.403929983522268 ], [ 127.103359857017949, 37.403961453849668 ], [ 127.103329968782347, 37.403992474441772 ], [ 127.10330030567917, 37.40402295422448 ], [ 127.103270416541761, 37.404053344092823 ], [ 127.103236580300248, 37.404088152313506 ], [ 127.103212214543746, 37.40411051839812 ], [ 127.10317307205753, 37.404146952987567 ], [ 127.103141147752297, 37.404175812850006 ], [ 127.10310786808968, 37.404204673868172 ], [ 127.103074925897275, 37.404232543472588 ], [ 127.103040854721769, 37.404260774442292 ], [ 127.103007008194567, 37.404288104196134 ], [ 127.102972935753641, 37.404315434134027 ], [ 127.102902982954575, 37.404369554922354 ], [ 127.102866537386788, 37.404395985850961 ], [ 127.102831106354984, 37.404420974277954 ], [ 127.102793531046743, 37.404447225949241 ], [ 127.102757082978343, 37.404471854819747 ], [ 127.102681815775384, 37.404521745264653 ], [ 127.102643672733933, 37.404545834942262 ], [ 127.10260530353608, 37.40456974459822 ], [ 127.10256659438987, 37.404592843620414 ], [ 127.101936278637282, 37.404954596744737 ], [ 127.101844523830934, 37.405007113592319 ], [ 127.10143822948622, 37.405240820003669 ], [ 127.101032384044075, 37.405474254329434 ], [ 127.100626874685119, 37.405707506770113 ], [ 127.100221927073036, 37.405940396938234 ], [ 127.099954443597895, 37.40609424262275 ], [ 127.099923969520788, 37.406110846625957 ], [ 127.099894510777915, 37.406126548763645 ], [ 127.0998636973614, 37.40614279262843 ], [ 127.099833674445335, 37.406158945726574 ], [ 127.09981346934579, 37.406168513261761 ], [ 127.099715151216827, 37.406213825801238 ], [ 127.099701154787638, 37.406220775223417 ], [ 127.099591538952509, 37.406263934609889 ], [ 127.099558687310306, 37.406276305730302 ], [ 127.099524704069268, 37.40628705595644 ], [ 127.099490947534917, 37.40629843669393 ], [ 127.099456964391479, 37.406309277001768 ], [ 127.09942343279414, 37.406319936723378 ], [ 127.099233977400999, 37.406374514622662 ], [ 127.099115087670995, 37.406408671102326 ], [ 127.098823789256329, 37.40649144396405 ], [ 127.098771512100527, 37.406505182369607 ], [ 127.098544859533121, 37.406444009607299 ], [ 127.098226341135373, 37.406352006843555 ], [ 127.098198654605412, 37.406340856926349 ], [ 127.098132657091327, 37.406312799272158 ], [ 127.098087564983558, 37.406292563320306 ], [ 127.098086086851893, 37.406291906775877 ], [ 127.098641, 37.406557 ], [ 127.100299374043189, 37.40694188856915 ], [ 127.100354125525044, 37.406752549565113 ] ] ] } }
]
}
