{
"type": "FeatureCollection",
"name": "map_roads",
"crs": { "type": "name", "properties": { "name": "urn:ogc:def:crs:OGC:1.3:CRS84" } },
"features": [
{ "type": "Feature", "properties": { "도로번호": null, "명칭": null, "도로구분": "미분류", "시점": null, "종점": null, "포장재질": "포장", "분리대유무": "무", "차로수": 3, "도로폭": 14.8, "일방통행": "양방통행", "자동차전용": "일반", "기타": null, "UFID": "1000037709035A00210000000000001322", "region": "pangyo", "region_name": "제1판교테크노밸리", "base_year": 2023 }, "geometry": { "type": "LineString", "coordinates": [ [ 127.109160827771532, 37.403970786336565 ], [ 127.108127182340667, 37.403966690394526 ], [ 127.106610914913233, 37.403965066879266 ] ] } },
{ "type": "Feature", "properties": { "도로번호": null, "명칭": null, "도로구분": "미분류", "시점": null, "종점": null, "포장재질": "포장", "분리대유무": "무", "차로수": 3, "도로폭": 14.8, "일방통행": "양방통행", "자동차전용": "일반", "기타": null, "UFID": "1000037709035A00210000000000001321", "region": "pangyo", "region_name": "제1판교테크노밸리", "base_year": 2023 }, "geometry": { "type": "LineString", "coordinates": [ [ 127.109253172203807, 37.403971151555751 ], [ 127.109198585537669, 37.403970940685795 ] ] } },
{ "type": "Feature", "properties": { "도로번호": null, "명칭": null, "도로구분": "미분류", "시점": null, "종점": null, "포장재질": "포장", "분리대유무": "무", "차로수": 3, "도로폭": 14.8, "일방통행": "양방통행", "자동차전용": "일반", "기타": null, "UFID": "1000037709035A00210000000000001320", "region": "pangyo", "region_name": "제1판교테크노밸리", "base_year": 2023 }, "geometry": { "type": "LineString", "coordinates": [ [ 127.109198585537669, 37.403970940685795 ], [ 127.109160827771532, 37.403970786336565 ] ] } },
{ "type": "Feature", "properties": { "도로번호": null, "명칭": null, "도로구분": "미분류", "시점": null, "종점": null, "포장재질": "포장", "분리대유무": "무", "차로수": 3, "도로폭": 14.8, "일방통행": "양방통행", "자동차전용": "일반", "기타": null, "UFID": "1000037709035A00210000000000001319", "region": "pangyo", "region_name": "제1판교테크노밸리", "base_year": 2023 }, "geometry": { "type": "LineString", "coordinates": [ [ 127.109508045341471, 37.403972015020877 ], [ 127.1094849933327, 37.403972072409395 ], [ 127.109253172203807, 37.403971151555751 ] ] } },
{ "type": "Feature", "properties": { "도로번호": "제23호", "명칭": "천안-서울선", "도로구분": "지방도", "시점": "충청남도천안시", "종점": "서울특별시마포구", "포장재질": "포장", "분리대유무": "무", "차로수": 8, "도로폭": 57.0, "일방통행": "양방통행", "자동차전용": "일반", "기타": null, "UFID": "1000037709035A00210000000000001318", "region": "pangyo", "region_name": "제1판교테크노밸리", "base_year": 2023 }, "geometry": { "type": "LineString", "coordinates": [ [ 127.106396272324417, 37.40002560129934 ], [ 127.106232349543646, 37.400415611447194 ], [ 127.106159029536798, 37.400544054758988 ], [ 127.106044798310506, 37.400789847640588 ], [ 127.105956042626701, 37.400985286551688 ], [ 127.105952777713313, 37.401000669903233 ], [ 127.105939825550834, 37.401050318746925 ], [ 127.105931316332729, 37.401079014874064 ], [ 127.105911363845067, 37.401122083523049 ], [ 127.105878336299526, 37.40119976307659 ], [ 127.105832750058909, 37.401285770283394 ], [ 127.105790703573788, 37.401359123972519 ], [ 127.105745239257075, 37.40145166343499 ], [ 127.105693266670372, 37.401566382817421 ], [ 127.105637313643555, 37.401709911364328 ], [ 127.105530997701749, 37.401924566365871 ], [ 127.105422301781431, 37.402166055782153 ], [ 127.105358125340032, 37.402317484455565 ], [ 127.10530488267959, 37.402437466743415 ], [ 127.105138318082183, 37.402819854940844 ], [ 127.105093669580185, 37.402915474895842 ] ] } },
{ "type": "Feature", "properties": { "도로번호": null, "명칭": null, "도로구분": "미분류", "시점": null, "종점": null, "포장재질": "포장", "분리대유무": "유", "차로수": 8, "도로폭": 37.2, "일방통행": "양방통행", "자동차전용": "일반", "기타": null, "UFID": "1000037709035A00210000000000001258", "region": "pangyo", "region_name": "제1판교테크노밸리", "base_year": 2023 }, "geometry": { "type": "LineString", "coordinates": [ [ 127.104578627844973, 37.403202248852487 ], [ 127.103942894385838, 37.403197961938467 ] ] } },
{ "type": "Feature", "properties": { "도로번호": null, "명칭": null, "도로구분": "미분류", "시점": null, "종점": null, "포장재질": "포장", "분리대유무": "유", "차로수": 8, "도로폭": 37.2, "일방통행": "양방통행", "자동차전용": "일반", "기타": null, "UFID": "1000037709035A00210000000000001236", "region": "pangyo", "region_name": "제1판교테크노밸리", "base_year": 2023 }, "geometry": { "type": "LineString", "coordinates": [ [ 127.103942894385838, 37.403197961938467 ], [ 127.103492661815665, 37.403194923988274 ], [ 127.102820088283991, 37.403192186001661 ], [ 127.102733430342226, 37.403186792132495 ] ] } },
{ "type": "Feature", "properties": { "도로번호": null, "명칭": null, "도로구분": "미분류", "시점": null, "종점": null, "포장재질": "포장", "분리대유무": "유", "차로수": 8, "도로폭": 37.2, "일방통행": "양방통행", "자동차전용": "일반", "기타": null, "UFID": "1000037709035A00210000000000001235", "region": "pangyo", "region_name": "제1판교테크노밸리", "base_year": 2023 }, "geometry": { "type": "LineString", "coordinates": [ [ 127.104630537365594, 37.403202599377835 ], [ 127.104578627844973, 37.403202248852487 ] ] } },
{ "type": "Feature", "properties": { "도로번호": null, "명칭": null, "도로구분": "미분류", "시점": null, "종점": null, "포장재질": "포장", "분리대유무": "무", "차로수": 3, "도로폭": 14.8, "일방통행": "양방통행", "자동차전용": "일반", "기타": null, "UFID": "1000037709035A00210000000000001132", "region": "pangyo", "region_name": "제1판교테크노밸리", "base_year": 2023 }, "geometry": { "type": "LineString", "coordinates": [ [ 127.104010623087106, 37.405352395241678 ], [ 127.10384108943876, 37.405499743923947 ] ] } },
{ "type": "Feature", "properties": { "도로번호": null, "명칭": null, "도로구분": "미분류", "시점": null, "종점": null, "포장재질": "포장", "분리대유무": "무", "차로수": 3, "도로폭": 14.9, "일방통행": "양방통행", "자동차전용": "일반", "기타": null, "UFID": "1000037709035A00210000000000001029", "region": "pangyo", "region_name": "제1판교테크노밸리", "base_year": 2023 }, "geometry": { "type": "LineString", "coordinates": [ [ 127.106475605388653, 37.403964134611414 ], [ 127.106475191071581, 37.40387886241399 ] ] } },
{ "type": "Feature", "properties": { "도로번호": null, "명칭": null, "도로구분": "미분류", "시점": null, "종점": null, "포장재질": "포장", "분리대유무": "무", "차로수": 4, "도로폭": 34.9, "일방통행": "양방통행", "자동차전용": "일반", "기타": null, "UFID": "1000037709035A00210000000000001028", "region": "pangyo", "region_name": "제1판교테크노밸리", "base_year": 2023 }, "geometry": { "type": "LineString", "coordinates": [ [ 127.102550388137175, 37.40247845150499 ], [ 127.102550457705846, 37.402380321284987 ] ] } },
{ "type": "Feature", "properties": { "도로번호": null, "명칭": null, "도로구분": "미분류", "시점": null, "종점": null, "포장재질": "포장", "분리대유무": "무", "차로수": 3, "도로폭": 14.6, "일방통행": "양방통행", "자동차전용": "일반", "기타": null, "UFID": "1000037709035A00210000000000001027", "region": "pangyo", "region_name": "제1판교테크노밸리", "base_year": 2023 }, "geometry": { "type": "LineString", "coordinates": [ [ 127.103632296223751, 37.40240894053678 ], [ 127.103114654139219, 37.402406834196206 ], [ 127.102699587279702, 37.402388616392926 ] ] } },
{ "type": "Feature", "properties": { "도로번호": null, "명칭": null, "도로구분": "미분류", "시점": null, "종점": null, "포장재질": "포장", "분리대유무": "무", "차로수": 4, "도로폭": 34.9, "일방통행": "양방통행", "자동차전용": "일반", "기타": null, "UFID": "1000037709035A00210000000000001026", "region": "pangyo", "region_name": "제1판교테크노밸리", "base_year": 2023 }, "geometry": { "type": "LineString", "coordinates": [ [ 127.102550087369238, 37.402945630953703 ], [ 127.102550388137175, 37.40247845150499 ] ] } },
{ "type": "Feature", "properties": { "도로번호": null, "명칭": null, "도로구분": "미분류", "시점": null, "종점": null, "포장재질": "포장", "분리대유무": "무", "차로수": 3, "도로폭": 14.6, "일방통행": "양방통행", "자동차전용": "일반", "기타": null, "UFID": "1000037709035A00210000000000001025", "region": "pangyo", "region_name": "제1판교테크노밸리", "base_year": 2023 }, "geometry": { "type": "LineString", "coordinates": [ [ 127.102699587279702, 37.402388616392926 ], [ 127.102550457705846, 37.402380321284987 ] ] } },
{ "type": "Feature", "properties": { "도로번호": null, "명칭": null, "도로구분": "미분류", "시점": null, "종점": null, "포장재질": "포장", "분리대유무": "무", "차로수": 1, "도로폭": 9.5, "일방통행": "양방통행", "자동차전용": "일반", "기타": null, "UFID": "1000037709035A00210000000000001017", "region": "pangyo", "region_name": "제1판교테크노밸리", "base_year": 2023 }, "geometry": { "type": "LineString", "coordinates": [ [ 127.102491015282823, 37.406443001519065 ], [ 127.102477628424055, 37.406482685034938 ], [ 127.102474525708629, 37.406485165529197 ] ] } },
{ "type": "Feature", "properties": { "도로번호": null, "명칭": null, "도로구분": "미분류", "시점": null, "종점": null, "포장재질": "포장", "분리대유무": "무", "차로수": 3, "도로폭": 14.8, "일방통행": "양방통행", "자동차전용": "일반", "기타": null, "UFID": "1000037709035A00210000000000001006", "region": "pangyo", "region_name": "제1판교테크노밸리", "base_year": 2023 }, "geometry": { "type": "LineString", "coordinates": [ [ 127.10384108943876, 37.405499743923947 ], [ 127.103725648676019, 37.405600065726873 ] ] } },
{ "type": "Feature", "properties": { "도로번호": null, "명칭": null, "도로구분": "미분류", "시점": null, "종점": null, "포장재질": "포장", "분리대유무": "무", "차로수": 1, "도로폭": 5.7, "일방통행": "양방통행", "자동차전용": "일반", "기타": null, "UFID": "1000037709035A00210000000000001005", "region": "pangyo", "region_name": "제1판교테크노밸리", "base_year": 2023 }, "geometry": { "type": "LineString", "coordinates": [ [ 127.104939445501046, 37.404713616154631 ], [ 127.104917769983032, 37.404704697269082 ], [ 127.104801694761292, 37.404680067204168 ], [ 127.104780386668679, 37.404675436824299 ], [ 127.104753333026508, 37.404673253296032 ], [ 127.104743552592296, 37.404673757521834 ], [ 127.104739047175428, 37.404674572431254 ], [ 127.10472341158966, 37.404679929331145 ], [ 127.104677798820433, 37.404708730289556 ] ] } },
{ "type": "Feature", "properties": { "도로번호": null, "명칭": null, "도로구분": "미분류", "시점": null, "종점": null, "포장재질": "포장", "분리대유무": "무", "차로수": 2, "도로폭": 10.2, "일방통행": "양방통행", "자동차전용": "일반", "기타": null, "UFID": "1000037709035A00210000000000001002", "region": "pangyo", "region_name": "제1판교테크노밸리", "base_year": 2023 }, "geometry": { "type": "LineString", "coordinates": [ [ 127.10142140736356, 37.403112347215369 ], [ 127.101672047596566, 37.403050385020215 ] ] } },
{ "type": "Feature", "properties": { "도로번호": null, "명칭": null, "도로구분": "미분류", "시점": null, "종점": null, "포장재질": "포장", "분리대유무": "무", "차로수": 1, "도로폭": 9.9, "일방통행": "일방통행", "자동차전용": "일반", "기타": null, "UFID": "1000037709035A00210000000000000963", "region": "pangyo", "region_name": "제1판교테크노밸리", "base_year": 2023 }, "geometry": { "type": "LineString", "coordinates": [ [ 127.111646100835955, 37.40433317174012 ], [ 127.111659360914615, 37.404302902956971 ], [ 127.111663748447938, 37.404298826201725 ] ] } },
{ "type": "Feature", "properties": { "도로번호": null, "명칭": null, "도로구분": "미분류", "시점": null, "종점": null, "포장재질": "포장", "분리대유무": "무", "차로수": 3, "도로폭": 14.8, "일방통행": "양방통행", "자동차전용": "일반", "기타": null, "UFID": "1000037709035A00210000000000000953", "region": "pangyo", "region_name": "제1판교테크노밸리", "base_year": 2023 }, "geometry": { "type": "LineString", "coordinates": [ [ 127.106610914913233, 37.403965066879266 ], [ 127.106475605388653, 37.403964134611414 ] ] } },
{ "type": "Feature", "properties": { "도로번호": null, "명칭": null, "도로구분": "미분류", "시점": null, "종점": null, "포장재질": "포장", "분리대유무": "무", "차로수": 6, "도로폭": 37.9, "일방통행": "양방통행", "자동차전용": "일반", "기타": null, "UFID": "1000037709035A00210000000000000949", "region": "pangyo", "region_name": "제1판교테크노밸리", "base_year": 2023 }, "geometry": { "type": "LineString", "coordinates": [ [ 127.109680639956821, 37.402501948256671 ], [ 127.109680370342176, 37.402425451858178 ] ] } },
{ "type": "Feature", "properties": { "도로번호": null, "명칭": null, "도로구분": "미분류", "시점": null, "종점": null, "포장재질": "포장", "분리대유무": "유", "차로수": 6, "도로폭": 37.5, "일방통행": "양방통행", "자동차전용": "일반", "기타": null, "UFID": "1000037709035A00210000000000000948", "region": "pangyo", "region_name": "제1판교테크노밸리", "base_year": 2023 }, "geometry": { "type": "LineString", "coordinates": [ [ 127.106622470156267, 37.403208496619776 ], [ 127.106471983786065, 37.403208596184754 ] ] } },
{ "type": "Feature", "properties": { "도로번호": null, "명칭": null, "도로구분": "미분류", "시점": null, "종점": null, "포장재질": "포장", "분리대유무": "무", "차로수": 6, "도로폭": 31.8, "일방통행": "양방통행", "자동차전용": "일반", "기타": null, "UFID": "1000037709035A00210000000000000947", "region": "pangyo", "region_name": "제1판교테크노밸리", "base_year": 2023 }, "geometry": { "type": "LineString", "coordinates": [ [ 127.109677323034134, 37.401063039295913 ], [ 127.109677054317842, 37.400940653887275 ] ] } },
{ "type": "Feature", "properties": { "도로번호": null, "명칭": null, "도로구분": "미분류", "시점": null, "종점": null, "포장재질": "포장", "분리대유무": "무", "차로수": 3, "도로폭": 14.6, "일방통행": "양방통행", "자동차전용": "일반", "기타": null, "UFID": "1000037709035A00210000000000000946", "region": "pangyo", "region_name": "제1판교테크노밸리", "base_year": 2023 }, "geometry": { "type": "LineString", "coordinates": [ [ 127.111759721612913, 37.401076622985272 ], [ 127.111760040614257, 37.400949200322103 ] ] } },
{ "type": "Feature", "properties": { "도로번호": null, "명칭": null, "도로구분": "미분류", "시점": null, "종점": null, "포장재질": "포장", "분리대유무": "무", "차로수": 3, "도로폭": 14.9, "일방통행": "양방통행", "자동차전용": "일반", "기타": null, "UFID": "1000037709035A00210000000000000945", "region": "pangyo", "region_name": "제1판교테크노밸리", "base_year": 2023 }, "geometry": { "type": "LineString", "coordinates": [ [ 127.109408580204018, 37.402430010539106 ], [ 127.109430117706694, 37.402429540097977 ], [ 127.109680370342176, 37.402425451858178 ] ] } },
{ "type": "Feature", "properties": { "도로번호": null, "명칭": null, "도로구분": "미분류", "시점": null, "종점": null, "포장재질": "포장", "분리대유무": "무", "차로수": 3, "도로폭": 14.8, "일방통행": "양방통행", "자동차전용": "일반", "기타": null, "UFID": "1000037709035A00210000000000000944", "region": "pangyo", "region_name": "제1판교테크노밸리", "base_year": 2023 }, "geometry": { "type": "LineString", "coordinates": [ [ 127.105167139887726, 37.404677598292913 ], [ 127.105085557845669, 37.404725379852835 ], [ 127.105029537957378, 37.404750685226794 ] ] } },
{ "type": "Feature", "properties": { "도로번호": null, "명칭": null, "도로구분": "미분류", "시점": null, "종점": null, "포장재질": "포장", "분리대유무": "유", "차로수": 8, "도로폭": 37.2, "일방통행": "양방통행", "자동차전용": "일반", "기타": null, "UFID": "1000037709035A00210000000000000934", "region": "pangyo", "region_name": "제1판교테크노밸리", "base_year": 2023 }, "geometry": { "type": "LineString", "coordinates": [ [ 127.101966247544098, 37.403103472093655 ], [ 127.101672047596566, 37.403050385020215 ] ] } },
{ "type": "Feature", "properties": { "도로번호": null, "명칭": null, "도로구분": "미분류", "시점": null, "종점": null, "포장재질": "포장", "분리대유무": "무", "차로수": 4, "도로폭": 34.9, "일방통행": "양방통행", "자동차전용": "일반", "기타": null, "UFID": "1000037709035A00210000000000000933", "region": "pangyo", "region_name": "제1판교테크노밸리", "base_year": 2023 }, "geometry": { "type": "LineString", "coordinates": [ [ 127.102531737261032, 37.40100828111386 ], [ 127.102530955136103, 37.40099791104182 ], [ 127.102519197922177, 37.400923226605251 ] ] } },
{ "type": "Feature", "properties": { "도로번호": null, "명칭": null, "도로구분": "미분류", "시점": null, "종점": null, "포장재질": "포장", "분리대유무": "무", "차로수": 6, "도로폭": 31.2, "일방통행": "양방통행", "자동차전용": "일반", "기타": null, "UFID": "1000037709035A00210000000000000932", "region": "pangyo", "region_name": "제1판교테크노밸리", "base_year": 2023 }, "geometry": { "type": "LineString", "coordinates": [ [ 127.109677552808421, 37.400817727151974 ], [ 127.109678292511319, 37.400635576088526 ], [ 127.109678103030618, 37.400474563831693 ] ] } },
{ "type": "Feature", "properties": { "도로번호": null, "명칭": null, "도로구분": "미분류", "시점": null, "종점": null, "포장재질": "포장", "분리대유무": "무", "차로수": 2, "도로폭": 15.7, "일방통행": "양방통행", "자동차전용": "일반", "기타": null, "UFID": "1000037709035A00210000000000000931", "region": "pangyo", "region_name": "제1판교테크노밸리", "base_year": 2023 }, "geometry": { "type": "LineString", "coordinates": [ [ 127.102356461337024, 37.400922790937621 ], [ 127.102174118204573, 37.400922299908231 ], [ 127.102131720445342, 37.400922381588117 ], [ 127.101931421916902, 37.400923473468488 ] ] } },
{ "type": "Feature", "properties": { "도로번호": null, "명칭": null, "도로구분": "미분류", "시점": null, "종점": null, "포장재질": "포장", "분리대유무": "유", "차로수": 6, "도로폭": 35.7, "일방통행": "양방통행", "자동차전용": "일반", "기타": null, "UFID": "1000037709035A00210000000000000927", "region": "pangyo", "region_name": "제1판교테크노밸리", "base_year": 2023 }, "geometry": { "type": "LineString", "coordinates": [ [ 127.112911439382472, 37.403233643228141 ], [ 127.112901061278293, 37.403233456050138 ] ] } },
{ "type": "Feature", "properties": { "도로번호": null, "명칭": null, "도로구분": "미분류", "시점": null, "종점": null, "포장재질": "포장", "분리대유무": "무", "차로수": 4, "도로폭": 19.5, "일방통행": "양방통행", "자동차전용": "일반", "기타": null, "UFID": "1000037709035A00210000000000000918", "region": "pangyo", "region_name": "제1판교테크노밸리", "base_year": 2023 }, "geometry": { "type": "LineString", "coordinates": [ [ 127.102104904589225, 37.404115982324392 ], [ 127.102118894066265, 37.404104383120519 ], [ 127.102162198860526, 37.404063943956444 ], [ 127.102219330272746, 37.403991848986607 ] ] } },
{ "type": "Feature", "properties": { "도로번호": null, "명칭": null, "도로구분": "미분류", "시점": null, "종점": null, "포장재질": "포장", "분리대유무": "무", "차로수": 4, "도로폭": 19.5, "일방통행": "양방통행", "자동차전용": "일반", "기타": null, "UFID": "1000037709035A00210000000000000917", "region": "pangyo", "region_name": "제1판교테크노밸리", "base_year": 2023 }, "geometry": { "type": "LineString", "coordinates": [ [ 127.102522140096468, 37.403373009233796 ], [ 127.102523742639193, 37.403347211626922 ], [ 127.102549937378171, 37.403175364295933 ] ] } },
{ "type": "Feature", "properties": { "도로번호": null, "명칭": null, "도로구분": "미분류", "시점": null, "종점": null, "포장재질": "포장", "분리대유무": "무", "차로수": 1, "도로폭": 9.9, "일방통행": "일방통행", "자동차전용": "일반", "기타": null, "UFID": "1000037709035A00210000000000000895", "region": "pangyo", "region_name": "제1판교테크노밸리", "base_year": 2023 }, "geometry": { "type": "LineString", "coordinates": [ [ 127.111639480623623, 37.404385383106714 ], [ 127.111637449433971, 37.404379005800905 ], [ 127.111641395610121, 37.404343889314234 ], [ 127.111646100835955, 37.40433317174012 ] ] } },
{ "type": "Feature", "properties": { "도로번호": null, "명칭": null, "도로구분": "미분류", "시점": null, "종점": null, "포장재질": "포장", "분리대유무": "무", "차로수": 2, "도로폭": 21.3, "일방통행": "양방통행", "자동차전용": "일반", "기타": null, "UFID": "1000037709035A00210000000000000894", "region": "pangyo", "region_name": "제1판교테크노밸리", "base_year": 2023 }, "geometry": { "type": "LineString", "coordinates": [ [ 127.101931421916902, 37.400923473468488 ], [ 127.101374821259597, 37.400926519891343 ] ] } },
{ "type": "Feature", "properties": { "도로번호": null, "명칭": null, "도로구분": "미분류", "시점": null, "종점": null, "포장재질": "포장", "분리대유무": "유", "차로수": 8, "도로폭": 37.2, "일방통행": "양방통행", "자동차전용": "일반", "기타": null, "UFID": "1000037709035A00210000000000000889", "region": "pangyo", "region_name": "제1판교테크노밸리", "base_year": 2023 }, "geometry": { "type": "LineString", "coordinates": [ [ 127.102733430342226, 37.403186792132495 ], [ 127.102549937378171, 37.403175364295933 ] ] } },
{ "type": "Feature", "properties": { "도로번호": null, "명칭": null, "도로구분": "미분류", "시점": null, "종점": null, "포장재질": "포장", "분리대유무": "유", "차로수": 6, "도로폭": 31.1, "일방통행": "양방통행", "자동차전용": "일반", "기타": null, "UFID": "1000037709035A00210000000000000887", "region": "pangyo", "region_name": "제1판교테크노밸리", "base_year": 2023 }, "geometry": { "type": "LineString", "coordinates": [ [ 127.109930879571522, 37.403207800608456 ], [ 127.109683183392917, 37.403208607293628 ] ] } },
{ "type": "Feature", "properties": { "도로번호": "제23호", "명칭": "천안-서울선", "도로구분": "지방도", "시점": "충청남도천안시", "종점": "서울특별시마포구", "포장재질": "포장", "분리대유무": "무", "차로수": 2, "도로폭": 13.0, "일방통행": "일방통행", "자동차전용": "일반", "기타": null, "UFID": "1000037709035A00210000000000000864", "region": "pangyo", "region_name": "제1판교테크노밸리", "base_year": 2023 }, "geometry": { "type": "LineString", "coordinates": [ [ 127.102424104243497, 37.405455496399085 ], [ 127.102330906128074, 37.405667542093731 ] ] } },
{ "type": "Feature", "properties": { "도로번호": null, "명칭": null, "도로구분": "미분류", "시점": null, "종점": null, "포장재질": "포장", "분리대유무": "무", "차로수": 3, "도로폭": 13.5, "일방통행": "양방통행", "자동차전용": "일반", "기타": null, "UFID": "1000037709035A00210000000000000841", "region": "pangyo", "region_name": "제1판교테크노밸리", "base_year": 2023 }, "geometry": { "type": "LineString", "coordinates": [ [ 127.102219330272746, 37.403991848986607 ], [ 127.102111975751953, 37.403958423788268 ] ] } },
{ "type": "Feature", "properties": { "도로번호": null, "명칭": null, "도로구분": "미분류", "시점": null, "종점": null, "포장재질": "포장", "분리대유무": "무", "차로수": 3, "도로폭": 14.9, "일방통행": "양방통행", "자동차전용": "일반", "기타": null, "UFID": "1000037709035A00210000000000000818", "region": "pangyo", "region_name": "제1판교테크노밸리", "base_year": 2023 }, "geometry": { "type": "LineString", "coordinates": [ [ 127.11168045091992, 37.400948870062855 ], [ 127.109874690143087, 37.400941461524454 ] ] } },
{ "type": "Feature", "properties": { "도로번호": null, "명칭": null, "도로구분": "미분류", "시점": null, "종점": null, "포장재질": "포장", "분리대유무": "무", "차로수": 3, "도로폭": 14.9, "일방통행": "양방통행", "자동차전용": "일반", "기타": null, "UFID": "1000037709035A00210000000000000817", "region": "pangyo", "region_name": "제1판교테크노밸리", "base_year": 2023 }, "geometry": { "type": "LineString", "coordinates": [ [ 127.111760040614257, 37.400949200322103 ], [ 127.11168045091992, 37.400948870062855 ] ] } },
{ "type": "Feature", "properties": { "도로번호": null, "명칭": null, "도로구분": "미분류", "시점": null, "종점": null, "포장재질": "포장", "분리대유무": "무", "차로수": 4, "도로폭": 19.6, "일방통행": "양방통행", "자동차전용": "일반", "기타": null, "UFID": "1000037709035A00210000000000000816", "region": "pangyo", "region_name": "제1판교테크노밸리", "base_year": 2023 }, "geometry": { "type": "LineString", "coordinates": [ [ 127.10968671663079, 37.403904651307641 ], [ 127.109684089904334, 37.403388855597427 ] ] } },
{ "type": "Feature", "properties": { "도로번호": null, "명칭": null, "도로구분": "미분류", "시점": null, "종점": null, "포장재질": "포장", "분리대유무": "무", "차로수": 4, "도로폭": 19.6, "일방통행": "양방통행", "자동차전용": "일반", "기타": null, "UFID": "1000037709035A00210000000000000815", "region": "pangyo", "region_name": "제1판교테크노밸리", "base_year": 2023 }, "geometry": { "type": "LineString", "coordinates": [ [ 127.109687062642337, 37.403971560759388 ], [ 127.10968671663079, 37.403904651307641 ] ] } },
{ "type": "Feature", "properties": { "도로번호": null, "명칭": null, "도로구분": "미분류", "시점": null, "종점": null, "포장재질": "포장", "분리대유무": "무", "차로수": 3, "도로폭": 14.9, "일방통행": "양방통행", "자동차전용": "일반", "기타": null, "UFID": "1000037709035A00210000000000000814", "region": "pangyo", "region_name": "제1판교테크노밸리", "base_year": 2023 }, "geometry": { "type": "LineString", "coordinates": [ [ 127.106475191071581, 37.40387886241399 ], [ 127.106472721497454, 37.403362787157867 ] ] } },
{ "type": "Feature", "properties": { "도로번호": null, "명칭": null, "도로구분": "미분류", "시점": null, "종점": null, "포장재질": "포장", "분리대유무": "무", "차로수": 3, "도로폭": 15.4, "일방통행": "양방통행", "자동차전용": "일반", "기타": null, "UFID": "1000037709035A00210000000000000813", "region": "pangyo", "region_name": "제1판교테크노밸리", "base_year": 2023 }, "geometry": { "type": "LineString", "coordinates": [ [ 127.111557753788617, 37.404309657407246 ], [ 127.110775886463045, 37.404101517985325 ], [ 127.110553428585277, 37.404047124361448 ], [ 127.110368511027701, 37.40401381519969 ], [ 127.110156719832517, 37.403985378277888 ], [ 127.10998477877375, 37.403974419750597 ], [ 127.109866294562025, 37.40397112404785 ] ] } },
{ "type": "Feature", "properties": { "도로번호": null, "명칭": null, "도로구분": "미분류", "시점": null, "종점": null, "포장재질": "포장", "분리대유무": "무", "차로수": 3, "도로폭": 15.4, "일방통행": "양방통행", "자동차전용": "일반", "기타": null, "UFID": "1000037709035A00210000000000000812", "region": "pangyo", "region_name": "제1판교테크노밸리", "base_year": 2023 }, "geometry": { "type": "LineString", "coordinates": [ [ 127.111646100835955, 37.40433317174012 ], [ 127.111557753788617, 37.404309657407246 ] ] } },
{ "type": "Feature", "properties": { "도로번호": null, "명칭": null, "도로구분": "미분류", "시점": null, "종점": null, "포장재질": "포장", "분리대유무": "무", "차로수": 3, "도로폭": 14.6, "일방통행": "양방통행", "자동차전용": "일반", "기타": null, "UFID": "1000037709035A00210000000000000802", "region": "pangyo", "region_name": "제1판교테크노밸리", "base_year": 2023 }, "geometry": { "type": "LineString", "coordinates": [ [ 127.103675248596417, 37.402409119128016 ], [ 127.103632296223751, 37.40240894053678 ] ] } },
{ "type": "Feature", "properties": { "도로번호": null, "명칭": null, "도로구분": "미분류", "시점": null, "종점": null, "포장재질": "포장", "분리대유무": "무", "차로수": 1, "도로폭": 9.9, "일방통행": "일방통행", "자동차전용": "일반", "기타": null, "UFID": "1000037709035A00210000000000000801", "region": "pangyo", "region_name": "제1판교테크노밸리", "base_year": 2023 }, "geometry": { "type": "LineString", "coordinates": [ [ 127.111663748447938, 37.404298826201725 ], [ 127.11167215132825, 37.404291033450356 ], [ 127.111726398129946, 37.404275178307337 ], [ 127.111760957824131, 37.404274073431658 ], [ 127.111794568686079, 37.404280510982971 ], [ 127.11181986209229, 37.404291407431238 ], [ 127.111843963596414, 37.404313477653226 ], [ 127.111859262252565, 37.404340187442806 ], [ 127.111861789644948, 37.404376433097958 ], [ 127.11186080730748, 37.404391823453793 ], [ 127.111858792252349, 37.404396312441158 ] ] } },
{ "type": "Feature", "properties": { "도로번호": null, "명칭": null, "도로구분": "미분류", "시점": null, "종점": null, "포장재질": "포장", "분리대유무": "무", "차로수": 1, "도로폭": 9.5, "일방통행": "양방통행", "자동차전용": "일반", "기타": null, "UFID": "1000037709035A00210000000000000730", "region": "pangyo", "region_name": "제1판교테크노밸리", "base_year": 2023 }, "geometry": { "type": "LineString", "coordinates": [ [ 127.102477800714567, 37.406385275608521 ], [ 127.102485769783527, 37.406398108236999 ], [ 127.102492880684949, 37.406427700581688 ], [ 127.102491015282823, 37.406443001519065 ] ] } },
{ "type": "Feature", "properties": { "도로번호": null, "명칭": null, "도로구분": "미분류", "시점": null, "종점": null, "포장재질": "포장", "분리대유무": "무", "차로수": 3, "도로폭": 14.8, "일방통행": "양방통행", "자동차전용": "일반", "기타": null, "UFID": "1000037709035A00210000000000000728", "region": "pangyo", "region_name": "제1판교테크노밸리", "base_year": 2023 }, "geometry": { "type": "LineString", "coordinates": [ [ 127.102543109665177, 37.406444758390293 ], [ 127.102510636627287, 37.406444570304195 ], [ 127.102491015282823, 37.406443001519065 ] ] } },
{ "type": "Feature", "properties": { "도로번호": null, "명칭": null, "도로구분": "미분류", "시점": null, "종점": null, "포장재질": "포장", "분리대유무": "무", "차로수": 2, "도로폭": 13.7, "일방통행": "양방통행", "자동차전용": "일반", "기타": null, "UFID": "1000037709035A00210000000000000727", "region": "pangyo", "region_name": "제1판교테크노밸리", "base_year": 2023 }, "geometry": { "type": "LineString", "coordinates": [ [ 127.101511944445491, 37.402887275672974 ], [ 127.101672047596566, 37.403050385020215 ] ] } },
{ "type": "Feature", "properties": { "도로번호": null, "명칭": null, "도로구분": "미분류", "시점": null, "종점": null, "포장재질": "포장", "분리대유무": "무", "차로수": 1, "도로폭": 12.0, "일방통행": "양방통행", "자동차전용": "일반", "기타": null, "UFID": "1000037709035A00210000000000000726", "region": "pangyo", "region_name": "제1판교테크노밸리", "base_year": 2023 }, "geometry": { "type": "LineString", "coordinates": [ [ 127.111784167552571, 37.404471356913632 ], [ 127.111811248230936, 37.404544854561692 ], [ 127.111822452873497, 37.404613528739588 ], [ 127.111812209896101, 37.404682763811827 ] ] } },
{ "type": "Feature", "properties": { "도로번호": "제23호", "명칭": "천안-서울선", "도로구분": "지방도", "시점": "충청남도천안시", "종점": "서울특별시마포구", "포장재질": "포장", "분리대유무": "유", "차로수": 8, "도로폭": 41.9, "일방통행": "양방통행", "자동차전용": "일반", "기타": null, "UFID": "1000037709035A00210000000000000720", "region": "pangyo", "region_name": "제1판교테크노밸리", "base_year": 2023 }, "geometry": { "type": "LineString", "coordinates": [ [ 127.102154873996142, 37.405756670055098 ], [ 127.101794073979221, 37.405940600126179 ], [ 127.101332849767829, 37.406225114983016 ], [ 127.101261369637527, 37.406279156335884 ], [ 127.101096152580638, 37.406416703278815 ], [ 127.100964498636529, 37.40655073438478 ], [ 127.100835574683259, 37.406699449639461 ], [ 127.100707265422329, 37.406860544241283 ], [ 127.100636990395998, 37.406963455508865 ], [ 127.100606528238956, 37.407013178357168 ] ] } },
{ "type": "Feature", "properties": { "도로번호": null, "명칭": null, "도로구분": "미분류", "시점": null, "종점": null, "포장재질": "포장", "분리대유무": "무", "차로수": 1, "도로폭": 12.0, "일방통행": "양방통행", "자동차전용": "일반", "기타": null, "UFID": "1000037709035A00210000000000000701", "region": "pangyo", "region_name": "제1판교테크노밸리", "base_year": 2023 }, "geometry": { "type": "LineString", "coordinates": [ [ 127.111778724209231, 37.404456585327246 ], [ 127.111784167552571, 37.404471356913632 ] ] } },
{ "type": "Feature", "properties": { "도로번호": null, "명칭": null, "도로구분": "미분류", "시점": null, "종점": null, "포장재질": "포장", "분리대유무": "무", "차로수": 1, "도로폭": 9.5, "일방통행": "양방통행", "자동차전용": "일반", "기타": null, "UFID": "1000037709035A00210000000000000700", "region": "pangyo", "region_name": "제1판교테크노밸리", "base_year": 2023 }, "geometry": { "type": "LineString", "coordinates": [ [ 127.102474525708629, 37.406485165529197 ], [ 127.102461731224167, 37.406495385174495 ], [ 127.102440231661902, 37.406508018084345 ], [ 127.102407149237408, 37.406516543361526 ], [ 127.102364878564487, 37.406521031004793 ], [ 127.102315965880919, 37.406508459061413 ], [ 127.102282716648816, 37.406477375607331 ], [ 127.102271762707346, 37.406437370782697 ], [ 127.102277607884588, 37.406400036465946 ], [ 127.102294593408573, 37.406373666935124 ], [ 127.102313936311958, 37.40635322407384 ], [ 127.102361662496818, 37.406340568484019 ], [ 127.102402980547893, 37.406341622940261 ], [ 127.102418109505578, 37.406345394120471 ], [ 127.102456997582124, 37.406361876126077 ], [ 127.102471982395414, 37.406375910042712 ], [ 127.102477800714567, 37.406385275608521 ] ] } },
{ "type": "Feature", "properties": { "도로번호": null, "명칭": null, "도로구분": "미분류", "시점": null, "종점": null, "포장재질": "포장", "분리대유무": "무", "차로수": 3, "도로폭": 14.8, "일방통행": "양방통행", "자동차전용": "일반", "기타": null, "UFID": "1000037709035A00210000000000000699", "region": "pangyo", "region_name": "제1판교테크노밸리", "base_year": 2023 }, "geometry": { "type": "LineString", "coordinates": [ [ 127.103639741344367, 37.405682476281847 ], [ 127.103548641371418, 37.405775379195497 ], [ 127.103162339897551, 37.406222118280098 ], [ 127.103128393089349, 37.406250854393718 ], [ 127.102985425330218, 37.406335179332494 ], [ 127.102891025846063, 37.406378663654507 ], [ 127.102834870323534, 37.40639707529747 ], [ 127.102764664862605, 37.406416156870698 ], [ 127.102666245774884, 37.406435983720087 ], [ 127.102627261489744, 37.406440117205669 ], [ 127.102552043991111, 37.406444813712817 ], [ 127.102543109665177, 37.406444758390293 ] ] } },
{ "type": "Feature", "properties": { "도로번호": null, "명칭": null, "도로구분": "미분류", "시점": null, "종점": null, "포장재질": "포장", "분리대유무": "무", "차로수": 3, "도로폭": 14.8, "일방통행": "양방통행", "자동차전용": "일반", "기타": null, "UFID": "1000037709035A00210000000000000698", "region": "pangyo", "region_name": "제1판교테크노밸리", "base_year": 2023 }, "geometry": { "type": "LineString", "coordinates": [ [ 127.103725648676019, 37.405600065726873 ], [ 127.103691274715217, 37.405629928654768 ], [ 127.103639741344367, 37.405682476281847 ] ] } },
{ "type": "Feature", "properties": { "도로번호": null, "명칭": null, "도로구분": "미분류", "시점": null, "종점": null, "포장재질": "포장", "분리대유무": "무", "차로수": 1, "도로폭": 9.6, "일방통행": "양방통행", "자동차전용": "일반", "기타": null, "UFID": "1000037709035A00210000000000000691", "region": "pangyo", "region_name": "제1판교테크노밸리", "base_year": 2023 }, "geometry": { "type": "LineString", "coordinates": [ [ 127.103691744672062, 37.402356412974875 ], [ 127.103706154563866, 37.402338866475048 ], [ 127.103742844435018, 37.402318714497973 ], [ 127.103801343537896, 37.402306778694317 ], [ 127.103842664249726, 37.402319536905651 ], [ 127.103878263927001, 37.402344202611701 ], [ 127.103908152581454, 37.402379838747201 ], [ 127.103912174972464, 37.402397378084409 ], [ 127.103907931996062, 37.402424574616333 ], [ 127.103892198207035, 37.402456673787121 ], [ 127.103862390312869, 37.402479567878089 ], [ 127.103822261888993, 37.402496064767298 ], [ 127.103771779006195, 37.402497938155655 ], [ 127.103725858905847, 37.402483345872774 ], [ 127.103702744966682, 37.402462723764316 ] ] } },
{ "type": "Feature", "properties": { "도로번호": null, "명칭": null, "도로구분": "미분류", "시점": null, "종점": null, "포장재질": "포장", "분리대유무": "무", "차로수": 1, "도로폭": 9.6, "일방통행": "양방통행", "자동차전용": "일반", "기타": null, "UFID": "1000037709035A00210000000000000690", "region": "pangyo", "region_name": "제1판교테크노밸리", "base_year": 2023 }, "geometry": { "type": "LineString", "coordinates": [ [ 127.103675248596417, 37.402409119128016 ], [ 127.103682104248975, 37.402368152717713 ], [ 127.103691744672062, 37.402356412974875 ] ] } },
{ "type": "Feature", "properties": { "도로번호": null, "명칭": null, "도로구분": "미분류", "시점": null, "종점": null, "포장재질": "포장", "분리대유무": "무", "차로수": 3, "도로폭": 15.4, "일방통행": "양방통행", "자동차전용": "일반", "기타": null, "UFID": "1000037709035A00210000000000000675", "region": "pangyo", "region_name": "제1판교테크노밸리", "base_year": 2023 }, "geometry": { "type": "LineString", "coordinates": [ [ 127.10367308462655, 37.405543942230949 ], [ 127.103504477543794, 37.405363939973931 ] ] } },
{ "type": "Feature", "properties": { "도로번호": null, "명칭": null, "도로구분": "미분류", "시점": null, "종점": null, "포장재질": "포장", "분리대유무": "무", "차로수": 3, "도로폭": 15.4, "일방통행": "양방통행", "자동차전용": "일반", "기타": null, "UFID": "1000037709035A00210000000000000674", "region": "pangyo", "region_name": "제1판교테크노밸리", "base_year": 2023 }, "geometry": { "type": "LineString", "coordinates": [ [ 127.103725648676019, 37.405600065726873 ], [ 127.10367308462655, 37.405543942230949 ] ] } },
{ "type": "Feature", "properties": { "도로번호": null, "명칭": null, "도로구분": "미분류", "시점": null, "종점": null, "포장재질": "포장", "분리대유무": "무", "차로수": 2, "도로폭": 15.0, "일방통행": "양방통행", "자동차전용": "일반", "기타": null, "UFID": "1000037709035A00210000000000000650", "region": "pangyo", "region_name": "제1판교테크노밸리", "base_year": 2023 }, "geometry": { "type": "LineString", "coordinates": [ [ 127.101374821259597, 37.400926519891343 ], [ 127.101290039977741, 37.400920483626763 ], [ 127.100877842985327, 37.400921980307601 ] ] } },
{ "type": "Feature", "properties": { "도로번호": null, "명칭": null, "도로구분": "미분류", "시점": null, "종점": null, "포장재질": "포장", "분리대유무": "유", "차로수": 6, "도로폭": 31.1, "일방통행": "양방통행", "자동차전용": "일반", "기타": null, "UFID": "1000037709035A00210000000000000628", "region": "pangyo", "region_name": "제1판교테크노밸리", "base_year": 2023 }, "geometry": { "type": "LineString", "coordinates": [ [ 127.112463440313803, 37.40322794438994 ], [ 127.111550061879981, 37.40321994358343 ], [ 127.11088502570513, 37.403220235749451 ], [ 127.110484596487879, 37.403206410512666 ], [ 127.110422781959215, 37.403206197950908 ], [ 127.109930879571522, 37.403207800608456 ] ] } },
{ "type": "Feature", "properties": { "도로번호": null, "명칭": null, "도로구분": "미분류", "시점": null, "종점": null, "포장재질": "포장", "분리대유무": "유", "차로수": 6, "도로폭": 31.1, "일방통행": "양방통행", "자동차전용": "일반", "기타": null, "UFID": "1000037709035A00210000000000000627", "region": "pangyo", "region_name": "제1판교테크노밸리", "base_year": 2023 }, "geometry": { "type": "LineString", "coordinates": [ [ 127.112901061278293, 37.403233456050138 ], [ 127.112719770006919, 37.403230187119767 ], [ 127.112463440313803, 37.40322794438994 ] ] } },
{ "type": "Feature", "properties": { "도로번호": null, "명칭": null, "도로구분": "미분류", "시점": null, "종점": null, "포장재질": "포장", "분리대유무": "무", "차로수": 1, "도로폭": 9.9, "일방통행": "일방통행", "자동차전용": "일반", "기타": null, "UFID": "1000037709035A00210000000000000621", "region": "pangyo", "region_name": "제1판교테크노밸리", "base_year": 2023 }, "geometry": { "type": "LineString", "coordinates": [ [ 127.111708443685032, 37.404452786370697 ], [ 127.111684737016049, 37.404445618624067 ], [ 127.111678067861007, 37.404442011832089 ], [ 127.111650521012862, 37.404411988821131 ], [ 127.111646334472752, 37.404406902009754 ], [ 127.111639480623623, 37.404385383106714 ] ] } },
{ "type": "Feature", "properties": { "도로번호": null, "명칭": null, "도로구분": "미분류", "시점": null, "종점": null, "포장재질": "포장", "분리대유무": "무", "차로수": 1, "도로폭": 9.9, "일방통행": "일방통행", "자동차전용": "일반", "기타": null, "UFID": "1000037709035A00210000000000000620", "region": "pangyo", "region_name": "제1판교테크노밸리", "base_year": 2023 }, "geometry": { "type": "LineString", "coordinates": [ [ 127.111778724209231, 37.404456585327246 ], [ 127.11174514624247, 37.40445713965795 ], [ 127.111712782750956, 37.404454097760762 ], [ 127.111708443685032, 37.404452786370697 ] ] } },
{ "type": "Feature", "properties": { "도로번호": null, "명칭": null, "도로구분": "미분류", "시점": null, "종점": null, "포장재질": "포장", "분리대유무": "무", "차로수": 1, "도로폭": 5.7, "일방통행": "양방통행", "자동차전용": "일반", "기타": null, "UFID": "1000037709035A00210000000000000614", "region": "pangyo", "region_name": "제1판교테크노밸리", "base_year": 2023 }, "geometry": { "type": "LineString", "coordinates": [ [ 127.105029537957378, 37.404750685226794 ], [ 127.104939445501046, 37.404713616154631 ] ] } },
{ "type": "Feature", "properties": { "도로번호": null, "명칭": null, "도로구분": "미분류", "시점": null, "종점": null, "포장재질": "포장", "분리대유무": "무", "차로수": 3, "도로폭": 14.8, "일방통행": "양방통행", "자동차전용": "일반", "기타": null, "UFID": "1000037709035A00210000000000000613", "region": "pangyo", "region_name": "제1판교테크노밸리", "base_year": 2023 }, "geometry": { "type": "LineString", "coordinates": [ [ 127.10498988492796, 37.404768596686083 ], [ 127.104942838554749, 37.404789848469335 ], [ 127.104688877567369, 37.40488641068994 ], [ 127.104621397604006, 37.404914771464824 ], [ 127.104460484019924, 37.404997068765574 ], [ 127.10435334782558, 37.405065812102535 ], [ 127.10407642607386, 37.405295212656867 ], [ 127.104010623087106, 37.405352395241678 ] ] } },
{ "type": "Feature", "properties": { "도로번호": null, "명칭": null, "도로구분": "미분류", "시점": null, "종점": null, "포장재질": "포장", "분리대유무": "무", "차로수": 3, "도로폭": 14.8, "일방통행": "양방통행", "자동차전용": "일반", "기타": null, "UFID": "1000037709035A00210000000000000612", "region": "pangyo", "region_name": "제1판교테크노밸리", "base_year": 2023 }, "geometry": { "type": "LineString", "coordinates": [ [ 127.105029537957378, 37.404750685226794 ], [ 127.10498988492796, 37.404768596686083 ] ] } },
{ "type": "Feature", "properties": { "도로번호": "제23호", "명칭": "천안-서울선", "도로구분": "지방도", "시점": "충청남도천안시", "종점": "서울특별시마포구", "포장재질": "포장", "분리대유무": "유", "차로수": 8, "도로폭": 41.9, "일방통행": "양방통행", "자동차전용": "일반", "기타": null, "UFID": "1000037709035A00210000000000000610", "region": "pangyo", "region_name": "제1판교테크노밸리", "base_year": 2023 }, "geometry": { "type": "LineString", "coordinates": [ [ 127.102330906128074, 37.405667542093731 ], [ 127.102275452543893, 37.405695197332285 ], [ 127.102154873996142, 37.405756670055098 ] ] } },
{ "type": "Feature", "properties": { "도로번호": "제23호", "명칭": "천안-서울선", "도로구분": "지방도", "시점": "충청남도천안시", "종점": "서울특별시마포구", "포장재질": "포장", "분리대유무": "무", "차로수": 1, "도로폭": 13.2, "일방통행": "일방통행", "자동차전용": "일반", "기타": null, "UFID": "1000037709035A00210000000000000609", "region": "pangyo", "region_name": "제1판교테크노밸리", "base_year": 2023 }, "geometry": { "type": "LineString", "coordinates": [ [ 127.1035773794531, 37.405220460746058 ], [ 127.103674160827964, 37.405152790397217 ], [ 127.10381020209482, 37.405052207276761 ], [ 127.103917182351296, 37.40494381066695 ], [ 127.10410102770193, 37.404782159081115 ], [ 127.104189944520328, 37.404696393731975 ], [ 127.10437321268391, 37.404510333584966 ], [ 127.104481972528959, 37.404383238712157 ], [ 127.104614576712351, 37.404225019419243 ], [ 127.104671431047421, 37.404174566022519 ], [ 127.104694152609369, 37.404139901672366 ], [ 127.104671562716405, 37.404082472612842 ] ] } },
{ "type": "Feature", "properties": { "도로번호": "제23호", "명칭": "천안-서울선", "도로구분": "지방도", "시점": "충청남도천안시", "종점": "서울특별시마포구", "포장재질": "포장", "분리대유무": "무", "차로수": 1, "도로폭": 13.2, "일방통행": "일방통행", "자동차전용": "일반", "기타": null, "UFID": "1000037709035A00210000000000000608", "region": "pangyo", "region_name": "제1판교테크노밸리", "base_year": 2023 }, "geometry": { "type": "LineString", "coordinates": [ [ 127.103451472687098, 37.405307348232405 ], [ 127.103534388007759, 37.40525051138296 ], [ 127.1035773794531, 37.405220460746058 ] ] } },
{ "type": "Feature", "properties": { "도로번호": "제23호", "명칭": "천안-서울선", "도로구분": "지방도", "시점": "충청남도천안시", "종점": "서울특별시마포구", "포장재질": "포장", "분리대유무": "무", "차로수": 1, "도로폭": 13.2, "일방통행": "일방통행", "자동차전용": "일반", "기타": null, "UFID": "1000037709035A00210000000000000607", "region": "pangyo", "region_name": "제1판교테크노밸리", "base_year": 2023 }, "geometry": { "type": "LineString", "coordinates": [ [ 127.103343442833463, 37.405376082423217 ], [ 127.103352990345783, 37.405370388640463 ], [ 127.103451472687098, 37.405307348232405 ] ] } },
{ "type": "Feature", "properties": { "도로번호": "제23호", "명칭": "천안-서울선", "도로구분": "지방도", "시점": "충청남도천안시", "종점": "서울특별시마포구", "포장재질": "포장", "분리대유무": "무", "차로수": 1, "도로폭": 13.2, "일방통행": "일방통행", "자동차전용": "일반", "기타": null, "UFID": "1000037709035A00210000000000000606", "region": "pangyo", "region_name": "제1판교테크노밸리", "base_year": 2023 }, "geometry": { "type": "LineString", "coordinates": [ [ 127.102691617341662, 37.405710117915625 ], [ 127.102880644965524, 37.405634565231992 ], [ 127.103214201417217, 37.40545315144945 ], [ 127.103343442833463, 37.405376082423217 ] ] } },
{ "type": "Feature", "properties": { "도로번호": "제23호", "명칭": "천안-서울선", "도로구분": "지방도", "시점": "충청남도천안시", "종점": "서울특별시마포구", "포장재질": "포장", "분리대유무": "무", "차로수": 1, "도로폭": 13.2, "일방통행": "일방통행", "자동차전용": "일반", "기타": null, "UFID": "1000037709035A00210000000000000605", "region": "pangyo", "region_name": "제1판교테크노밸리", "base_year": 2023 }, "geometry": { "type": "LineString", "coordinates": [ [ 127.102330906128074, 37.405667542093731 ], [ 127.102691617341662, 37.405710117915625 ] ] } },
{ "type": "Feature", "properties": { "도로번호": null, "명칭": null, "도로구분": "미분류", "시점": null, "종점": null, "포장재질": "포장", "분리대유무": "유", "차로수": 6, "도로폭": 22.2, "일방통행": "양방통행", "자동차전용": "일반", "기타": null, "UFID": "1000037709035A00210000000000000555", "region": "pangyo", "region_name": "제1판교테크노밸리", "base_year": 2023 }, "geometry": { "type": "LineString", "coordinates": [ [ 127.101672047596566, 37.403050385020215 ], [ 127.101404068660074, 37.403002032117982 ] ] } },
{ "type": "Feature", "properties": { "도로번호": null, "명칭": null, "도로구분": "미분류", "시점": null, "종점": null, "포장재질": "포장", "분리대유무": "무", "차로수": 4, "도로폭": 19.5, "일방통행": "양방통행", "자동차전용": "일반", "기타": null, "UFID": "1000037709035A00210000000000000554", "region": "pangyo", "region_name": "제1판교테크노밸리", "base_year": 2023 }, "geometry": { "type": "LineString", "coordinates": [ [ 127.102289179944407, 37.40390369581246 ], [ 127.102360686896503, 37.403813450793663 ], [ 127.102405291071165, 37.403740411493814 ], [ 127.102478911735773, 37.403585246045282 ], [ 127.10251606102635, 37.403470531953907 ], [ 127.102522140096468, 37.403373009233796 ] ] } },
{ "type": "Feature", "properties": { "도로번호": null, "명칭": null, "도로구분": "미분류", "시점": null, "종점": null, "포장재질": "포장", "분리대유무": "무", "차로수": 4, "도로폭": 19.5, "일방통행": "양방통행", "자동차전용": "일반", "기타": null, "UFID": "1000037709035A00210000000000000553", "region": "pangyo", "region_name": "제1판교테크노밸리", "base_year": 2023 }, "geometry": { "type": "LineString", "coordinates": [ [ 127.102219330272746, 37.403991848986607 ], [ 127.102289179944407, 37.40390369581246 ] ] } },
{ "type": "Feature", "properties": { "도로번호": null, "명칭": null, "도로구분": "미분류", "시점": null, "종점": null, "포장재질": "포장", "분리대유무": "무", "차로수": 4, "도로폭": 19.5, "일방통행": "양방통행", "자동차전용": "일반", "기타": null, "UFID": "1000037709035A00210000000000000552", "region": "pangyo", "region_name": "제1판교테크노밸리", "base_year": 2023 }, "geometry": { "type": "LineString", "coordinates": [ [ 127.10047639624473, 37.4050754683823 ], [ 127.100488054413717, 37.405068556659508 ], [ 127.100569194230204, 37.405025463954097 ], [ 127.10147372686481, 37.40450558629405 ], [ 127.101817524934404, 37.404306777934771 ], [ 127.101923594687548, 37.404241948233704 ], [ 127.102082938854593, 37.40413420190302 ], [ 127.102104904589225, 37.404115982324392 ] ] } },
{ "type": "Feature", "properties": { "도로번호": null, "명칭": null, "도로구분": "미분류", "시점": null, "종점": null, "포장재질": "포장", "분리대유무": "무", "차로수": 4, "도로폭": 29.7, "일방통행": "양방통행", "자동차전용": "일반", "기타": null, "UFID": "1000037709035A00210000000000000520", "region": "pangyo", "region_name": "제1판교테크노밸리", "base_year": 2023 }, "geometry": { "type": "LineString", "coordinates": [ [ 127.102519197922177, 37.400923226605251 ], [ 127.102513636893775, 37.400845410252231 ] ] } },
{ "type": "Feature", "properties": { "도로번호": null, "명칭": null, "도로구분": "미분류", "시점": null, "종점": null, "포장재질": "포장", "분리대유무": "무", "차로수": 2, "도로폭": 15.7, "일방통행": "양방통행", "자동차전용": "일반", "기타": null, "UFID": "1000037709035A00210000000000000519", "region": "pangyo", "region_name": "제1판교테크노밸리", "base_year": 2023 }, "geometry": { "type": "LineString", "coordinates": [ [ 127.102519197922177, 37.400923226605251 ], [ 127.102356461337024, 37.400922790937621 ] ] } },
{ "type": "Feature", "properties": { "도로번호": null, "명칭": null, "도로구분": "미분류", "시점": null, "종점": null, "포장재질": "포장", "분리대유무": "무", "차로수": 6, "도로폭": 31.2, "일방통행": "양방통행", "자동차전용": "일반", "기타": null, "UFID": "1000037709035A00210000000000000518", "region": "pangyo", "region_name": "제1판교테크노밸리", "base_year": 2023 }, "geometry": { "type": "LineString", "coordinates": [ [ 127.109677054317842, 37.400940653887275 ], [ 127.109677552808421, 37.400817727151974 ] ] } },
{ "type": "Feature", "properties": { "도로번호": null, "명칭": null, "도로구분": "미분류", "시점": null, "종점": null, "포장재질": "포장", "분리대유무": "무", "차로수": 3, "도로폭": 14.5, "일방통행": "양방통행", "자동차전용": "일반", "기타": null, "UFID": "1000037709035A00210000000000000517", "region": "pangyo", "region_name": "제1판교테크노밸리", "base_year": 2023 }, "geometry": { "type": "LineString", "coordinates": [ [ 127.109677054317842, 37.400940653887275 ], [ 127.109446444385327, 37.400942957936991 ] ] } },
{ "type": "Feature", "properties": { "도로번호": null, "명칭": null, "도로구분": "미분류", "시점": null, "종점": null, "포장재질": "포장", "분리대유무": "무", "차로수": 3, "도로폭": 14.1, "일방통행": "양방통행", "자동차전용": "일반", "기타": null, "UFID": "1000037709035A00210000000000000516", "region": "pangyo", "region_name": "제1판교테크노밸리", "base_year": 2023 }, "geometry": { "type": "LineString", "coordinates": [ [ 127.111760040614257, 37.400949200322103 ], [ 127.111760347129504, 37.400828580375261 ] ] } },
{ "type": "Feature", "properties": { "도로번호": null, "명칭": null, "도로구분": "미분류", "시점": null, "종점": null, "포장재질": "포장", "분리대유무": "무", "차로수": 4, "도로폭": 34.9, "일방통행": "양방통행", "자동차전용": "일반", "기타": null, "UFID": "1000037709035A00210000000000000515", "region": "pangyo", "region_name": "제1판교테크노밸리", "base_year": 2023 }, "geometry": { "type": "LineString", "coordinates": [ [ 127.102550403506754, 37.402290822948785 ], [ 127.102550318425088, 37.402170374577203 ], [ 127.102546461754585, 37.401205024269593 ], [ 127.102531737261032, 37.40100828111386 ] ] } },
{ "type": "Feature", "properties": { "도로번호": null, "명칭": null, "도로구분": "미분류", "시점": null, "종점": null, "포장재질": "포장", "분리대유무": "무", "차로수": 4, "도로폭": 34.9, "일방통행": "양방통행", "자동차전용": "일반", "기타": null, "UFID": "1000037709035A00210000000000000514", "region": "pangyo", "region_name": "제1판교테크노밸리", "base_year": 2023 }, "geometry": { "type": "LineString", "coordinates": [ [ 127.102550457705846, 37.402380321284987 ], [ 127.102550403506754, 37.402290822948785 ] ] } },
{ "type": "Feature", "properties": { "도로번호": null, "명칭": null, "도로구분": "미분류", "시점": null, "종점": null, "포장재질": "포장", "분리대유무": "무", "차로수": 2, "도로폭": 15.5, "일방통행": "양방통행", "자동차전용": "일반", "기타": null, "UFID": "1000037709035A00210000000000000513", "region": "pangyo", "region_name": "제1판교테크노밸리", "base_year": 2023 }, "geometry": { "type": "LineString", "coordinates": [ [ 127.102323038374166, 37.402348640197545 ], [ 127.102124602608299, 37.402318654592193 ], [ 127.101839814880023, 37.40226641576718 ], [ 127.101676827215243, 37.402216044815574 ], [ 127.101536352806107, 37.402185098334868 ], [ 127.101412466541717, 37.402168535771722 ], [ 127.10132982957586, 37.402145585539962 ], [ 127.101121988667288, 37.402083484921448 ], [ 127.10098413994838, 37.402039398655916 ], [ 127.100880952142219, 37.40200285123634 ], [ 127.100664241803159, 37.40192069164614 ], [ 127.100266834734384, 37.401752664571504 ] ] } },
{ "type": "Feature", "properties": { "도로번호": null, "명칭": null, "도로구분": "미분류", "시점": null, "종점": null, "포장재질": "포장", "분리대유무": "무", "차로수": 2, "도로폭": 15.5, "일방통행": "양방통행", "자동차전용": "일반", "기타": null, "UFID": "1000037709035A00210000000000000512", "region": "pangyo", "region_name": "제1판교테크노밸리", "base_year": 2023 }, "geometry": { "type": "LineString", "coordinates": [ [ 127.102550457705846, 37.402380321284987 ], [ 127.102470379797438, 37.402370902962431 ], [ 127.102323038374166, 37.402348640197545 ] ] } },
{ "type": "Feature", "properties": { "도로번호": null, "명칭": null, "도로구분": "미분류", "시점": null, "종점": null, "포장재질": "포장", "분리대유무": "무", "차로수": 4, "도로폭": 34.9, "일방통행": "양방통행", "자동차전용": "일반", "기타": null, "UFID": "1000037709035A00210000000000000511", "region": "pangyo", "region_name": "제1판교테크노밸리", "base_year": 2023 }, "geometry": { "type": "LineString", "coordinates": [ [ 127.102549937378171, 37.403175364295933 ], [ 127.102550087369238, 37.402945630953703 ] ] } },
{ "type": "Feature", "properties": { "도로번호": null, "명칭": null, "도로구분": "미분류", "시점": null, "종점": null, "포장재질": "포장", "분리대유무": "유", "차로수": 8, "도로폭": 37.2, "일방통행": "양방통행", "자동차전용": "일반", "기타": null, "UFID": "1000037709035A00210000000000000510", "region": "pangyo", "region_name": "제1판교테크노밸리", "base_year": 2023 }, "geometry": { "type": "LineString", "coordinates": [ [ 127.102301093465357, 37.403154396865773 ], [ 127.102147431164724, 37.403136157906268 ], [ 127.101966247544098, 37.403103472093655 ] ] } },
{ "type": "Feature", "properties": { "도로번호": null, "명칭": null, "도로구분": "미분류", "시점": null, "종점": null, "포장재질": "포장", "분리대유무": "유", "차로수": 8, "도로폭": 37.2, "일방통행": "양방통행", "자동차전용": "일반", "기타": null, "UFID": "1000037709035A00210000000000000509", "region": "pangyo", "region_name": "제1판교테크노밸리", "base_year": 2023 }, "geometry": { "type": "LineString", "coordinates": [ [ 127.102549937378171, 37.403175364295933 ], [ 127.102398116618062, 37.403165909015485 ], [ 127.102301093465357, 37.403154396865773 ] ] } },
{ "type": "Feature", "properties": { "도로번호": null, "명칭": null, "도로구분": "미분류", "시점": null, "종점": null, "포장재질": "포장", "분리대유무": "무", "차로수": 3, "도로폭": 14.8, "일방통행": "양방통행", "자동차전용": "일반", "기타": null, "UFID": "1000037709035A00210000000000000494", "region": "pangyo", "region_name": "제1판교테크노밸리", "base_year": 2023 }, "geometry": { "type": "LineString", "coordinates": [ [ 127.106327566832974, 37.403963114523926 ], [ 127.106152470589961, 37.403964893688972 ], [ 127.106061979775319, 37.403973462507714 ], [ 127.105955748580385, 37.404001047883582 ], [ 127.105899272355089, 37.404022524744484 ], [ 127.105846708432438, 37.404047151647475 ], [ 127.105758125782543, 37.404103598748414 ], [ 127.105671984478761, 37.40418549742602 ], [ 127.105605705441207, 37.404264071556604 ], [ 127.105410919431563, 37.404481652569061 ], [ 127.105288992931392, 37.404593622877684 ], [ 127.105180242214004, 37.404669927965728 ], [ 127.105167139887726, 37.404677598292913 ] ] } },
{ "type": "Feature", "properties": { "도로번호": null, "명칭": null, "도로구분": "미분류", "시점": null, "종점": null, "포장재질": "포장", "분리대유무": "무", "차로수": 3, "도로폭": 14.8, "일방통행": "양방통행", "자동차전용": "일반", "기타": null, "UFID": "1000037709035A00210000000000000493", "region": "pangyo", "region_name": "제1판교테크노밸리", "base_year": 2023 }, "geometry": { "type": "LineString", "coordinates": [ [ 127.106475605388653, 37.403964134611414 ], [ 127.106327566832974, 37.403963114523926 ] ] } },
{ "type": "Feature", "properties": { "도로번호": null, "명칭": null, "도로구분": "미분류", "시점": null, "종점": null, "포장재질": "포장", "분리대유무": "유", "차로수": 8, "도로폭": 37.2, "일방통행": "양방통행", "자동차전용": "일반", "기타": null, "UFID": "1000037709035A00210000000000000492", "region": "pangyo", "region_name": "제1판교테크노밸리", "base_year": 2023 }, "geometry": { "type": "LineString", "coordinates": [ [ 127.106326771686824, 37.403208546652131 ], [ 127.10547421393764, 37.403208274069364 ], [ 127.105260713996117, 37.403206842490548 ] ] } },
{ "type": "Feature", "properties": { "도로번호": null, "명칭": null, "도로구분": "미분류", "시점": null, "종점": null, "포장재질": "포장", "분리대유무": "유", "차로수": 8, "도로폭": 37.2, "일방통행": "양방통행", "자동차전용": "일반", "기타": null, "UFID": "1000037709035A00210000000000000491", "region": "pangyo", "region_name": "제1판교테크노밸리", "base_year": 2023 }, "geometry": { "type": "LineString", "coordinates": [ [ 127.106471983786065, 37.403208596184754 ], [ 127.106326771686824, 37.403208546652131 ] ] } },
{ "type": "Feature", "properties": { "도로번호": null, "명칭": null, "도로구분": "미분류", "시점": null, "종점": null, "포장재질": "포장", "분리대유무": "무", "차로수": 3, "도로폭": 14.9, "일방통행": "양방통행", "자동차전용": "일반", "기타": null, "UFID": "1000037709035A00210000000000000490", "region": "pangyo", "region_name": "제1판교테크노밸리", "base_year": 2023 }, "geometry": { "type": "LineString", "coordinates": [ [ 127.106471732564458, 37.403054990432864 ], [ 127.106470855649576, 37.402531002709495 ], [ 127.106545374634081, 37.402410811515274 ], [ 127.107664570315364, 37.402411392523994 ], [ 127.108312382838179, 37.402416125909134 ], [ 127.108578812600172, 37.402430261837935 ], [ 127.109373388370273, 37.402430790944315 ], [ 127.109408580204018, 37.402430010539106 ] ] } },
{ "type": "Feature", "properties": { "도로번호": null, "명칭": null, "도로구분": "미분류", "시점": null, "종점": null, "포장재질": "포장", "분리대유무": "무", "차로수": 3, "도로폭": 14.9, "일방통행": "양방통행", "자동차전용": "일반", "기타": null, "UFID": "1000037709035A00210000000000000489", "region": "pangyo", "region_name": "제1판교테크노밸리", "base_year": 2023 }, "geometry": { "type": "LineString", "coordinates": [ [ 127.106471983786065, 37.403208596184754 ], [ 127.106471732564458, 37.403054990432864 ] ] } },
{ "type": "Feature", "properties": { "도로번호": null, "명칭": null, "도로구분": "미분류", "시점": null, "종점": null, "포장재질": "포장", "분리대유무": "무", "차로수": 3, "도로폭": 14.6, "일방통행": "양방통행", "자동차전용": "일반", "기타": null, "UFID": "1000037709035A00210000000000000488", "region": "pangyo", "region_name": "제1판교테크노밸리", "base_year": 2023 }, "geometry": { "type": "LineString", "coordinates": [ [ 127.109941209146541, 37.402423731940424 ], [ 127.111189664981822, 37.402422267180398 ], [ 127.11161051560525, 37.402424501654941 ], [ 127.111681692644297, 37.402417235292717 ], [ 127.111740939057313, 37.402392157975868 ], [ 127.111753229925597, 37.402378766204151 ], [ 127.111762017685308, 37.402326084234119 ], [ 127.11176316339558, 37.402299025502487 ], [ 127.111759563410317, 37.401137405997055 ], [ 127.111759721612913, 37.401076622985272 ] ] } },
{ "type": "Feature", "properties": { "도로번호": null, "명칭": null, "도로구분": "미분류", "시점": null, "종점": null, "포장재질": "포장", "분리대유무": "무", "차로수": 3, "도로폭": 14.6, "일방통행": "양방통행", "자동차전용": "일반", "기타": null, "UFID": "1000037709035A00210000000000000487", "region": "pangyo", "region_name": "제1판교테크노밸리", "base_year": 2023 }, "geometry": { "type": "LineString", "coordinates": [ [ 127.109680370342176, 37.402425451858178 ], [ 127.109773771793115, 37.402423932558563 ], [ 127.109941209146541, 37.402423731940424 ] ] } },
{ "type": "Feature", "properties": { "도로번호": null, "명칭": null, "도로구분": "미분류", "시점": null, "종점": null, "포장재질": "포장", "분리대유무": "무", "차로수": 6, "도로폭": 31.8, "일방통행": "양방통행", "자동차전용": "일반", "기타": null, "UFID": "1000037709035A00210000000000000486", "region": "pangyo", "region_name": "제1판교테크노밸리", "base_year": 2023 }, "geometry": { "type": "LineString", "coordinates": [ [ 127.109680147062093, 37.402326501981968 ], [ 127.109677323034134, 37.401063039295913 ] ] } },
{ "type": "Feature", "properties": { "도로번호": null, "명칭": null, "도로구분": "미분류", "시점": null, "종점": null, "포장재질": "포장", "분리대유무": "무", "차로수": 6, "도로폭": 31.8, "일방통행": "양방통행", "자동차전용": "일반", "기타": null, "UFID": "1000037709035A00210000000000000485", "region": "pangyo", "region_name": "제1판교테크노밸리", "base_year": 2023 }, "geometry": { "type": "LineString", "coordinates": [ [ 127.109680370342176, 37.402425451858178 ], [ 127.109680147062093, 37.402326501981968 ] ] } },
{ "type": "Feature", "properties": { "도로번호": null, "명칭": null, "도로구분": "미분류", "시점": null, "종점": null, "포장재질": "포장", "분리대유무": "유", "차로수": 6, "도로폭": 37.5, "일방통행": "양방통행", "자동차전용": "일반", "기타": null, "UFID": "1000037709035A00210000000000000484", "region": "pangyo", "region_name": "제1판교테크노밸리", "base_year": 2023 }, "geometry": { "type": "LineString", "coordinates": [ [ 127.109445776360829, 37.403209385916021 ], [ 127.108258808836368, 37.403213244785213 ], [ 127.108183847582296, 37.403212998038235 ], [ 127.108140677405785, 37.403210911120901 ], [ 127.107916883029745, 37.403213737559604 ], [ 127.107558630577344, 37.403209865238587 ], [ 127.107339352775256, 37.403211875557048 ], [ 127.1072959449519, 37.403209446159224 ], [ 127.107014136789559, 37.40320823288652 ], [ 127.106622470156267, 37.403208496619776 ] ] } },
{ "type": "Feature", "properties": { "도로번호": null, "명칭": null, "도로구분": "미분류", "시점": null, "종점": null, "포장재질": "포장", "분리대유무": "유", "차로수": 6, "도로폭": 37.5, "일방통행": "양방통행", "자동차전용": "일반", "기타": null, "UFID": "1000037709035A00210000000000000483", "region": "pangyo", "region_name": "제1판교테크노밸리", "base_year": 2023 }, "geometry": { "type": "LineString", "coordinates": [ [ 127.109683183392917, 37.403208607293628 ], [ 127.109445776360829, 37.403209385916021 ] ] } },
{ "type": "Feature", "properties": { "도로번호": null, "명칭": null, "도로구분": "미분류", "시점": null, "종점": null, "포장재질": "포장", "분리대유무": "무", "차로수": 6, "도로폭": 37.9, "일방통행": "양방통행", "자동차전용": "일반", "기타": null, "UFID": "1000037709035A00210000000000000482", "region": "pangyo", "region_name": "제1판교테크노밸리", "base_year": 2023 }, "geometry": { "type": "LineString", "coordinates": [ [ 127.10968261171206, 37.403048856890287 ], [ 127.109680639956821, 37.402501948256671 ] ] } },
{ "type": "Feature", "properties": { "도로번호": null, "명칭": null, "도로구분": "미분류", "시점": null, "종점": null, "포장재질": "포장", "분리대유무": "무", "차로수": 6, "도로폭": 37.9, "일방통행": "양방통행", "자동차전용": "일반", "기타": null, "UFID": "1000037709035A00210000000000000481", "region": "pangyo", "region_name": "제1판교테크노밸리", "base_year": 2023 }, "geometry": { "type": "LineString", "coordinates": [ [ 127.109683183392917, 37.403208607293628 ], [ 127.10968261171206, 37.403048856890287 ] ] } },
{ "type": "Feature", "properties": { "도로번호": null, "명칭": null, "도로구분": "미분류", "시점": null, "종점": null, "포장재질": "포장", "분리대유무": "무", "차로수": 3, "도로폭": 14.8, "일방통행": "양방통행", "자동차전용": "일반", "기타": null, "UFID": "1000037709035A00210000000000000474", "region": "pangyo", "region_name": "제1판교테크노밸리", "base_year": 2023 }, "geometry": { "type": "LineString", "coordinates": [ [ 127.109687062642337, 37.403971560759388 ], [ 127.109508045341471, 37.403972015020877 ] ] } },
{ "type": "Feature", "properties": { "도로번호": "제23호", "명칭": "천안-서울선", "도로구분": "지방도", "시점": "충청남도천안시", "종점": "서울특별시마포구", "포장재질": "포장", "분리대유무": "무", "차로수": 2, "도로폭": 13.0, "일방통행": "일방통행", "자동차전용": "일반", "기타": null, "UFID": "1000037709035A00210000000000000456", "region": "pangyo", "region_name": "제1판교테크노밸리", "base_year": 2023 }, "geometry": { "type": "LineString", "coordinates": [ [ 127.104320948365242, 37.403912552693285 ], [ 127.104268319208998, 37.403923023922154 ], [ 127.10425923384112, 37.403936015637896 ], [ 127.104128605605467, 37.404134787727671 ], [ 127.104000236919973, 37.404285488243318 ], [ 127.10386559754717, 37.404426787472339 ], [ 127.103722468778415, 37.404563264523574 ], [ 127.103563799478366, 37.404700746133983 ], [ 127.103372381218875, 37.404850870448833 ], [ 127.10318752862878, 37.404979373244593 ], [ 127.103074480940862, 37.405053995234631 ], [ 127.102910291890865, 37.405154259623913 ], [ 127.102679813804954, 37.405279359425492 ], [ 127.102449923070324, 37.40539674553375 ], [ 127.102424104243497, 37.405455496399085 ] ] } },
{ "type": "Feature", "properties": { "도로번호": "제23호", "명칭": "천안-서울선", "도로구분": "지방도", "시점": "충청남도천안시", "종점": "서울특별시마포구", "포장재질": "포장", "분리대유무": "유", "차로수": 6, "도로폭": 27.9, "일방통행": "양방통행", "자동차전용": "일반", "기타": null, "UFID": "1000037709035A00210000000000000455", "region": "pangyo", "region_name": "제1판교테크노밸리", "base_year": 2023 }, "geometry": { "type": "LineString", "coordinates": [ [ 127.102581576412717, 37.405547372063246 ], [ 127.102330906128074, 37.405667542093731 ] ] } },
{ "type": "Feature", "properties": { "도로번호": null, "명칭": null, "도로구분": "미분류", "시점": null, "종점": null, "포장재질": "포장", "분리대유무": "무", "차로수": 1, "도로폭": 9.9, "일방통행": "일방통행", "자동차전용": "일반", "기타": null, "UFID": "1000037709035A00210000000000000446", "region": "pangyo", "region_name": "제1판교테크노밸리", "base_year": 2023 }, "geometry": { "type": "LineString", "coordinates": [ [ 127.111858792252349, 37.404396312441158 ], [ 127.111849673849932, 37.404416630064425 ], [ 127.111819897399712, 37.404444373612151 ], [ 127.111778724209231, 37.404456585327246 ] ] } },
{ "type": "Feature", "properties": { "도로번호": null, "명칭": null, "도로구분": "미분류", "시점": null, "종점": null, "포장재질": "포장", "분리대유무": "무", "차로수": 3, "도로폭": 15.4, "일방통행": "양방통행", "자동차전용": "일반", "기타": null, "UFID": "1000037709035A00210000000000000440", "region": "pangyo", "region_name": "제1판교테크노밸리", "base_year": 2023 }, "geometry": { "type": "LineString", "coordinates": [ [ 127.109866294562025, 37.40397112404785 ], [ 127.109687062642337, 37.403971560759388 ] ] } },
{ "type": "Feature", "properties": { "도로번호": null, "명칭": null, "도로구분": "미분류", "시점": null, "종점": null, "포장재질": "포장", "분리대유무": "무", "차로수": 3, "도로폭": 14.9, "일방통행": "양방통행", "자동차전용": "일반", "기타": null, "UFID": "1000037709035A00210000000000000439", "region": "pangyo", "region_name": "제1판교테크노밸리", "base_year": 2023 }, "geometry": { "type": "LineString", "coordinates": [ [ 127.106472721497454, 37.403362787157867 ], [ 127.106471983786065, 37.403208596184754 ] ] } },
{ "type": "Feature", "properties": { "도로번호": null, "명칭": null, "도로구분": "미분류", "시점": null, "종점": null, "포장재질": "포장", "분리대유무": "무", "차로수": 4, "도로폭": 19.6, "일방통행": "양방통행", "자동차전용": "일반", "기타": null, "UFID": "1000037709035A00210000000000000438", "region": "pangyo", "region_name": "제1판교테크노밸리", "base_year": 2023 }, "geometry": { "type": "LineString", "coordinates": [ [ 127.109684089904334, 37.403388855597427 ], [ 127.109683183392917, 37.403208607293628 ] ] } },
{ "type": "Feature", "properties": { "도로번호": null, "명칭": null, "도로구분": "미분류", "시점": null, "종점": null, "포장재질": "포장", "분리대유무": "무", "차로수": 3, "도로폭": 14.9, "일방통행": "양방통행", "자동차전용": "일반", "기타": null, "UFID": "1000037709035A00210000000000000437", "region": "pangyo", "region_name": "제1판교테크노밸리", "base_year": 2023 }, "geometry": { "type": "LineString", "coordinates": [ [ 127.109874690143087, 37.400941461524454 ], [ 127.109677054317842, 37.400940653887275 ] ] } },
{ "type": "Feature", "properties": { "도로번호": null, "명칭": null, "도로구분": "미분류", "시점": null, "종점": null, "포장재질": "포장", "분리대유무": "무", "차로수": 2, "도로폭": 14.5, "일방통행": "양방통행", "자동차전용": "일반", "기타": null, "UFID": "1000037709035A00210000000000000430", "region": "pangyo", "region_name": "제1판교테크노밸리", "base_year": 2023 }, "geometry": { "type": "LineString", "coordinates": [ [ 127.102709164669108, 37.400923809592868 ], [ 127.102519197922177, 37.400923226605251 ] ] } },
{ "type": "Feature", "properties": { "도로번호": null, "명칭": null, "도로구분": "미분류", "시점": null, "종점": null, "포장재질": "포장", "분리대유무": "무", "차로수": 3, "도로폭": 15.4, "일방통행": "양방통행", "자동차전용": "일반", "기타": null, "UFID": "1000037709035A00210000000000000408", "region": "pangyo", "region_name": "제1판교테크노밸리", "base_year": 2023 }, "geometry": { "type": "LineString", "coordinates": [ [ 127.103504477543794, 37.405363939973931 ], [ 127.103451472687098, 37.405307348232405 ] ] } },
{ "type": "Feature", "properties": { "도로번호": null, "명칭": null, "도로구분": "미분류", "시점": null, "종점": null, "포장재질": "포장", "분리대유무": "무", "차로수": 1, "도로폭": 9.6, "일방통행": "양방통행", "자동차전용": "일반", "기타": null, "UFID": "1000037709035A00210000000000000398", "region": "pangyo", "region_name": "제1판교테크노밸리", "base_year": 2023 }, "geometry": { "type": "LineString", "coordinates": [ [ 127.103702744966682, 37.402462723764316 ], [ 127.10368795387474, 37.40244953678355 ], [ 127.103674139551089, 37.402415715571607 ], [ 127.103675248596417, 37.402409119128016 ] ] } },
{ "type": "Feature", "properties": { "도로번호": "제23호", "명칭": "천안-서울선", "도로구분": "지방도", "시점": "충청남도천안시", "종점": "서울특별시마포구", "포장재질": "포장", "분리대유무": "무", "차로수": 8, "도로폭": 57.0, "일방통행": "양방통행", "자동차전용": "일반", "기타": null, "UFID": "1000037709035A00210000000000000328", "region": "pangyo", "region_name": "제1판교테크노밸리", "base_year": 2023 }, "geometry": { "type": "LineString", "coordinates": [ [ 127.10479183412572, 37.403503775810314 ], [ 127.104735543101825, 37.403609596478823 ], [ 127.104584150385904, 37.403860187137376 ] ] } },
{ "type": "Feature", "properties": { "도로번호": null, "명칭": null, "도로구분": "미분류", "시점": null, "종점": null, "포장재질": "포장", "분리대유무": "유", "차로수": 8, "도로폭": 37.2, "일방통행": "양방통행", "자동차전용": "일반", "기타": null, "UFID": "1000037709035A00210000000000000324", "region": "pangyo", "region_name": "제1판교테크노밸리", "base_year": 2023 }, "geometry": { "type": "LineString", "coordinates": [ [ 127.10496191798579, 37.4032048285301 ], [ 127.104630537365594, 37.403202599377835 ] ] } },
{ "type": "Feature", "properties": { "도로번호": null, "명칭": null, "도로구분": "미분류", "시점": null, "종점": null, "포장재질": "포장", "분리대유무": "유", "차로수": 8, "도로폭": 37.2, "일방통행": "양방통행", "자동차전용": "일반", "기타": null, "UFID": "1000037709035A00210000000000000322", "region": "pangyo", "region_name": "제1판교테크노밸리", "base_year": 2023 }, "geometry": { "type": "LineString", "coordinates": [ [ 127.105260713996117, 37.403206842490548 ], [ 127.10496191798579, 37.4032048285301 ] ] } },
{ "type": "Feature", "properties": { "도로번호": "제23호", "명칭": "천안-서울선", "도로구분": "지방도", "시점": "충청남도천안시", "종점": "서울특별시마포구", "포장재질": "포장", "분리대유무": "무", "차로수": 1, "도로폭": 13.2, "일방통행": "일방통행", "자동차전용": "일반", "기타": null, "UFID": "1000037709035A00210000000000000321", "region": "pangyo", "region_name": "제1판교테크노밸리", "base_year": 2023 }, "geometry": { "type": "LineString", "coordinates": [ [ 127.104671562716405, 37.404082472612842 ], [ 127.104584150385904, 37.403860187137376 ] ] } },
{ "type": "Feature", "properties": { "도로번호": "제23호", "명칭": "천안-서울선", "도로구분": "지방도", "시점": "충청남도천안시", "종점": "서울특별시마포구", "포장재질": "포장", "분리대유무": "무", "차로수": 2, "도로폭": 13.0, "일방통행": "일방통행", "자동차전용": "일반", "기타": null, "UFID": "1000037709035A00210000000000000320", "region": "pangyo", "region_name": "제1판교테크노밸리", "base_year": 2023 }, "geometry": { "type": "LineString", "coordinates": [ [ 127.104584150385904, 37.403860187137376 ], [ 127.104320948365242, 37.403912552693285 ] ] } },
{ "type": "Feature", "properties": { "도로번호": null, "명칭": null, "도로구분": "미분류", "시점": null, "종점": null, "포장재질": "포장", "분리대유무": "무", "차로수": 6, "도로폭": 38.3, "일방통행": "양방통행", "자동차전용": "일반", "기타": null, "UFID": "1000037709035A00210000000000000319", "region": "pangyo", "region_name": "제1판교테크노밸리", "base_year": 2023 }, "geometry": { "type": "LineString", "coordinates": [ [ 127.112901061278293, 37.403233456050138 ], [ 127.112898380315201, 37.403254705312833 ] ] } },
{ "type": "Feature", "properties": { "도로번호": "제23호", "명칭": "천안-서울선", "도로구분": "지방도", "시점": "충청남도천안시", "종점": "서울특별시마포구", "포장재질": "포장", "분리대유무": "무", "차로수": 8, "도로폭": 57.0, "일방통행": "양방통행", "자동차전용": "일반", "기타": null, "UFID": "1000037709035A00210000000000000313", "region": "pangyo", "region_name": "제1판교테크노밸리", "base_year": 2023 }, "geometry": { "type": "LineString", "coordinates": [ [ 127.10496191798579, 37.4032048285301 ], [ 127.10492723745871, 37.403280995544662 ], [ 127.10479183412572, 37.403503775810314 ] ] } },
{ "type": "Feature", "properties": { "도로번호": "제23호", "명칭": "천안-서울선", "도로구분": "지방도", "시점": "충청남도천안시", "종점": "서울특별시마포구", "포장재질": "포장", "분리대유무": "무", "차로수": 8, "도로폭": 57.0, "일방통행": "양방통행", "자동차전용": "일반", "기타": null, "UFID": "1000037709035A00210000000000000312", "region": "pangyo", "region_name": "제1판교테크노밸리", "base_year": 2023 }, "geometry": { "type": "LineString", "coordinates": [ [ 127.105093669580185, 37.402915474895842 ], [ 127.10496191798579, 37.4032048285301 ] ] } },
{ "type": "Feature", "properties": { "도로번호": null, "명칭": null, "도로구분": "미분류", "시점": null, "종점": null, "포장재질": "포장", "분리대유무": "무", "차로수": 6, "도로폭": 38.3, "일방통행": "양방통행", "자동차전용": "일반", "기타": null, "UFID": "1000037709035A00210000000000000311", "region": "pangyo", "region_name": "제1판교테크노밸리", "base_year": 2023 }, "geometry": { "type": "LineString", "coordinates": [ [ 127.112901061278293, 37.403233456050138 ], [ 127.11292217198347, 37.403061331971521 ] ] } },
{ "type": "Feature", "properties": { "도로번호": null, "명칭": null, "도로구분": "면리간도로", "시점": null, "종점": null, "포장재질": "비포장", "분리대유무": "무", "차로수": 1, "도로폭": 1.8, "일방통행": "양방통행", "자동차전용": "일반", "기타": null, "UFID": "1000037709035A00210000000000000298", "region": "pangyo", "region_name": "제1판교테크노밸리", "base_year": 2023 }, "geometry": { "type": "LineString", "coordinates": [ [ 127.104073140182464, 37.405393832210031 ], [ 127.104010623087106, 37.405352395241678 ] ] } },
{ "type": "Feature", "properties": { "도로번호": null, "명칭": null, "도로구분": "면리간도로", "시점": null, "종점": null, "포장재질": "비포장", "분리대유무": "무", "차로수": 1, "도로폭": 1.8, "일방통행": "양방통행", "자동차전용": "일반", "기타": null, "UFID": "1000037709035A00210000000000000277", "region": "pangyo", "region_name": "제1판교테크노밸리", "base_year": 2023 }, "geometry": { "type": "MultiLineString", "coordinates": [ [ [ 127.104073140182464, 37.405393832210031 ], [ 127.104105716553221, 37.405420050249603 ], [ 127.104104462041931, 37.405427637944165 ], [ 127.103973148231276, 37.405508430836868 ], [ 127.103890823136936, 37.405583693335274 ], [ 127.103897728692331, 37.405603284455907 ], [ 127.10395288177638, 37.405636564714115 ], [ 127.103976311722505, 37.405639904917486 ], [ 127.104000521343593, 37.40563531545304 ], [ 127.104033185401434, 37.405618698936195 ], [ 127.104121157822377, 37.405559802902623 ], [ 127.104221598498867, 37.405515909055389 ] ], [ [ 127.104574194949322, 37.405239508765099 ], [ 127.104576464635713, 37.405237790928986 ], [ 127.104586321231295, 37.405236799585509 ] ] ] } },
{ "type": "Feature", "properties": { "도로번호": null, "명칭": null, "도로구분": "미분류", "시점": null, "종점": null, "포장재질": "포장", "분리대유무": "무", "차로수": 2, "도로폭": 15.5, "일방통행": "양방통행", "자동차전용": "일반", "기타": null, "UFID": "1000037709035A00210000000000000127", "region": "pangyo", "region_name": "제1판교테크노밸리", "base_year": 2023 }, "geometry": { "type": "LineString", "coordinates": [ [ 127.100266834734384, 37.401752664571504 ], [ 127.100164259768817, 37.401709295277207 ] ] } },
{ "type": "Feature", "properties": { "도로번호": null, "명칭": null, "도로구분": "미분류", "시점": null, "종점": null, "포장재질": "포장", "분리대유무": "무", "차로수": 3, "도로폭": 20.2, "일방통행": "양방통행", "자동차전용": "일반", "기타": null, "UFID": "1000037709035A00210000000000000126", "region": "pangyo", "region_name": "제1판교테크노밸리", "base_year": 2023 }, "geometry": { "type": "LineString", "coordinates": [ [ 127.100164259768817, 37.401709295277207 ], [ 127.100224719545949, 37.401643019017051 ], [ 127.100267886829272, 37.401592912693502 ] ] } },
{ "type": "Feature", "properties": { "도로번호": null, "명칭": null, "도로구분": "미분류", "시점": null, "종점": null, "포장재질": "포장", "분리대유무": "무", "차로수": 2, "도로폭": 13.4, "일방통행": "양방통행", "자동차전용": "일반", "기타": null, "UFID": "1000037709035A00210000000000000125", "region": "pangyo", "region_name": "제1판교테크노밸리", "base_year": 2023 }, "geometry": { "type": "LineString", "coordinates": [ [ 127.100205684641978, 37.405235989623563 ], [ 127.100337152636257, 37.405158029981813 ] ] } },
{ "type": "Feature", "properties": { "도로번호": null, "명칭": null, "도로구분": "미분류", "시점": null, "종점": null, "포장재질": "포장", "분리대유무": "무", "차로수": 5, "도로폭": 20.0, "일방통행": "양방통행", "자동차전용": "일반", "기타": null, "UFID": "1000037709035A00210000000000000122", "region": "pangyo", "region_name": "제1판교테크노밸리", "base_year": 2023 }, "geometry": { "type": "LineString", "coordinates": [ [ 127.100093706310346, 37.401786635575654 ], [ 127.100164259768817, 37.401709295277207 ] ] } },
{ "type": "Feature", "properties": { "도로번호": null, "명칭": null, "도로구분": "미분류", "시점": null, "종점": null, "포장재질": "포장", "분리대유무": "무", "차로수": 3, "도로폭": 20.2, "일방통행": "양방통행", "자동차전용": "일반", "기타": null, "UFID": "1000037709035A00210000000000000111", "region": "pangyo", "region_name": "제1판교테크노밸리", "base_year": 2023 }, "geometry": { "type": "LineString", "coordinates": [ [ 127.100699381854639, 37.401003530654577 ], [ 127.100752502212202, 37.400922438573787 ] ] } },
{ "type": "Feature", "properties": { "도로번호": null, "명칭": null, "도로구분": "미분류", "시점": null, "종점": null, "포장재질": "포장", "분리대유무": "무", "차로수": 2, "도로폭": 15.0, "일방통행": "양방통행", "자동차전용": "일반", "기타": null, "UFID": "1000037709035A00210000000000000109", "region": "pangyo", "region_name": "제1판교테크노밸리", "base_year": 2023 }, "geometry": { "type": "LineString", "coordinates": [ [ 127.100877842985327, 37.400921980307601 ], [ 127.100752502212202, 37.400922438573787 ] ] } },
{ "type": "Feature", "properties": { "도로번호": null, "명칭": null, "도로구분": "미분류", "시점": null, "종점": null, "포장재질": "포장", "분리대유무": "무", "차로수": 3, "도로폭": 20.2, "일방통행": "양방통행", "자동차전용": "일반", "기타": null, "UFID": "1000037709035A00210000000000000106", "region": "pangyo", "region_name": "제1판교테크노밸리", "base_year": 2023 }, "geometry": { "type": "LineString", "coordinates": [ [ 127.100267886829272, 37.401592912693502 ], [ 127.100299788629997, 37.401555880712195 ], [ 127.100401741294647, 37.40142920076071 ], [ 127.100507841835707, 37.40128806481875 ], [ 127.100590345538265, 37.401169960927994 ], [ 127.100699381854639, 37.401003530654577 ] ] } },
{ "type": "Feature", "properties": { "도로번호": null, "명칭": null, "도로구분": "미분류", "시점": null, "종점": null, "포장재질": "포장", "분리대유무": "무", "차로수": 4, "도로폭": 19.5, "일방통행": "양방통행", "자동차전용": "일반", "기타": null, "UFID": "1000037709035A00210000000000000105", "region": "pangyo", "region_name": "제1판교테크노밸리", "base_year": 2023 }, "geometry": { "type": "LineString", "coordinates": [ [ 127.100337152636257, 37.405158029981813 ], [ 127.10047639624473, 37.4050754683823 ] ] } },
{ "type": "Feature", "properties": { "도로번호": null, "명칭": null, "도로구분": "미분류", "시점": null, "종점": null, "포장재질": "포장", "분리대유무": "무", "차로수": 3, "도로폭": 20.2, "일방통행": "양방통행", "자동차전용": "일반", "기타": null, "UFID": "1000037709035A00210000000000000103", "region": "pangyo", "region_name": "제1판교테크노밸리", "base_year": 2023 }, "geometry": { "type": "LineString", "coordinates": [ [ 127.100752502212202, 37.400922438573787 ], [ 127.100842486816489, 37.400774378190278 ] ] } },
{ "type": "Feature", "properties": { "도로번호": null, "명칭": null, "도로구분": "미분류", "시점": null, "종점": null, "포장재질": "포장", "분리대유무": "무", "차로수": 4, "도로폭": 18.3, "일방통행": "양방통행", "자동차전용": "일반", "기타": null, "UFID": "1000037709035A00210000000000000102", "region": "pangyo", "region_name": "제1판교테크노밸리", "base_year": 2023 }, "geometry": { "type": "LineString", "coordinates": [ [ 127.100273504252058, 37.405088110743883 ], [ 127.100337152636257, 37.405158029981813 ] ] } },
{ "type": "Feature", "properties": { "도로번호": null, "명칭": null, "도로구분": "미분류", "시점": null, "종점": null, "포장재질": "포장", "분리대유무": "무", "차로수": 4, "도로폭": 29.7, "일방통행": "양방통행", "자동차전용": "일반", "기타": null, "UFID": "1000037709035A00210000000000000061", "region": "pangyo", "region_name": "제1판교테크노밸리", "base_year": 2023 }, "geometry": { "type": "LineString", "coordinates": [ [ 127.102513636893775, 37.400845410252231 ], [ 127.102510493841294, 37.400801524249033 ], [ 127.102504456319153, 37.400639201554654 ], [ 127.102500727847058, 37.400140606813729 ], [ 127.102502942265971, 37.400000234829896 ] ] } },
{ "type": "Feature", "properties": { "도로번호": null, "명칭": null, "도로구분": "미분류", "시점": null, "종점": null, "포장재질": "포장", "분리대유무": "무", "차로수": 3, "도로폭": 20.2, "일방통행": "양방통행", "자동차전용": "일반", "기타": null, "UFID": "1000037709035A00210000000000000060", "region": "pangyo", "region_name": "제1판교테크노밸리", "base_year": 2023 }, "geometry": { "type": "LineString", "coordinates": [ [ 127.101195852339757, 37.400000117294766 ], [ 127.101162882237062, 37.400115386096608 ], [ 127.101065344244503, 37.400339769673998 ], [ 127.101007348730789, 37.400465241350368 ], [ 127.100843771497082, 37.400772259695465 ], [ 127.100842486816489, 37.400774378190278 ] ] } },
{ "type": "Feature", "properties": { "도로번호": null, "명칭": null, "도로구분": "미분류", "시점": null, "종점": null, "포장재질": "포장", "분리대유무": "무", "차로수": 9, "도로폭": 37.9, "일방통행": "양방통행", "자동차전용": "일반", "기타": null, "UFID": "1000037709035A00210000000000000059", "region": "pangyo", "region_name": "제1판교테크노밸리", "base_year": 2023 }, "geometry": { "type": "LineString", "coordinates": [ [ 127.109677660799832, 37.400000627229581 ], [ 127.109677624041936, 37.400083899621336 ], [ 127.109678103030618, 37.400474563831693 ] ] } },
{ "type": "Feature", "properties": { "도로번호": null, "명칭": null, "도로구분": "미분류", "시점": null, "종점": null, "포장재질": "포장", "분리대유무": "무", "차로수": 2, "도로폭": 14.5, "일방통행": "양방통행", "자동차전용": "일반", "기타": null, "UFID": "1000037709035A00210000000000000058", "region": "pangyo", "region_name": "제1판교테크노밸리", "base_year": 2023 }, "geometry": { "type": "LineString", "coordinates": [ [ 127.103704321125974, 37.400000331564485 ], [ 127.103704056500334, 37.400021388657734 ], [ 127.1037043439119, 37.400770893679429 ], [ 127.103703521365375, 37.400846048553696 ], [ 127.103699819457802, 37.400872478743018 ], [ 127.103682449494343, 37.400897272049768 ], [ 127.103646844563883, 37.400917450092166 ], [ 127.103616600417638, 37.400926612951054 ], [ 127.102709164669108, 37.400923809592868 ] ] } },
{ "type": "Feature", "properties": { "도로번호": null, "명칭": null, "도로구분": "미분류", "시점": null, "종점": null, "포장재질": "포장", "분리대유무": "무", "차로수": 3, "도로폭": 14.5, "일방통행": "양방통행", "자동차전용": "일반", "기타": null, "UFID": "1000037709035A00210000000000000057", "region": "pangyo", "region_name": "제1판교테크노밸리", "base_year": 2023 }, "geometry": { "type": "LineString", "coordinates": [ [ 127.109446444385327, 37.400942957936991 ], [ 127.109412077083405, 37.400943305100249 ], [ 127.108786295374699, 37.400942783251274 ], [ 127.108575777110417, 37.400944796809938 ], [ 127.108541134951437, 37.400942512991591 ], [ 127.108506868555395, 37.400934516346169 ], [ 127.108471231700392, 37.40091598801439 ], [ 127.108450637213224, 37.400888705973763 ], [ 127.108440991947475, 37.400849412290512 ], [ 127.108438845879249, 37.40079440693539 ], [ 127.108442422931617, 37.40000059521293 ] ] } },
{ "type": "Feature", "properties": { "도로번호": null, "명칭": null, "도로구분": "미분류", "시점": null, "종점": null, "포장재질": "포장", "분리대유무": "무", "차로수": 3, "도로폭": 14.1, "일방통행": "양방통행", "자동차전용": "일반", "기타": null, "UFID": "1000037709035A00210000000000000056", "region": "pangyo", "region_name": "제1판교테크노밸리", "base_year": 2023 }, "geometry": { "type": "LineString", "coordinates": [ [ 127.111760347129504, 37.400828580375261 ], [ 127.111760901652673, 37.400608784826019 ], [ 127.111759578855853, 37.400326451182288 ], [ 127.111763510964821, 37.400000656317644 ] ] } },
{ "type": "Feature", "properties": { "도로번호": null, "명칭": "분당내곡간도시고속화도로", "도로구분": "미분류", "시점": null, "종점": null, "포장재질": "포장", "분리대유무": "무", "차로수": 6, "도로폭": 32.3, "일방통행": "양방통행", "자동차전용": "일반", "기타": null, "UFID": "1000037709035A00210000000000000055", "region": "pangyo", "region_name": "제1판교테크노밸리", "base_year": 2023 }, "geometry": { "type": "LineString", "coordinates": [ [ 127.112896471931606, 37.403257783214322 ], [ 127.112901061278293, 37.403233456050138 ], [ 127.112924442216524, 37.403061374854381 ], [ 127.112951990774789, 37.402836697100796 ], [ 127.112954726958577, 37.402778470541122 ], [ 127.112964242169625, 37.402375777345675 ], [ 127.112965562111157, 37.402314596786731 ], [ 127.112962529698521, 37.402085181816197 ], [ 127.112963165093802, 37.40192912443446 ], [ 127.112966692465605, 37.40187884411192 ], [ 127.112961385518474, 37.401706673141852 ], [ 127.112958425906982, 37.401284953222572 ], [ 127.112958362485301, 37.401114786501964 ], [ 127.112962263176584, 37.401064938305986 ], [ 127.112959371899024, 37.40056833443245 ], [ 127.112961154165461, 37.400168090240491 ], [ 127.112959231350018, 37.400000655357459 ] ] } },
{ "type": "Feature", "properties": { "도로번호": "제23호", "명칭": "천안-서울선", "도로구분": "지방도", "시점": "충청남도천안시", "종점": "서울특별시마포구", "포장재질": "포장", "분리대유무": "유", "차로수": 6, "도로폭": 27.9, "일방통행": "양방통행", "자동차전용": "일반", "기타": null, "UFID": "1000037709035A00210000000000000054", "region": "pangyo", "region_name": "제1판교테크노밸리", "base_year": 2023 }, "geometry": { "type": "LineString", "coordinates": [ [ 127.106392916429769, 37.400000501874025 ], [ 127.106293911947986, 37.400222953883365 ], [ 127.10584146837499, 37.401253127506003 ], [ 127.105637832530277, 37.401717497495397 ], [ 127.105572903606046, 37.401839157244027 ], [ 127.105456012455846, 37.402091646463958 ], [ 127.105304317482123, 37.402388694999651 ], [ 127.104803738022952, 37.403503458912652 ], [ 127.104701244569057, 37.403700846166068 ], [ 127.104591764133374, 37.403877344841646 ], [ 127.10445423032894, 37.404072086829537 ], [ 127.104443862190735, 37.404088530600433 ], [ 127.104309191258935, 37.404255094977501 ], [ 127.104182592658532, 37.404403397412246 ], [ 127.104037269745348, 37.404553599317524 ], [ 127.103894035875655, 37.404687526778517 ], [ 127.103738436641621, 37.404823465177984 ], [ 127.103563753634575, 37.404962861984295 ], [ 127.103503535752793, 37.405007722451202 ], [ 127.103353402458893, 37.405111263874922 ], [ 127.103201128236137, 37.405210563169888 ], [ 127.103048334811874, 37.405302168007211 ], [ 127.102959049902651, 37.405351522584382 ], [ 127.102767744016376, 37.405453702523467 ], [ 127.102581576412717, 37.405547372063246 ] ] } },
{ "type": "Feature", "properties": { "도로번호": null, "명칭": null, "도로구분": "미분류", "시점": null, "종점": null, "포장재질": "포장", "분리대유무": "무", "차로수": 6, "도로폭": 38.3, "일방통행": "양방통행", "자동차전용": "일반", "기타": null, "UFID": "1000037709035A00210000000000000053", "region": "pangyo", "region_name": "제1판교테크노밸리", "base_year": 2023 }, "geometry": { "type": "LineString", "coordinates": [ [ 127.112956972570785, 37.400000657515292 ], [ 127.112958895381226, 37.40016809239836 ], [ 127.112957113102752, 37.400568336590311 ], [ 127.112960004284261, 37.40106488640275 ], [ 127.1129561035915, 37.401114734598664 ], [ 127.112956167089209, 37.401284955380447 ], [ 127.112959126728612, 37.40170670233038 ], [ 127.11296443358944, 37.401878819239407 ], [ 127.112960906175559, 37.401929072531296 ], [ 127.112960270856732, 37.402085183974187 ], [ 127.112963303248932, 37.402314589934605 ], [ 127.112961983265009, 37.402375743462947 ], [ 127.112952468014825, 37.402778418637858 ], [ 127.112949731721116, 37.402836573115927 ], [ 127.11292217198347, 37.403061331971521 ] ] } },
{ "type": "Feature", "properties": { "도로번호": "제23호", "명칭": "천안-서울선", "도로구분": "지방도", "시점": "충청남도천안시", "종점": "서울특별시마포구", "포장재질": "포장", "분리대유무": "무", "차로수": 8, "도로폭": 57.0, "일방통행": "양방통행", "자동차전용": "일반", "기타": null, "UFID": "1000037709035A00210000000000000052", "region": "pangyo", "region_name": "제1판교테크노밸리", "base_year": 2023 }, "geometry": { "type": "LineString", "coordinates": [ [ 127.106406819244413, 37.400000507384078 ], [ 127.106396272324417, 37.40002560129934 ] ] } },
{ "type": "Feature", "properties": { "도로번호": null, "명칭": null, "도로구분": "미분류", "시점": null, "종점": null, "포장재질": "포장", "분리대유무": "무", "차로수": 2, "도로폭": 13.7, "일방통행": "양방통행", "자동차전용": "일반", "기타": null, "UFID": "1000037709035A00210000000000000043", "region": "pangyo", "region_name": "제1판교테크노밸리", "base_year": 2023 }, "geometry": { "type": "LineString", "coordinates": [ [ 127.101511944445491, 37.402887275672974 ], [ 127.10148525310872, 37.402860078753029 ], [ 127.100972080149248, 37.402731428873992 ], [ 127.100508180384864, 37.402581669027363 ], [ 127.099999990661232, 37.402350195215348 ] ] } },
{ "type": "Feature", "properties": { "도로번호": null, "명칭": null, "도로구분": "미분류", "시점": null, "종점": null, "포장재질": "포장", "분리대유무": "무", "차로수": 2, "도로폭": 10.2, "일방통행": "양방통행", "자동차전용": "일반", "기타": null, "UFID": "1000037709035A00210000000000000023", "region": "pangyo", "region_name": "제1판교테크노밸리", "base_year": 2023 }, "geometry": { "type": "LineString", "coordinates": [ [ 127.10142140736356, 37.403112347215369 ], [ 127.101385582220416, 37.403121198930769 ], [ 127.101335975642016, 37.403119971017112 ], [ 127.101123802184134, 37.403071623700697 ], [ 127.100792844430885, 37.402979840005571 ], [ 127.100351706373502, 37.402842142833109 ], [ 127.099999992107428, 37.402725245063202 ] ] } },
{ "type": "Feature", "properties": { "도로번호": null, "명칭": null, "도로구분": "미분류", "시점": null, "종점": null, "포장재질": "포장", "분리대유무": "무", "차로수": 3, "도로폭": 13.5, "일방통행": "양방통행", "자동차전용": "일반", "기타": null, "UFID": "1000037709035A00210000000000000022", "region": "pangyo", "region_name": "제1판교테크노밸리", "base_year": 2023 }, "geometry": { "type": "LineString", "coordinates": [ [ 127.102111975751953, 37.403958423788268 ], [ 127.100815548376303, 37.403554797897534 ], [ 127.100798025326156, 37.403550794285749 ], [ 127.100192734039126, 37.403364689375373 ], [ 127.100178224417292, 37.403358989199411 ], [ 127.100000000909063, 37.403301303557079 ] ] } },
{ "type": "Feature", "properties": { "도로번호": null, "명칭": null, "도로구분": "미분류", "시점": null, "종점": null, "포장재질": "포장", "분리대유무": "유", "차로수": 6, "도로폭": 22.2, "일방통행": "양방통행", "자동차전용": "일반", "기타": null, "UFID": "1000037709035A00210000000000000021", "region": "pangyo", "region_name": "제1판교테크노밸리", "base_year": 2023 }, "geometry": { "type": "LineString", "coordinates": [ [ 127.101404068660074, 37.403002032117982 ], [ 127.101401346053734, 37.403001538891573 ], [ 127.101018527056013, 37.402903159769778 ], [ 127.100755595207872, 37.402827689373865 ], [ 127.100538602012747, 37.402755287860629 ], [ 127.100344438277432, 37.402685308341873 ], [ 127.100253958608604, 37.402650722829172 ], [ 127.1000533842831, 37.402566791456259 ], [ 127.099999997532151, 37.402542346878143 ] ] } },
{ "type": "Feature", "properties": { "도로번호": null, "명칭": null, "도로구분": "미분류", "시점": null, "종점": null, "포장재질": "포장", "분리대유무": "무", "차로수": 2, "도로폭": 13.4, "일방통행": "양방통행", "자동차전용": "일반", "기타": null, "UFID": "1000037709035A00210000000000000015", "region": "pangyo", "region_name": "제1판교테크노밸리", "base_year": 2023 }, "geometry": { "type": "LineString", "coordinates": [ [ 127.100205684641978, 37.405235989623563 ], [ 127.099999989532478, 37.405357945666381 ] ] } },
{ "type": "Feature", "properties": { "도로번호": null, "명칭": null, "도로구분": "미분류", "시점": null, "종점": null, "포장재질": "포장", "분리대유무": "무", "차로수": 4, "도로폭": 18.3, "일방통행": "양방통행", "자동차전용": "일반", "기타": null, "UFID": "1000037709035A00210000000000000014", "region": "pangyo", "region_name": "제1판교테크노밸리", "base_year": 2023 }, "geometry": { "type": "LineString", "coordinates": [ [ 127.100273504252058, 37.405088110743883 ], [ 127.099999999629034, 37.404787635866931 ] ] } },
{ "type": "Feature", "properties": { "도로번호": null, "명칭": null, "도로구분": "미분류", "시점": null, "종점": null, "포장재질": "포장", "분리대유무": "무", "차로수": 5, "도로폭": 20.0, "일방통행": "양방통행", "자동차전용": "일반", "기타": null, "UFID": "1000037709035A00210000000000000013", "region": "pangyo", "region_name": "제1판교테크노밸리", "base_year": 2023 }, "geometry": { "type": "LineString", "coordinates": [ [ 127.099999999458774, 37.401889359149301 ], [ 127.100093706310346, 37.401786635575654 ] ] } }
]
}
